[
    {
        "restaurant_id": "n8xV9LQi1MxVqbqP5g3nEA",
        "ZIP_code": 20001,
        "restaurant_name": "Big Bear Cafe",
        "address": "1700 1st St NW",
        "city": "Washington, DC"
    },
    {
        "restaurant_id": "7gW9_cfTs9-0nQLM6_yNEQ",
        "ZIP_code": 20001,
        "restaurant_name": "Shouk",
        "address": "655 K St NW ",
        "city": "Washington, DC"
    },
    {
        "restaurant_id": "_Dif28NSqAbDmwPrt_enCg",
        "ZIP_code": 20001,
        "restaurant_name": "Oyster Oyster",
        "address": "1440 8th St NW ",
        "city": "Washington, DC"
    },
    {
        "restaurant_id": "sM75a0mD-Jri8dMmP7qxVg",
        "ZIP_code": 20001,
        "restaurant_name": "Dacha Cafe",
        "address": "1600 7th St NW ",
        "city": "Washington, DC"
    },
    {
        "restaurant_id": "hBw_KmUNbBS2pxblNl813A",
        "ZIP_code": 20001,
        "restaurant_name": "Yard House",
        "address": "812 7th St NW",
        "city": "Washington, DC"
    },
    {
        "restaurant_id": "-IBCLfj6PgbmHhVCvZUUbg",
        "ZIP_code": 20001,
        "restaurant_name": "HipCityVeg",
        "address": "712 7th St NW ",
        "city": "Washington, DC"
    },
    {
        "restaurant_id": "fvV90u91QtIox7DhQI_d8w",
        "ZIP_code": 20001,
        "restaurant_name": "Piccolina",
        "address": "963 Palmer Alley NW ",
        "city": "Washington, DC"
    },
    {
        "restaurant_id": "rlV2fFUMeXT8ALun2Yz5NQ",
        "ZIP_code": 20001,
        "restaurant_name": "Queen of Sheba Ethiopian Restaurant",
        "address": "1503 9th St NW ",
        "city": "Washington, DC"
    },
    {
        "restaurant_id": "IpjfHEbrMVJY0wDFy_6mXA",
        "ZIP_code": 20001,
        "restaurant_name": "Saran's Vegetarian Truck",
        "address": " ",
        "city": "Washington, DC"
    },
    {
        "restaurant_id": "Jcj1YF-oXOe4-t1pMIVGdQ",
        "ZIP_code": 20001,
        "restaurant_name": "Chaia Tacos",
        "address": "615 I St NW ",
        "city": "Washington, DC"
    },
    {
        "restaurant_id": "xcmJSS6LAGWLWAsVK6LALA",
        "ZIP_code": 20002,
        "restaurant_name": "Maketto",
        "address": "1351 H St NE ",
        "city": "Washington, DC"
    },
    {
        "restaurant_id": "1TPKywUEvuWSoAgnuvfPRw",
        "ZIP_code": 20002,
        "restaurant_name": "Pie Shop",
        "address": "1339 H St NE ",
        "city": "Washington, DC"
    },
    {
        "restaurant_id": "5Uq4p4LMspCYzMFpLJ63Ig",
        "ZIP_code": 20002,
        "restaurant_name": "Naked Lunch",
        "address": "1501 New York Ave NE",
        "city": "Washington, DC"
    },
    {
        "restaurant_id": "uPxaHQsTtZ-Km8arqPsPCA",
        "ZIP_code": 20002,
        "restaurant_name": "Fancy Radish",
        "address": "600 H St NE ",
        "city": "Washington, DC"
    },
    {
        "restaurant_id": "MiuU82xYRlDXU5VgUBmDUA",
        "ZIP_code": 20002,
        "restaurant_name": "Fare Well",
        "address": "406 H St NE ",
        "city": "Washington, DC"
    },
    {
        "restaurant_id": "lbZ4Pq9ZIq8uYol4PTg0hQ",
        "ZIP_code": 20002,
        "restaurant_name": "The Village Cafe",
        "address": "1272 5th St NE ",
        "city": "Washington, DC"
    },
    {
        "restaurant_id": "AIAz4l2d20IhrCb60KrZuA",
        "ZIP_code": 20002,
        "restaurant_name": "Shopkeepers",
        "address": "1231 Florida Ave NE ",
        "city": "Washington, DC"
    },
    {
        "restaurant_id": "1jmPlcoSkUeDBQlQpfIrXA",
        "ZIP_code": 20003,
        "restaurant_name": "Hype Cafe",
        "address": "1129 Pennsylvania Ave Se",
        "city": "Washington, DC"
    },
    {
        "restaurant_id": "w_SHdzDvRF05ivJUXJ9m5Q",
        "ZIP_code": 20003,
        "restaurant_name": "&pizza - Barracks Row",
        "address": "405 8th St SE ",
        "city": "Washington, DC"
    },
    {
        "restaurant_id": "qVRcdScgECJex_fTmN28Tw",
        "ZIP_code": 20003,
        "restaurant_name": "Oath Pizza - Navy Yard",
        "address": "110 M St SE ",
        "city": "Washington, DC"
    },
    {
        "restaurant_id": "SNA6QqV6-jqDZ0PAV4Elig",
        "ZIP_code": 20003,
        "restaurant_name": "sweetgreen Navy Yard",
        "address": "1212 4th St SE ",
        "city": "Washington, DC"
    },
    {
        "restaurant_id": "Bzndj1PfsjNSvTi4IVuY9w",
        "ZIP_code": 20003,
        "restaurant_name": "sweetgreen Capitol Hill",
        "address": "221 Pennsylvania Ave SE ",
        "city": "Washington, DC"
    },
    {
        "restaurant_id": "uPmJB-jwTcHsBnd6lZktFw",
        "ZIP_code": 20004,
        "restaurant_name": "Caf\u00e9 du Parc",
        "address": "1401 Pennsylvania Ave NW ",
        "city": "Washington, DC"
    },
    {
        "restaurant_id": "wRHR4iAYaqnDzMA7pgK2bA",
        "ZIP_code": 20004,
        "restaurant_name": "Punjab Grill",
        "address": "427 11th St NW ",
        "city": "Washington, DC"
    },
    {
        "restaurant_id": "hmfmuG-mWullRxxEKJq1bw",
        "ZIP_code": 20004,
        "restaurant_name": "Timgad Cafe",
        "address": "1300 Pennsylvania Ave ",
        "city": "Washington, DC"
    },
    {
        "restaurant_id": "yn_AY6kJSoe1GtxLbBzF8g",
        "ZIP_code": 20004,
        "restaurant_name": "&pizza - E Street",
        "address": "1005 E St NW",
        "city": "Washington, DC"
    },
    {
        "restaurant_id": "DDtCSZigubxFQLBxgJQP5Q",
        "ZIP_code": 20004,
        "restaurant_name": "Ella's Wood Fired Pizza",
        "address": "610 9th St NW ",
        "city": "Washington, DC"
    },
    {
        "restaurant_id": "hI1w_yO-8SAAp5TNmXd_2Q",
        "ZIP_code": 20005,
        "restaurant_name": "Elizabeth's Gone Raw",
        "address": "1341 L St NW ",
        "city": "Washington, DC"
    },
    {
        "restaurant_id": "tPLq4HODFlxTusDpv5bYfw",
        "ZIP_code": 20005,
        "restaurant_name": "Paul French Bakery & Cafe - Franklin Square",
        "address": "1275 K St NW ",
        "city": "Washington, DC"
    },
    {
        "restaurant_id": "i_giHC9izSoOoXbxiyQkkg",
        "ZIP_code": 20005,
        "restaurant_name": "Point Chaud Caf\u00e9 And Cr\u00eapes",
        "address": "1100 New York Ave NW ",
        "city": "Washington, DC"
    },
    {
        "restaurant_id": "0aLVeQikS7200jvvXbKdbA",
        "ZIP_code": 20005,
        "restaurant_name": "&pizza - K Street",
        "address": "1400 K St NW",
        "city": "Washington, DC"
    },
    {
        "restaurant_id": "C8sZ0mBWX3-waPWu8TQqCg",
        "ZIP_code": 20006,
        "restaurant_name": "Cafe Aria",
        "address": "1917 F St NW ",
        "city": "Washington, DC"
    },
    {
        "restaurant_id": "EBQd4HfWMTtcUZKkWrQh2A",
        "ZIP_code": 20006,
        "restaurant_name": "Chopt Creative Salad Co.",
        "address": "1730 Pennsylvania Ave NW ",
        "city": "Washington, DC"
    },
    {
        "restaurant_id": "Q_xfilliOCD1dNJD2H33qQ",
        "ZIP_code": 20006,
        "restaurant_name": "sweetgreen",
        "address": "888 17th St NW Ste 104",
        "city": "Washington, DC"
    },
    {
        "restaurant_id": "qGO0rs-uNANLexpMZldTtA",
        "ZIP_code": 20007,
        "restaurant_name": "Momo's Cafe",
        "address": "4828 MacArthur Blvd NW",
        "city": "Washington, DC"
    },
    {
        "restaurant_id": "XjJCNlCD07BhP2QZDw6u0g",
        "ZIP_code": 20007,
        "restaurant_name": "Chaia Tacos",
        "address": "3207 Grace St NW ",
        "city": "Washington, DC"
    },
    {
        "restaurant_id": "8M2lx56pR6Ld6_BbTbSyeg",
        "ZIP_code": 20007,
        "restaurant_name": "Falafel Inc",
        "address": "1210 Potomac St NW ",
        "city": "Washington, DC"
    },
    {
        "restaurant_id": "WfIb5ROUjAv47_eb5EU3Wg",
        "ZIP_code": 20007,
        "restaurant_name": "La Jolie Bleue",
        "address": "1560 Wisconsin Ave NW ",
        "city": "Washington, DC"
    },
    {
        "restaurant_id": "M6CCTsxdJ330872oM_QJSw",
        "ZIP_code": 20007,
        "restaurant_name": "Boulangerie Christophe",
        "address": "1422 Wisconsin Ave NW ",
        "city": "Washington, DC"
    },
    {
        "restaurant_id": "WcdNIulT45a4FKqzh5F0kA",
        "ZIP_code": 20007,
        "restaurant_name": "Janti Cafe",
        "address": "1826 Wisconsin Ave NW",
        "city": "Washington, DC"
    },
    {
        "restaurant_id": "b13BUPOiZSAoiduZIEUqTA",
        "ZIP_code": 20007,
        "restaurant_name": "Das Ethiopian",
        "address": "1201 28th St NW ",
        "city": "Washington, DC"
    },
    {
        "restaurant_id": "MWImGXLYiEMHtIJ9gTdFLw",
        "ZIP_code": 20007,
        "restaurant_name": "Crumbs & Whiskers | A Cat Cafe Experience.",
        "address": "3211 O St NW ",
        "city": "Washington, DC"
    },
    {
        "restaurant_id": "fkB3qJw2PyuTtAWRsoReNg",
        "ZIP_code": 20008,
        "restaurant_name": "Little Red Fox",
        "address": "5035 Connecticut Ave ",
        "city": "Washington, DC"
    },
    {
        "restaurant_id": "jOZoQgB-5ZYx5Oy5TXfzyA",
        "ZIP_code": 20008,
        "restaurant_name": "Merriweather Caf\u00e9",
        "address": "4155 Linnean Avenue ",
        "city": "Washington, DC"
    },
    {
        "restaurant_id": "a2jA9s6VLrKgMTqBRmoz3Q",
        "ZIP_code": 20008,
        "restaurant_name": "Petit Monde Bistro & Cafe",
        "address": "2653 Connecticut Ave NW",
        "city": "Washington, DC"
    },
    {
        "restaurant_id": "NEQSiNEQP9gFjzgkkK-YyA",
        "ZIP_code": 20009,
        "restaurant_name": "Brothers And Sisters",
        "address": "1770 Euclid St NW",
        "city": "Washington, DC"
    },
    {
        "restaurant_id": "b2_iQIqT6lSaI4zvqHwLYw",
        "ZIP_code": 20009,
        "restaurant_name": "VEGZ",
        "address": "2120 18th St NW ",
        "city": "Washington, DC"
    },
    {
        "restaurant_id": "MVP0Mta7rmF-Nbc1cIyIrQ",
        "ZIP_code": 20009,
        "restaurant_name": "Amsterdam Falafelshop",
        "address": "2425 18th St NW",
        "city": "Washington, DC"
    },
    {
        "restaurant_id": "0QoicLDs6j8pY3Wb0YRlNQ",
        "ZIP_code": 20009,
        "restaurant_name": "Spacycloud",
        "address": "2309 18th St NW",
        "city": "Washington, DC"
    },
    {
        "restaurant_id": "mYPoY0Pa3D71YPerfrSwrg",
        "ZIP_code": 20009,
        "restaurant_name": "Karma Kitchen",
        "address": "2305 18th St NW ",
        "city": "Washington, DC"
    },
    {
        "restaurant_id": "94EgqS3QkCrDUtOGzvIrrA",
        "ZIP_code": 20009,
        "restaurant_name": "Mikko",
        "address": "1636 R St NW ",
        "city": "Washington, DC"
    },
    {
        "restaurant_id": "odvIEE5vX2rb7bvF0B2EOA",
        "ZIP_code": 20009,
        "restaurant_name": "Potter's House",
        "address": "1658 Columbia Rd NW ",
        "city": "Washington, DC"
    },
    {
        "restaurant_id": "NYhn5eKKa73EbMEhG0yKPQ",
        "ZIP_code": 20009,
        "restaurant_name": "Rise Bakery",
        "address": "2409 18th St NW Fl 1",
        "city": "Washington, DC"
    },
    {
        "restaurant_id": "vmfDN21Jck3Myny3W8t99g",
        "ZIP_code": 20010,
        "restaurant_name": "Ell\u0113",
        "address": "3221 Mt Pleasant St NW ",
        "city": "Washington, DC"
    },
    {
        "restaurant_id": "si558gBxg3U0ZnRYHjxGKQ",
        "ZIP_code": 20010,
        "restaurant_name": "Addis Paris",
        "address": "3103 Mt Pleasant St NW",
        "city": "Washington, DC"
    },
    {
        "restaurant_id": "BPZSoOGfUCLLRQ8mc_5ZPw",
        "ZIP_code": 20010,
        "restaurant_name": "Sticky Fingers Sweets & Eats",
        "address": "1370 Park Rd NW ",
        "city": "Washington, DC"
    },
    {
        "restaurant_id": "NoJyxApfG1R_YjypP8foog",
        "ZIP_code": 20010,
        "restaurant_name": "Capitol Cafe",
        "address": "1436 Park Rd NW ",
        "city": "Washington, DC"
    },
    {
        "restaurant_id": "7oSvCQNHu0ylOAxshKbiJg",
        "ZIP_code": 20010,
        "restaurant_name": "&pizza - Columbia Heights",
        "address": "3229 14th St NW ",
        "city": "Washington, DC"
    },
    {
        "restaurant_id": "7l03_QI6dDUjTGzBzQ0sCw",
        "ZIP_code": 20010,
        "restaurant_name": "Le Caprice DC",
        "address": "3456 14th St NW ",
        "city": "Washington, DC"
    },
    {
        "restaurant_id": "0vZNEMGn9f9PXd9nhNRlbA",
        "ZIP_code": 20010,
        "restaurant_name": "Doubles",
        "address": "3118 Georgia Ave NW ",
        "city": "Washington, DC"
    },
    {
        "restaurant_id": "bJESrIaRu8Bi91AmxUosTg",
        "ZIP_code": 20010,
        "restaurant_name": "Coffy Cafe",
        "address": "3310 14th St NW ",
        "city": "Washington, DC"
    },
    {
        "restaurant_id": "mJbdlEhmvmLMnqSRJmS79A",
        "ZIP_code": 20010,
        "restaurant_name": "Sheba Caf\u00e9",
        "address": "3500 14th St NW ",
        "city": "Washington, DC"
    },
    {
        "restaurant_id": "MfiRbRjZpU-Z1NqKi6D9VQ",
        "ZIP_code": 20011,
        "restaurant_name": "Mita Cafe",
        "address": "703 Kennedy St NW ",
        "city": "Washington, DC"
    },
    {
        "restaurant_id": "EdxuWK9xmHajeSuYwveQPQ",
        "ZIP_code": 20011,
        "restaurant_name": "Ritchie's Cafe",
        "address": "6204 Georgia Ave NW",
        "city": "Washington, DC"
    },
    {
        "restaurant_id": "osdS9tU-W8NCot8I1EnEgA",
        "ZIP_code": 20011,
        "restaurant_name": "Senbeb Cafe",
        "address": "6224 3rd St NW",
        "city": "Washington, DC"
    },
    {
        "restaurant_id": "q_KmafURkmJKydzLd6dPhA",
        "ZIP_code": 20012,
        "restaurant_name": "Zeke Sport Cafe",
        "address": "7711 Georgia Ave NW ",
        "city": "Washington, DC"
    },
    {
        "restaurant_id": "eSymgsBHmJ4Pr37iUhzcQQ",
        "ZIP_code": 20015,
        "restaurant_name": "Open City At the National Cathedral",
        "address": "3101 Wisconsin Ave NW ",
        "city": "Washington, DC"
    },
    {
        "restaurant_id": "_4lHB4xZfCElhW3sytSr8g",
        "ZIP_code": 20016,
        "restaurant_name": "The Bridge Cafe",
        "address": "4400 Massachusetts Ave Nw",
        "city": "Washington, DC"
    },
    {
        "restaurant_id": "GdJv_lK039Mv3K2qQzIZSA",
        "ZIP_code": 20016,
        "restaurant_name": "Au Bon Pain",
        "address": "5215 Loughboro Rd NW ",
        "city": "Washington, DC"
    },
    {
        "restaurant_id": "0DMTUPJAbMFlnyCrMGo6wQ",
        "ZIP_code": 20017,
        "restaurant_name": "&pizza - Brookland",
        "address": "666 Monroe St NE",
        "city": "Washington, DC"
    },
    {
        "restaurant_id": "WVewr54RQXavpeSuSEOVmw",
        "ZIP_code": 20017,
        "restaurant_name": "District Wings",
        "address": "716 Monroe Steet NE",
        "city": "Washington, DC"
    },
    {
        "restaurant_id": "QJ_wVdEFWyBQEHAtBmEHQQ",
        "ZIP_code": 20017,
        "restaurant_name": "Vegan Pizza Loko",
        "address": "703 Edgewood St Ne",
        "city": "Washington, DC"
    },
    {
        "restaurant_id": "S_VC8ihaKwGWkHbnp0prLQ",
        "ZIP_code": 20019,
        "restaurant_name": "Eclectic Cafe",
        "address": "4058 Minnesota Ave NE ",
        "city": "Washington, DC"
    },
    {
        "restaurant_id": "1ewLNz1TLSJzVt8bNmtYSA",
        "ZIP_code": 20020,
        "restaurant_name": "Everlasting Life Vegan Restaurant",
        "address": "1231 Good Hope Rd SE ",
        "city": "Washington, DC"
    },
    {
        "restaurant_id": "hs991pe5crNwoGSSTTXrcg",
        "ZIP_code": 20020,
        "restaurant_name": "Turning Natural",
        "address": "2025 Martin Luther King Jr Ave SE ",
        "city": "Washington, DC"
    },
    {
        "restaurant_id": "J6tqiy1SxiyAtOP9u8Kz4w",
        "ZIP_code": 20020,
        "restaurant_name": "King's Cafe",
        "address": "2100 Martin Luther King Jr Ave SE ",
        "city": "Washington, DC"
    },
    {
        "restaurant_id": "AITLlZ2CMFEcqeTIn8IxAw",
        "ZIP_code": 20032,
        "restaurant_name": "Secrets of Nature Health Food Center",
        "address": "3923 S Capitol St SW ",
        "city": "Washington, DC"
    },
    {
        "restaurant_id": "s6YlBaSVQ0MIsS6bndRS9g",
        "ZIP_code": 20036,
        "restaurant_name": "Tatte Bakery & Cafe",
        "address": "1301 Connecticut Ave NW",
        "city": "Washington, DC"
    },
    {
        "restaurant_id": "lRH_cZ08TXKnCS5FKP0Qow",
        "ZIP_code": 20036,
        "restaurant_name": "Un Je Ne Sais Quoi",
        "address": "1361 Connecticut Ave NW ",
        "city": "Washington, DC"
    },
    {
        "restaurant_id": "685_XIj2cihRlATYySqCOg",
        "ZIP_code": 20036,
        "restaurant_name": "&pizza - Dupont",
        "address": "1215 Connecticut Ave NW ",
        "city": "Washington, DC"
    },
    {
        "restaurant_id": "a87NJiq6bxvj_t-Tc5gbYA",
        "ZIP_code": 20036,
        "restaurant_name": "Bryson's",
        "address": "1020 19th St NW ",
        "city": "Washington, DC"
    },
    {
        "restaurant_id": "joz4GgB2T9PGx_6JGG8i1w",
        "ZIP_code": 20036,
        "restaurant_name": "Fruitive",
        "address": "1330 Connecticut Ave NW",
        "city": "Washington, DC"
    },
    {
        "restaurant_id": "fudJvNRpbCSXVc2RbocQrA",
        "ZIP_code": 20036,
        "restaurant_name": "Galley Cafe",
        "address": "1625 Massachusetts Ave NW ",
        "city": "Washington, DC"
    },
    {
        "restaurant_id": "FXdIxIb0dXRnltRW10il_Q",
        "ZIP_code": 20037,
        "restaurant_name": "Mercy Me",
        "address": "1143 New Hampshire Ave NW",
        "city": "Washington, DC"
    },
    {
        "restaurant_id": "M9zf0KCoZOS2vsWLjwEbow",
        "ZIP_code": 20037,
        "restaurant_name": "Garden Cafe",
        "address": "2117 E St NW ",
        "city": "Washington, DC"
    },
    {
        "restaurant_id": "yHMcYZAS0MDDdo7YpmLrKQ",
        "ZIP_code": 20037,
        "restaurant_name": "&pizza - Hotel Hive",
        "address": "2224 F St NW ",
        "city": "Washington, DC"
    },
    {
        "restaurant_id": "o8yFK_ZeHLdu-bJDvJ3MOQ",
        "ZIP_code": 20037,
        "restaurant_name": "Hive Bar x &bar",
        "address": "2224 F St NW ",
        "city": "Washington, DC"
    },
    {
        "restaurant_id": "WufRQn_7AqF0ihf0ZbM5yg",
        "ZIP_code": 20105,
        "restaurant_name": "Aldie General Store & Cafe",
        "address": "39285 John Mosby Hwy ",
        "city": "Aldie"
    },
    {
        "restaurant_id": "DZt7BxIGuxPJ5DlB3DSy_A",
        "ZIP_code": 20105,
        "restaurant_name": "Brew Birds",
        "address": "42020 Village Center Plz Ste 130",
        "city": "Aldie"
    },
    {
        "restaurant_id": "7vv2TF0PN6G7vzGh824KFg",
        "ZIP_code": 20109,
        "restaurant_name": "Julianas Cafe",
        "address": "7230 Nathan Ct",
        "city": "Manassas"
    },
    {
        "restaurant_id": "Yy57AkbLSi5yfljA1bCzDw",
        "ZIP_code": 20110,
        "restaurant_name": "The Omelette Cafe",
        "address": "8961 Center St",
        "city": "Manassas"
    },
    {
        "restaurant_id": "-ZB_ItZhaAwblPFfPH3wcQ",
        "ZIP_code": 20110,
        "restaurant_name": "Cakes By Happy Eatery",
        "address": "9685 Liberia Ave Unit 107",
        "city": "Manassas"
    },
    {
        "restaurant_id": "_s9mTruhmiXM888f6D1M-Q",
        "ZIP_code": 20111,
        "restaurant_name": "Good Time Cafe",
        "address": "7606 Centreville Rd",
        "city": "Manassas"
    },
    {
        "restaurant_id": "mCYpeKFZBBlf56BXsXYKvw",
        "ZIP_code": 20111,
        "restaurant_name": "Alcove Hookah Lounge",
        "address": "7258 Centreville Rd",
        "city": "Manassas"
    },
    {
        "restaurant_id": "VWV_E0c8BDTsGfRsq9RZJw",
        "ZIP_code": 20117,
        "restaurant_name": "Side Saddle Cafe",
        "address": "7 W Washington St",
        "city": "Middleburg"
    },
    {
        "restaurant_id": "hgLYl1InJ_bFJzgCzk0N5A",
        "ZIP_code": 20120,
        "restaurant_name": "Ocha Thai Kitchen & Cafe",
        "address": "5037 Westfields Blvd ",
        "city": "Centreville"
    },
    {
        "restaurant_id": "lrrwCNHXNmlx0CA5ns3tBw",
        "ZIP_code": 20120,
        "restaurant_name": "Coffee Project",
        "address": "5825 Trinity Pkwy",
        "city": "Centreville"
    },
    {
        "restaurant_id": "hCgxWRN48ubC-QSnlx3IeA",
        "ZIP_code": 20121,
        "restaurant_name": "Matcha Cafe Maiko",
        "address": "5947 Centreville Crest Ln",
        "city": "Centreville"
    },
    {
        "restaurant_id": "TuRCTe6Fz4DkGjAf-jLfJg",
        "ZIP_code": 20121,
        "restaurant_name": "Manna Bistro & Bakery",
        "address": "14215-X Centreville Sq ",
        "city": "Centreville"
    },
    {
        "restaurant_id": "qB8BwTEZOZInB8WkPxPDWA",
        "ZIP_code": 20121,
        "restaurant_name": "Lulu Cafe",
        "address": "13838 Braddock Rd ",
        "city": "Centreville"
    },
    {
        "restaurant_id": "aT9zkq5TxpWmb9Fw3oM65Q",
        "ZIP_code": 20121,
        "restaurant_name": "Hunter Mill Deli",
        "address": "14215U Centreville Sq ",
        "city": "Centreville"
    },
    {
        "restaurant_id": "B0E0fMYDuOceTtzly6h1dw",
        "ZIP_code": 20132,
        "restaurant_name": "La Petite LouLou Creperie",
        "address": "713 E Main St ",
        "city": "Purcellville"
    },
    {
        "restaurant_id": "-NAKaiXDaORVT9rSYz7PMA",
        "ZIP_code": 20147,
        "restaurant_name": "Chicago's Pizza With A Twist",
        "address": "20691 Ashburn Rd Ste 155/160",
        "city": "Ashburn"
    },
    {
        "restaurant_id": "EHlw6hYgmsRLAlgsiBShoA",
        "ZIP_code": 20147,
        "restaurant_name": "Thai Ashburn",
        "address": "44031 Ashburn Shopping Plz",
        "city": "Ashburn"
    },
    {
        "restaurant_id": "x1TeI-lQ-2ZmbNFTerfxgg",
        "ZIP_code": 20147,
        "restaurant_name": "Elevation Burger",
        "address": "20602 Easthampton Plz ",
        "city": "Ashburn"
    },
    {
        "restaurant_id": "s4xRV-YX7SB1wZMimlqeBQ",
        "ZIP_code": 20148,
        "restaurant_name": "Malgudi Veg",
        "address": "43150 Broadlands Center Plz Unit 166",
        "city": "Ashburn"
    },
    {
        "restaurant_id": "KPyRs9s1znYjRShc_OgL6Q",
        "ZIP_code": 20151,
        "restaurant_name": "Chit Chaat Corner",
        "address": "14404 Chantilly Crossing Ln",
        "city": "Chantilly"
    },
    {
        "restaurant_id": "yXXy7j-4vT_hD9tcJQwQGQ",
        "ZIP_code": 20151,
        "restaurant_name": "Haze Hookah Cafe",
        "address": "14513 Lee Jackson Memorial Hwy ",
        "city": "Chantilly"
    },
    {
        "restaurant_id": "-6ReUHcNWKB-kqSc5GS58w",
        "ZIP_code": 20151,
        "restaurant_name": "Dano's Granola",
        "address": "4520 Daly Dr Ste 100",
        "city": "Chantilly"
    },
    {
        "restaurant_id": "4K4a4909Theo4c27OIt5Yg",
        "ZIP_code": 20155,
        "restaurant_name": "SoBol Gainesville",
        "address": "13841 Heathcote Blvd Ste 115",
        "city": "Gainesville"
    },
    {
        "restaurant_id": "KlEzQTp4OKweCrSvQ8P9Aw",
        "ZIP_code": 20164,
        "restaurant_name": "Cafe Rice & Kabob",
        "address": "47100 Community Plz ",
        "city": "Sterling"
    },
    {
        "restaurant_id": "IkcbMU0FQGAkuIqGaEP52g",
        "ZIP_code": 20165,
        "restaurant_name": "T zone Dessert",
        "address": "45999 Regal Plz Ste 110",
        "city": "Sterling"
    },
    {
        "restaurant_id": "qz6F_cH4Fv5RvWqjpK5cDA",
        "ZIP_code": 20165,
        "restaurant_name": "Meows Corner",
        "address": "21435 Epicerie Plz Ste 115",
        "city": "Sterling"
    },
    {
        "restaurant_id": "8LFFzgzep99yevPZ6Td1nw",
        "ZIP_code": 20166,
        "restaurant_name": "Sally's Cafe",
        "address": "22365 Broderick Dr Ste 120",
        "city": "Sterling"
    },
    {
        "restaurant_id": "dw3n_i1vcCcTUf7xFbPynQ",
        "ZIP_code": 20166,
        "restaurant_name": "Uptown Cafe",
        "address": "22970 Indian Creek Dr Ste 125",
        "city": "Sterling"
    },
    {
        "restaurant_id": "uWV-SLVUQXKBso1_AKQFTg",
        "ZIP_code": 20169,
        "restaurant_name": "Haymarket Cafe",
        "address": "15225 Heathcote Blvd ",
        "city": "Haymarket"
    },
    {
        "restaurant_id": "cbFC-JJoiMd1dJ3HVSyitw",
        "ZIP_code": 20170,
        "restaurant_name": "Egg Karne",
        "address": "909 Ferndale Ave ",
        "city": "Herndon"
    },
    {
        "restaurant_id": "eBx5EHyKxTDL1dF3mNbfEQ",
        "ZIP_code": 20170,
        "restaurant_name": "Naked Lunch",
        "address": "424 Elden St",
        "city": "Herndon"
    },
    {
        "restaurant_id": "xCTG9oRpKS1BvyT8-jhHGw",
        "ZIP_code": 20170,
        "restaurant_name": "Adyar Ananda Bhavan A2B",
        "address": "645 Elden St ",
        "city": "Herndon"
    },
    {
        "restaurant_id": "3NFwxR9VANiH2JdEjF--7A",
        "ZIP_code": 20170,
        "restaurant_name": "GreenFare Organic Cafe",
        "address": "408 Elden St",
        "city": "Herndon"
    },
    {
        "restaurant_id": "cUVE-9XGeWfWaAaHaqtZ8Q",
        "ZIP_code": 20170,
        "restaurant_name": "Bagel Cafe",
        "address": "300 Elden St ",
        "city": "Herndon"
    },
    {
        "restaurant_id": "66WDSoHEa5Q0voj-5GR5lA",
        "ZIP_code": 20170,
        "restaurant_name": "Balaji Cafe",
        "address": "298 Sunset Park Dr ",
        "city": "Herndon"
    },
    {
        "restaurant_id": "N90nIEbQhHacIZgptgfFTw",
        "ZIP_code": 20170,
        "restaurant_name": "Olive Express Mediterranean Cafe",
        "address": "2550 Wasser Ter",
        "city": "Herndon"
    },
    {
        "restaurant_id": "2rGideIpt7NL7qrvpa816Q",
        "ZIP_code": 20171,
        "restaurant_name": "Wood Oak Cafe",
        "address": "2291 Wood Oak Dr Ste 135",
        "city": "Herndon"
    },
    {
        "restaurant_id": "Nr3O1bI9mzkBImQ2VJtg7g",
        "ZIP_code": 20175,
        "restaurant_name": "ResQ BBQ Catering",
        "address": "19623 Evergreen Mill Rd ",
        "city": "Leesburg"
    },
    {
        "restaurant_id": "XuV5SVouGgnvW0Z-QXm7qw",
        "ZIP_code": 20175,
        "restaurant_name": "Georgetown Cafe & Bakery",
        "address": "21 S King St ",
        "city": "Leesburg"
    },
    {
        "restaurant_id": "9ybkscQPHFLgYDcEqInnvw",
        "ZIP_code": 20176,
        "restaurant_name": "Roots 657",
        "address": "42301 Spinks Ferry Rd",
        "city": "Leesburg"
    },
    {
        "restaurant_id": "esJ686oqZ-TY2KZGBSNBcg",
        "ZIP_code": 20176,
        "restaurant_name": "Trinity House Caf\u00e9",
        "address": "101 E Market St ",
        "city": "Leesburg"
    },
    {
        "restaurant_id": "8Mp53KiwPkE5Zhx2yljr1g",
        "ZIP_code": 20176,
        "restaurant_name": "Gumax Cafe and Grill",
        "address": "19465 Deerfield Ave",
        "city": "Lansdowne"
    },
    {
        "restaurant_id": "lTmFp4ZsRZ9eyku3GEmz8w",
        "ZIP_code": 20176,
        "restaurant_name": "Inova Loudoun Hospital Cafeteria",
        "address": "44045 Riverside Pkwy ",
        "city": "Leesburg"
    },
    {
        "restaurant_id": "2-wZUEk8XLyngV2I-V2CLg",
        "ZIP_code": 20186,
        "restaurant_name": "Black Bear Bistro & Brick Oven",
        "address": "32 Main St ",
        "city": "Warrenton"
    },
    {
        "restaurant_id": "bSdANQ51werw6UDDSfWQwg",
        "ZIP_code": 20186,
        "restaurant_name": "Red Truck Bakery",
        "address": "22 Waterloo St ",
        "city": "Warrenton"
    },
    {
        "restaurant_id": "n1MznjAy0mhK9p9q3QTjMQ",
        "ZIP_code": 20186,
        "restaurant_name": "Deja Brew Cafe",
        "address": "22 Main St",
        "city": "Warrenton"
    },
    {
        "restaurant_id": "a9RhjjOLqZ7KUkUfQR1OnQ",
        "ZIP_code": 20187,
        "restaurant_name": "Covert Cafe",
        "address": "7168 Lineweaver Rd ",
        "city": "Warrenton"
    },
    {
        "restaurant_id": "gnuN7B1VB1mtteIz-xMcVA",
        "ZIP_code": 20190,
        "restaurant_name": "Bike Lane Brewing and Cafe",
        "address": "11150 Sunset Hills Rd Ste 110",
        "city": "Reston"
    },
    {
        "restaurant_id": "2YV1-ZJgQm7gCUrD2TChhA",
        "ZIP_code": 20190,
        "restaurant_name": "sweetgreen",
        "address": "11935 Democracy Dr ",
        "city": "Reston"
    },
    {
        "restaurant_id": "kPA9s_JmevWi1d2bJ1rwMQ",
        "ZIP_code": 20190,
        "restaurant_name": "honeygrow",
        "address": "12100 Sunset Hills Rd Ste R12",
        "city": "Reston"
    },
    {
        "restaurant_id": "huCJZ9oIm6sfbQSONm7sfg",
        "ZIP_code": 20190,
        "restaurant_name": "&pizza - Reston",
        "address": "1826 Library St",
        "city": "Reston"
    },
    {
        "restaurant_id": "6OnKm8aW4dJJz6VO9F5XSg",
        "ZIP_code": 20190,
        "restaurant_name": "Young's Bistro",
        "address": "1767 Business Center Dr Ste 200",
        "city": "Reston"
    },
    {
        "restaurant_id": "UnCt-KuOR3goGq5BPkh_Ug",
        "ZIP_code": 20190,
        "restaurant_name": "la Madeleine French Bakery & Cafe",
        "address": "1833 Fountain Dr ",
        "city": "Reston"
    },
    {
        "restaurant_id": "5Ui7HTmPs_hl-Qx3Elqt3A",
        "ZIP_code": 20191,
        "restaurant_name": "Cosmos Cafe",
        "address": "1850 Centennial Park Dr Ste R110",
        "city": "Reston"
    },
    {
        "restaurant_id": "84ieGFmMeOSUdo7fcqBSSg",
        "ZIP_code": 20191,
        "restaurant_name": "Zaina's Deli and Cafe",
        "address": "11190 Sunrise Valley Dr ",
        "city": "Reston"
    },
    {
        "restaurant_id": "kl_5KDJqvV2yJPNJJxwRNw",
        "ZIP_code": 20191,
        "restaurant_name": "Uptown Cafe",
        "address": "12007 Sunrise Valley Dr Ste 150",
        "city": "Reston"
    },
    {
        "restaurant_id": "9f-3kDSgHqGmiqUzFv5WuQ",
        "ZIP_code": 20191,
        "restaurant_name": "Uptown Cafe",
        "address": "10805 Parkridge Blvd",
        "city": "Reston"
    },
    {
        "restaurant_id": "-7mtTaJVlmx9TqWM-CAw-A",
        "ZIP_code": 22003,
        "restaurant_name": "Breeze Bakery Cafe",
        "address": "4125 Hummer Rd ",
        "city": "Annandale"
    },
    {
        "restaurant_id": "irNaK7wXiwKn493_6XfTCA",
        "ZIP_code": 22003,
        "restaurant_name": "Dama Ethiopian Restaurant Pastry & Cafe",
        "address": "6669 Little River Tpke ",
        "city": "Annandale"
    },
    {
        "restaurant_id": "5_Pv05D_LButD9oty8M46w",
        "ZIP_code": 22015,
        "restaurant_name": "Cafe L'ami",
        "address": "9550 Burke Rd ",
        "city": "Burke"
    },
    {
        "restaurant_id": "tWPzvRYPkInB2vokMCbK8Q",
        "ZIP_code": 22030,
        "restaurant_name": "East Wind",
        "address": "10414 Main St ",
        "city": "Fairfax"
    },
    {
        "restaurant_id": "YoAq1a5KHlL9vUIB-74D8w",
        "ZIP_code": 22030,
        "restaurant_name": "Dulce Crepes",
        "address": "11217F Lee Hwy",
        "city": "Fairfax"
    },
    {
        "restaurant_id": "iKEVXJDCqhOeRCh6jq74tg",
        "ZIP_code": 22030,
        "restaurant_name": "Saravana Palace",
        "address": "11725 Lee Hwy Ste A15",
        "city": "Fairfax"
    },
    {
        "restaurant_id": "PirTvbQQLHXUBVAK2b-bZA",
        "ZIP_code": 22030,
        "restaurant_name": "Epicure Cafe",
        "address": "11104 Lee Hwy ",
        "city": "Fairfax"
    },
    {
        "restaurant_id": "NeQR1NuIzfCNmavnqw_AgQ",
        "ZIP_code": 22030,
        "restaurant_name": "Panda Cafe",
        "address": "11725 Lee Hwy ",
        "city": "Fairfax"
    },
    {
        "restaurant_id": "mmpsHJLSStJe603jctjAiQ",
        "ZIP_code": 22030,
        "restaurant_name": "Woodlands Indian Vegetarian Restaurant",
        "address": "4078 Jermantown Rd ",
        "city": "Fairfax"
    },
    {
        "restaurant_id": "ca6g6LtitHRtmzZYYPQw6A",
        "ZIP_code": 22031,
        "restaurant_name": "True Food Kitchen",
        "address": "2910 District Ave ",
        "city": "Fairfax"
    },
    {
        "restaurant_id": "lPfhpw4GqMraeKcOJ5O-0A",
        "ZIP_code": 22031,
        "restaurant_name": "First Watch",
        "address": "9600 Main St Ste S",
        "city": "Fairfax"
    },
    {
        "restaurant_id": "ucsZ0SPi7K5ChmvJcGI5rA",
        "ZIP_code": 22031,
        "restaurant_name": "Oath Pizza - Mosaic District",
        "address": "2920 District Ave Ste 150",
        "city": "Fairfax"
    },
    {
        "restaurant_id": "w6g2CUDT5cIzh5a9CMEQGQ",
        "ZIP_code": 22031,
        "restaurant_name": "Naked Lunch",
        "address": "8298 Glass Aly ",
        "city": "Fairfax"
    },
    {
        "restaurant_id": "T7NM_J5IXgfHeWpwmJalrA",
        "ZIP_code": 22032,
        "restaurant_name": "Gathering Grounds Cafe",
        "address": "10637 Braddock Rd ",
        "city": "Fairfax"
    },
    {
        "restaurant_id": "cjByrRkCoTjhxwzlC6xtLQ",
        "ZIP_code": 22033,
        "restaurant_name": "First Watch",
        "address": "13027 Lee Jackson Memorial Hwy ",
        "city": "Chantilly"
    },
    {
        "restaurant_id": "q6DV2eVtmNRvu1jryKKHPA",
        "ZIP_code": 22033,
        "restaurant_name": "Silver Diner",
        "address": "12251 Fair Lakes Pkwy ",
        "city": "Fairfax"
    },
    {
        "restaurant_id": "epNCDIyoVpugfaYc8IFmPw",
        "ZIP_code": 22033,
        "restaurant_name": "Fifty West Cafe",
        "address": "3975 Fair Ridge Dr Ste 28",
        "city": "Fairfax"
    },
    {
        "restaurant_id": "o94D66_gEtNacOjIWrKi2w",
        "ZIP_code": 22033,
        "restaurant_name": "Hunan Cafe",
        "address": "4096 Majestic Ln ",
        "city": "Fairfax"
    },
    {
        "restaurant_id": "y85_eSWoJiOSr4AunUKwRg",
        "ZIP_code": 22039,
        "restaurant_name": "Chloez Cafe",
        "address": "5622 Ox Rd Unit F",
        "city": "Fairfax Station"
    },
    {
        "restaurant_id": "U8GVdYCN5_tWFnamxbJGGA",
        "ZIP_code": 22041,
        "restaurant_name": "Nazret Ethiopia Restaurant",
        "address": "3821D S George Mason Dr",
        "city": "Falls Church"
    },
    {
        "restaurant_id": "HY_V8Nqgc9yYpsmDQZ_YcQ",
        "ZIP_code": 22041,
        "restaurant_name": "la Madeleine French Bakery & Cafe",
        "address": "5861 Crossroads Center Way ",
        "city": "Bailey's Crossroads"
    },
    {
        "restaurant_id": "nuvu967M94ORtElQPw31OQ",
        "ZIP_code": 22042,
        "restaurant_name": "Loving Hut",
        "address": "2842 Rogers Dr ",
        "city": "Falls Church"
    },
    {
        "restaurant_id": "BwBu9jNwyrrYmoafEs0VbQ",
        "ZIP_code": 22042,
        "restaurant_name": "Silver Diner",
        "address": "8150 Porter Rd ",
        "city": "Merrifield"
    },
    {
        "restaurant_id": "Uwc_Zj7pk-bg9UeFKLnXLA",
        "ZIP_code": 22044,
        "restaurant_name": "One Tea House",
        "address": "6757 Wilson Blvd Unit 10/11",
        "city": "Falls Church"
    },
    {
        "restaurant_id": "-gSH7jwDRNJUNP0gXdR8qw",
        "ZIP_code": 22044,
        "restaurant_name": "Thanh Van Restaurant",
        "address": "6795 Wilson Blvd Ste 37",
        "city": "Falls Church"
    },
    {
        "restaurant_id": "smkQFWj_LQAzP_TbuwZ18g",
        "ZIP_code": 22046,
        "restaurant_name": "The Johnsons Cafe",
        "address": "301 S Washington St",
        "city": "Falls Church"
    },
    {
        "restaurant_id": "IyEv1D0L2rpUU2DzeCllQw",
        "ZIP_code": 22046,
        "restaurant_name": "Rania's Love",
        "address": "1106 W Broad St Ste A",
        "city": "Falls Church"
    },
    {
        "restaurant_id": "bfW5hicmgKscjmYU7ExRXA",
        "ZIP_code": 22046,
        "restaurant_name": "Sfizi Cafe",
        "address": "800 W Broad St ",
        "city": "Falls Church"
    },
    {
        "restaurant_id": "DuMUkbjDb-aUDcsWZIBLDg",
        "ZIP_code": 22046,
        "restaurant_name": "Famille",
        "address": "700A W Broad St ",
        "city": "Falls Church"
    },
    {
        "restaurant_id": "JGxa0E5bNP-8x_Zb9l8FCw",
        "ZIP_code": 22046,
        "restaurant_name": "Camba Cafe",
        "address": "7177 Lee Hwy ",
        "city": "Falls Church"
    },
    {
        "restaurant_id": "Ua8asGipaVjVifOL3U3UPw",
        "ZIP_code": 22079,
        "restaurant_name": "Brickmakers Cafe",
        "address": "9751 Ox Rd ",
        "city": "Lorton"
    },
    {
        "restaurant_id": "Td4QqpB3QZcu1Gtzp4Rbog",
        "ZIP_code": 22079,
        "restaurant_name": "Pho Cong Ly Noodle and Grill",
        "address": "8971 Ox Rd Ste 160",
        "city": "Lorton"
    },
    {
        "restaurant_id": "dhVuy7BAQc1qPAytw30V3Q",
        "ZIP_code": 22079,
        "restaurant_name": "New York Cafe",
        "address": "8253 C Backlick Rd ",
        "city": "Lorton"
    },
    {
        "restaurant_id": "Ixs87EcyfdTPhBHo7ab1cw",
        "ZIP_code": 22101,
        "restaurant_name": "Chopt Creative Salad Co.",
        "address": "1449A Chain Bridge Rd ",
        "city": "McLean"
    },
    {
        "restaurant_id": "CSjy1Yum2Pgx4yZwENLU1Q",
        "ZIP_code": 22102,
        "restaurant_name": "Flower Child - McLean",
        "address": "1656 Boro Pl ",
        "city": "McLean"
    },
    {
        "restaurant_id": "UYJYh271waRBov_I3j0rUQ",
        "ZIP_code": 22102,
        "restaurant_name": "Lost Dog Cafe",
        "address": "1690 Anderson Rd ",
        "city": "McLean"
    },
    {
        "restaurant_id": "AS7kknp7Z2vhYrZz2gbOmA",
        "ZIP_code": 22102,
        "restaurant_name": "Le Grand Cafe",
        "address": "7935 L Tysons Corner Ctr ",
        "city": "McLean"
    },
    {
        "restaurant_id": "1KnV9xlTNzjK7cgGavsCuQ",
        "ZIP_code": 22102,
        "restaurant_name": "Bourbon Coffee",
        "address": "7900 Westpark Dr ",
        "city": "McLean"
    },
    {
        "restaurant_id": "abMBBkHBalBRFO2tswXOKA",
        "ZIP_code": 22102,
        "restaurant_name": "Kefaya's Caf\u00e9",
        "address": "7927 Jones Branch Dr ",
        "city": "McLean"
    },
    {
        "restaurant_id": "UmfjuM4E0oV0ragoQSd-7g",
        "ZIP_code": 22124,
        "restaurant_name": "Yoko Japanese Restaurant",
        "address": "2946 Chain Bridge Rd Ste J",
        "city": "Oakton"
    },
    {
        "restaurant_id": "jed0ufACYd2lmQxcTXNigg",
        "ZIP_code": 22134,
        "restaurant_name": "Marine Corps University Cafe",
        "address": "2044 Broadway St ",
        "city": "Quantico"
    },
    {
        "restaurant_id": "iTMvODXoP9eo3odv-ueRbQ",
        "ZIP_code": 22150,
        "restaurant_name": "Yard House",
        "address": "6791 Springfield Mall",
        "city": "Springfield"
    },
    {
        "restaurant_id": "FqR099igjOiWwK505cmX-A",
        "ZIP_code": 22150,
        "restaurant_name": "&pizza - Springfield",
        "address": "6801 Springfield Mall",
        "city": "Springfield"
    },
    {
        "restaurant_id": "evRBSShjAFes3E27zHbyjw",
        "ZIP_code": 22150,
        "restaurant_name": "Saran Indian Vegetarian Cafe",
        "address": "7708 Backlick Rd Ste C",
        "city": "Springfield"
    },
    {
        "restaurant_id": "bpnb_ahOQCZEeTGGBNMqOg",
        "ZIP_code": 22150,
        "restaurant_name": "Silver Diner",
        "address": "6592 Springfield Mall ",
        "city": "Springfield"
    },
    {
        "restaurant_id": "EuJ4iKiA49Dzm-esHTXK2g",
        "ZIP_code": 22150,
        "restaurant_name": "Agape Books and Cafe",
        "address": "6509 Springfield Mall",
        "city": "Springfield"
    },
    {
        "restaurant_id": "4WNE2n4jTzhDshKLiUZIyA",
        "ZIP_code": 22151,
        "restaurant_name": "The Swiss Bakery & Pastry Shop",
        "address": "5224 Port Royal Rd ",
        "city": "Springfield"
    },
    {
        "restaurant_id": "nThzsm1FTXUxpbB4g4DJgQ",
        "ZIP_code": 22180,
        "restaurant_name": "MoMo House",
        "address": "131A Maple Ave W",
        "city": "Vienna"
    },
    {
        "restaurant_id": "BfVvzkzAtYPx0zZApH2q0g",
        "ZIP_code": 22180,
        "restaurant_name": "Bards Alley",
        "address": "110 Church St NW ",
        "city": "Vienna"
    },
    {
        "restaurant_id": "7Vch26qSX05Oh9Tbd8N_yQ",
        "ZIP_code": 22180,
        "restaurant_name": "Chopt Creative Salad Co.",
        "address": "160 Maple Ave W ",
        "city": "Vienna"
    },
    {
        "restaurant_id": "w0yP_jI8XMp0oHu2Qsg6kg",
        "ZIP_code": 22180,
        "restaurant_name": "Amma Vegetarian Kitchen",
        "address": "344 Maple Ave E ",
        "city": "Vienna"
    },
    {
        "restaurant_id": "87ET6m2lbHX_eLk2cCMudw",
        "ZIP_code": 22180,
        "restaurant_name": "Beirut Cafe",
        "address": "409 Maple Ave W",
        "city": "Vienna"
    },
    {
        "restaurant_id": "zu9SbYpl6h6WatWpTiJ9EA",
        "ZIP_code": 22181,
        "restaurant_name": "Sunflower Vegetarian Restaurant",
        "address": "2531 Chain Bridge Rd ",
        "city": "Vienna"
    },
    {
        "restaurant_id": "M1II7SuXxrO1mBjhdjitaA",
        "ZIP_code": 22182,
        "restaurant_name": "Blessing Cafe",
        "address": "8618 Westwood Center Dr Ste 130",
        "city": "Vienna"
    },
    {
        "restaurant_id": "3jeQ5OmU57XOPmq4bjI4PQ",
        "ZIP_code": 22182,
        "restaurant_name": "Best Buns Bakery & Cafe",
        "address": "8051 Leesburg Pike",
        "city": "Vienna"
    },
    {
        "restaurant_id": "_iPS-aKzEU2RnsLTjKvfYw",
        "ZIP_code": 22182,
        "restaurant_name": "honeygrow",
        "address": "8399 Leesburg Pike ",
        "city": "Vienna"
    },
    {
        "restaurant_id": "VlnRLduacBh4130EvYw_0w",
        "ZIP_code": 22191,
        "restaurant_name": "Brixx Wood Fired Pizza",
        "address": "14900 Potomac Town Pl ",
        "city": "Woodbridge"
    },
    {
        "restaurant_id": "2XzRTPWHrMLisP70CXxyHg",
        "ZIP_code": 22191,
        "restaurant_name": "Betanya Ethiopian Market & Cafe",
        "address": "14827 Build America Dr ",
        "city": "Woodbridge"
    },
    {
        "restaurant_id": "wh6tfpmke6WFtC8wPfj_Iw",
        "ZIP_code": 22191,
        "restaurant_name": "La Taza Cafe & Bakery",
        "address": "14455 Jefferson Davis Hwy ",
        "city": "Woodbridge"
    },
    {
        "restaurant_id": "67NSM58UNS5ZuB71NmTBSw",
        "ZIP_code": 22192,
        "restaurant_name": "The Secret Garden Cafe",
        "address": "404 Mill St ",
        "city": "Occoquan"
    },
    {
        "restaurant_id": "MNjHY_-3IAHhZeoWd4-uvQ",
        "ZIP_code": 22192,
        "restaurant_name": "Silver Diner",
        "address": "14375 Smoketown Rd ",
        "city": "Dale City"
    },
    {
        "restaurant_id": "YB92vXpB2zYM1OA78UzzuQ",
        "ZIP_code": 22201,
        "restaurant_name": "Silver Diner",
        "address": "3200 Wilson Blvd ",
        "city": "Arlington"
    },
    {
        "restaurant_id": "4fpnJU_cH0KyyZX456EPDw",
        "ZIP_code": 22201,
        "restaurant_name": "Three Whistles",
        "address": "2719 Wilson Blvd",
        "city": "Arlington"
    },
    {
        "restaurant_id": "edzE_1Rg2ncOhNz3xQa34Q",
        "ZIP_code": 22201,
        "restaurant_name": "Troys Italian Kitchen",
        "address": "2710-B Washington Blvd ",
        "city": "Arlington"
    },
    {
        "restaurant_id": "pCMTgw8vV5d7pObigutzxw",
        "ZIP_code": 22201,
        "restaurant_name": "sweetgreen",
        "address": "3100 Clarendon Blvd",
        "city": "Arlington"
    },
    {
        "restaurant_id": "XceRhqfiQd1bfAoGv12msw",
        "ZIP_code": 22201,
        "restaurant_name": "Mocha Cafe & Pastry",
        "address": "2720 Washington Blvd",
        "city": "Arlington"
    },
    {
        "restaurant_id": "ObPQuzm3QSuddxNAeaY-_Q",
        "ZIP_code": 22202,
        "restaurant_name": "Paramount Cafe",
        "address": "1425 S Eads St ",
        "city": "Arlington"
    },
    {
        "restaurant_id": "qWiso6-BDyKn8MmIv7EoQg",
        "ZIP_code": 22202,
        "restaurant_name": "sweetgreen",
        "address": "575 12th Rd S Ste B2",
        "city": "Arlington"
    },
    {
        "restaurant_id": "dZ-7jCXHe3c86MU_kTMqHw",
        "ZIP_code": 22202,
        "restaurant_name": "sweetgreen",
        "address": "2200 Crystal Dr Ste E",
        "city": "Arlington"
    },
    {
        "restaurant_id": "Wj9z-uuvQoPMyoDabb0kvQ",
        "ZIP_code": 22202,
        "restaurant_name": "Veranda Cafe",
        "address": "1480 Crystal Dr ",
        "city": "Arlington"
    },
    {
        "restaurant_id": "ZDoFP_8Cs85Hl42STP6vwA",
        "ZIP_code": 22202,
        "restaurant_name": "Jefferson Cafe",
        "address": "1421 Jefferson Davis Hwy Ste 80",
        "city": "Arlington"
    },
    {
        "restaurant_id": "4xtT46Or4ZVoN-ZQE_vouQ",
        "ZIP_code": 22202,
        "restaurant_name": "Gallery Cafe",
        "address": "1215 S Clark St Ste 109",
        "city": "Arlington"
    },
    {
        "restaurant_id": "3X0mA-t8kSfJHhfU-55X2w",
        "ZIP_code": 22202,
        "restaurant_name": "Espressamente illy",
        "address": "2800 S Potomac Ave ",
        "city": "Arlington"
    },
    {
        "restaurant_id": "sc0SXG5m_P4_BICvm16KmQ",
        "ZIP_code": 22203,
        "restaurant_name": "True Food Kitchen",
        "address": "4238 Wilson Blvd ",
        "city": "Arlington"
    },
    {
        "restaurant_id": "PORqy07ff850-rnxjRxW9A",
        "ZIP_code": 22203,
        "restaurant_name": "Good Company Doughnuts & Cafe",
        "address": "672 N Glebe Rd Retail 1",
        "city": "Arlington"
    },
    {
        "restaurant_id": "WZgvCC3oSc_zhB1JciKnkg",
        "ZIP_code": 22203,
        "restaurant_name": "Sweet Leaf",
        "address": "650 N Quincy St ",
        "city": "Arlington"
    },
    {
        "restaurant_id": "MNWB-D9jfD6qQ-mAFW7QkQ",
        "ZIP_code": 22203,
        "restaurant_name": "Le Caf\u00e9 Market",
        "address": "901 N Nelson St Ste 103",
        "city": "Arlington"
    },
    {
        "restaurant_id": "Uu6A4edyD6NUlqqAo2Cehw",
        "ZIP_code": 22203,
        "restaurant_name": "&pizza - Ballston",
        "address": "3924 Wilson Blvd ",
        "city": "Arlington"
    },
    {
        "restaurant_id": "TEFTsQjgsWA-ZQhhOfGkGg",
        "ZIP_code": 22203,
        "restaurant_name": "sweetgreen",
        "address": "4075 Wilson Blvd ",
        "city": "Arlington"
    },
    {
        "restaurant_id": "cKAiwNIJYMh1R7PUxIhZzQ",
        "ZIP_code": 22204,
        "restaurant_name": "Greens N Teff",
        "address": "3203 Columbia Pike",
        "city": "Arlington"
    },
    {
        "restaurant_id": "kPGm3RQLgoiVjCraTp7M4Q",
        "ZIP_code": 22204,
        "restaurant_name": "Idido Coffee and Social House",
        "address": "1107 S Walter Reed Dr Ste 102",
        "city": "Arlington"
    },
    {
        "restaurant_id": "hfmrtXrowkQXbVmAfMuOLA",
        "ZIP_code": 22207,
        "restaurant_name": "Chill Zone",
        "address": "2442 N Harrison St ",
        "city": "Arlington"
    },
    {
        "restaurant_id": "v-98KWiLjbGKAzXA7Ai3fw",
        "ZIP_code": 22209,
        "restaurant_name": "AHRA Cafe & Sandwich Bar",
        "address": "1100 Wilson Blvd ",
        "city": "Arlington"
    },
    {
        "restaurant_id": "Yw4J6YfYJu6JDq37DlEE_g",
        "ZIP_code": 22209,
        "restaurant_name": "sweetgreen",
        "address": "1800 N Lynn St",
        "city": "Arlington"
    },
    {
        "restaurant_id": "1F5RWWqIrNFxNEDrKL-E6A",
        "ZIP_code": 22209,
        "restaurant_name": "Bourbon Coffee",
        "address": "1919 N Lynn St ",
        "city": "Arlington"
    },
    {
        "restaurant_id": "vTBTAQATYU1dUxfthVe2bw",
        "ZIP_code": 22302,
        "restaurant_name": "1823 Cafe",
        "address": "3737 Seminary Rd ",
        "city": "Alexandria"
    },
    {
        "restaurant_id": "_VowG86LD5yDayijhZHf2Q",
        "ZIP_code": 22302,
        "restaurant_name": "Cafe Pizzaiolo",
        "address": "1623 Fern St ",
        "city": "Alexandria"
    },
    {
        "restaurant_id": "pf1XWSQ0RQjpmmmGQEt4jA",
        "ZIP_code": 22303,
        "restaurant_name": "Voila Pastry & Cafe",
        "address": "5908 N Kings Hwy ",
        "city": "Alexandria"
    },
    {
        "restaurant_id": "Elz73CRNSzIRoUnpxlHICg",
        "ZIP_code": 22304,
        "restaurant_name": "Eisenhower Deli",
        "address": "4825 Eisenhower Ave ",
        "city": "Alexandria"
    },
    {
        "restaurant_id": "IvWIICceHhyt0TSQ7wADLg",
        "ZIP_code": 22305,
        "restaurant_name": "SPICE KRAFT Indian Bistro",
        "address": "2607 Mount Vernon Ave ",
        "city": "Alexandria"
    },
    {
        "restaurant_id": "WqMCacZUMYXU_sKsxeisQQ",
        "ZIP_code": 22305,
        "restaurant_name": "&pizza - Potomac Yard",
        "address": "3525 Jefferson Davis Hwy",
        "city": "Alexandria"
    },
    {
        "restaurant_id": "bb1DxiSTfnsXx33Z5rEDqw",
        "ZIP_code": 22309,
        "restaurant_name": "Oraydes Cafe",
        "address": "8859 Richmond Hwy",
        "city": "Alexandria"
    },
    {
        "restaurant_id": "kFXxO7UEa5zJkHY7kvj-uQ",
        "ZIP_code": 22311,
        "restaurant_name": "Cafe Gloria",
        "address": "1900 N Beauregard St Ste 100",
        "city": "Alexandria"
    },
    {
        "restaurant_id": "unTE2-gqlt-sBTEIhBaHrQ",
        "ZIP_code": 22311,
        "restaurant_name": "Double Apple Lounge",
        "address": "5101 Seminary Rd ",
        "city": "Alexandria"
    },
    {
        "restaurant_id": "5LlUNzrS1ib6BiQXiAj5vQ",
        "ZIP_code": 22312,
        "restaurant_name": "Cherokee Cafe",
        "address": "5510 Cherokee Ave",
        "city": "Alexandria"
    },
    {
        "restaurant_id": "tCWSowI5-xXfmvfN66fdow",
        "ZIP_code": 22314,
        "restaurant_name": "Ada\u2019s on the River",
        "address": "3 Pioneer Mill Way",
        "city": "Alexandria"
    },
    {
        "restaurant_id": "XaJfwK4NLyh-3KmNIrPxrg",
        "ZIP_code": 22314,
        "restaurant_name": "Elizabeth\u2019s Counter",
        "address": "804 N Henry St",
        "city": "Alexandria"
    },
    {
        "restaurant_id": "gY8Hlr-Oh0Ly8EFpXCWHsA",
        "ZIP_code": 22314,
        "restaurant_name": "Hard Times Cafe",
        "address": "1404 King St ",
        "city": "Alexandria"
    },
    {
        "restaurant_id": "o3beQ33AHUZdPAl2AoriAQ",
        "ZIP_code": 22314,
        "restaurant_name": "Uptowner Cafe",
        "address": "1609 King St ",
        "city": "Alexandria"
    },
    {
        "restaurant_id": "qidyOeKmBna9DVxetfMhqg",
        "ZIP_code": 22314,
        "restaurant_name": "sweetgreen",
        "address": "823 King St",
        "city": "Alexandria"
    },
    {
        "restaurant_id": "wR8BoMHSDW2HLH5LZXQWmg",
        "ZIP_code": 22314,
        "restaurant_name": "la Madeleine French Bakery & Cafe",
        "address": "500 King St ",
        "city": "Alexandria"
    },
    {
        "restaurant_id": "3Ch1yXqtd_FOoeD7-IN5PQ",
        "ZIP_code": 22315,
        "restaurant_name": "la Madeleine French Bakery & Cafe",
        "address": "5876 Kingstowne Ctr Ste 100",
        "city": "Alexandria"
    },
    {
        "restaurant_id": "RPqoXMAkaELYaXQAaM3BSg",
        "ZIP_code": 22401,
        "restaurant_name": "Katora Coffee",
        "address": "615 Caroline St ",
        "city": "Fredericksburg"
    },
    {
        "restaurant_id": "IeDahK6l9aHsKtt7IRuvXQ",
        "ZIP_code": 22401,
        "restaurant_name": "Fu Kien Gourmet",
        "address": "435 Jefferson Davis Hwy ",
        "city": "Fredericksburg"
    },
    {
        "restaurant_id": "LyAuD-VBGfEAL1Duzhou1w",
        "ZIP_code": 22401,
        "restaurant_name": "Katora Cafe UMW",
        "address": "1801 College Ave ",
        "city": "Fredericksburg"
    },
    {
        "restaurant_id": "fuQcLklCX3Qf7RU1PeH5Pg",
        "ZIP_code": 22406,
        "restaurant_name": "My Deli Soup",
        "address": "560 Celebrate Virginia Pkwy Unit 105",
        "city": "Fredericksburg"
    },
    {
        "restaurant_id": "m-ZtUuXG7GIty1f63mpE3w",
        "ZIP_code": 22432,
        "restaurant_name": "360 Grill",
        "address": "15453 Northumberland Hwy ",
        "city": "Burgess"
    },
    {
        "restaurant_id": "LaQWj04k-sr2u8xNga2cgQ",
        "ZIP_code": 22546,
        "restaurant_name": "The Mix House",
        "address": "8097 Ladysmith Rd ",
        "city": "Ruther Glen"
    },
    {
        "restaurant_id": "NnEnXD-daZvl6bYbhPLhwg",
        "ZIP_code": 22553,
        "restaurant_name": "Courthouse Cafe",
        "address": "8955 Courthouse Rd ",
        "city": "Spotsylvania"
    },
    {
        "restaurant_id": "1TimJ-Qlc5wluBSv8tkknw",
        "ZIP_code": 22554,
        "restaurant_name": "Grounds Bistro",
        "address": "25 Apricot St ",
        "city": "Stafford"
    },
    {
        "restaurant_id": "jIF55qTEPSnFJu7--JG8dQ",
        "ZIP_code": 22554,
        "restaurant_name": "Bella Cafe",
        "address": "3846 Jefferson Davis Hwy ",
        "city": "Stafford"
    },
    {
        "restaurant_id": "acVmWReYDTCgShyZWWceXg",
        "ZIP_code": 22560,
        "restaurant_name": "Java Jacks Coffee House",
        "address": "504 S Church Ln",
        "city": "Tappahannock"
    },
    {
        "restaurant_id": "7yqG64Lxsuei_cBs6pChMA",
        "ZIP_code": 22560,
        "restaurant_name": "Rivahside Cafe",
        "address": "221 Prince St ",
        "city": "Tappahannock"
    },
    {
        "restaurant_id": "tLEFw6Fqm3BuNX_45-jkNw",
        "ZIP_code": 22578,
        "restaurant_name": "The River Market",
        "address": "1 Rappahannock Dr ",
        "city": "White Stone"
    },
    {
        "restaurant_id": "0wXvZ9Y67u8a5woSgvZBEQ",
        "ZIP_code": 22578,
        "restaurant_name": "Willaby's Cafe'",
        "address": "327 Old Ferry Rd ",
        "city": "White Stone"
    },
    {
        "restaurant_id": "VbGNj3O_3iu2-MYEJZP7Ww",
        "ZIP_code": 22601,
        "restaurant_name": "Pot-O-Pho",
        "address": "2254 Valley Ave ",
        "city": "Winchester"
    },
    {
        "restaurant_id": "cba8lw8EUaHWzLot2vJ9NQ",
        "ZIP_code": 22601,
        "restaurant_name": "Hideaway Cafe",
        "address": "141 S Loudoun St ",
        "city": "Winchester"
    },
    {
        "restaurant_id": "5jzoOFO8I78f-ZbR0T7gHg",
        "ZIP_code": 22601,
        "restaurant_name": "Courtyard Cafe",
        "address": "1840 Amherst St ",
        "city": "Winchester"
    },
    {
        "restaurant_id": "y_Ilqb4Xd3ayA_gTXtYuNw",
        "ZIP_code": 22603,
        "restaurant_name": "Delicias Mexicanas Cafe",
        "address": "1709 Berryville Pike Ste B",
        "city": "Winchester"
    },
    {
        "restaurant_id": "K4UU3fCrKq_raHlr026dBQ",
        "ZIP_code": 22603,
        "restaurant_name": "Delicias Mexicanas",
        "address": "1709 Berryville Pike Ste B",
        "city": "Winchester"
    },
    {
        "restaurant_id": "9PGeFcvIO19EHYoEiKgKEw",
        "ZIP_code": 22627,
        "restaurant_name": "Skyward Cafe",
        "address": "650 Zachary Taylor Hwy ",
        "city": "Flint Hill"
    },
    {
        "restaurant_id": "gm09Yf0T1RJMLpAQDIwuRw",
        "ZIP_code": 22630,
        "restaurant_name": "Blue Wing Frog",
        "address": "219 Chester St",
        "city": "Front Royal"
    },
    {
        "restaurant_id": "eJJOlplkoNbCq8_pEh-kjQ",
        "ZIP_code": 22630,
        "restaurant_name": "Shenandoah Confections",
        "address": "477 South St Ste F",
        "city": "Front Royal"
    },
    {
        "restaurant_id": "l_syceyumMM3C5V6Oa_D2A",
        "ZIP_code": 22664,
        "restaurant_name": "Woodstock Garden Cafe",
        "address": "1175 Hisey Ave",
        "city": "Woodstock"
    },
    {
        "restaurant_id": "JfFmjWztqEIsAr2iN8YIzQ",
        "ZIP_code": 22664,
        "restaurant_name": "Woodstock Cafe",
        "address": "117 S Main St ",
        "city": "Woodstock"
    },
    {
        "restaurant_id": "hFihKVmqUEbMi_O0Yg_Lzw",
        "ZIP_code": 22701,
        "restaurant_name": "Luigi's Italian Restaurant",
        "address": "235 Southgate Shopping Ctr ",
        "city": "Culpeper"
    },
    {
        "restaurant_id": "qPqpg0EGQi774dFhMpxxlg",
        "ZIP_code": 22727,
        "restaurant_name": "Yoder's Country Market",
        "address": "2105 S Seminole Trl ",
        "city": "Madison"
    },
    {
        "restaurant_id": "pgJ1OXgcWFFuUY9lrkE5Bw",
        "ZIP_code": 22740,
        "restaurant_name": "Before & After",
        "address": "31 Main St",
        "city": "Sperryville"
    },
    {
        "restaurant_id": "dYZOnrezPeIHkgTmxYjr7w",
        "ZIP_code": 22801,
        "restaurant_name": "BoBoKo Indonesian Cafe",
        "address": "217 S Liberty St Ste 102",
        "city": "Harrisonburg"
    },
    {
        "restaurant_id": "0c7N9k2mPmuQJln3T1gH2w",
        "ZIP_code": 22801,
        "restaurant_name": "Greens & Grains Cafe",
        "address": "865 Port Republic Rd",
        "city": "Harrisonburg"
    },
    {
        "restaurant_id": "MxcNfK1RHID4H3BJjWv_Ew",
        "ZIP_code": 22801,
        "restaurant_name": "Cinnamon Bear Bakery & Deli",
        "address": "600 University Blvd Ste E",
        "city": "Harrisonburg"
    },
    {
        "restaurant_id": "eV-5z6cDkg-_wBmMGu2q5w",
        "ZIP_code": 22801,
        "restaurant_name": "Heritage Bakery & Cafe",
        "address": "212 S Main St",
        "city": "Harrisonburg"
    },
    {
        "restaurant_id": "A4k-_e3eLuYRPMwC_FnRlQ",
        "ZIP_code": 22801,
        "restaurant_name": "La Habana Tropical Cafe",
        "address": "47 Court Sq ",
        "city": "Harrisonburg"
    },
    {
        "restaurant_id": "jHkjOjD3u4VhzgqO9Gv32g",
        "ZIP_code": 22802,
        "restaurant_name": "The Little Grill Collective",
        "address": "621 N Main St ",
        "city": "Harrisonburg"
    },
    {
        "restaurant_id": "4CplYVSHYvWK83Fk-Uw57w",
        "ZIP_code": 22802,
        "restaurant_name": "A Bowl of Good Cafe",
        "address": "831 Mt Clinton Pike",
        "city": "Harrisonburg"
    },
    {
        "restaurant_id": "lnYCHbrS8KQq441yOylqvg",
        "ZIP_code": 22812,
        "restaurant_name": "Sugar & Bean Cafe",
        "address": "318 N Main St",
        "city": "Bridgewater"
    },
    {
        "restaurant_id": "nyhPV03ucDOZjOAVAE9koA",
        "ZIP_code": 22821,
        "restaurant_name": "Braithwaite Studios Cafe",
        "address": "415 Mason St",
        "city": "Dayton"
    },
    {
        "restaurant_id": "3ewNJQRiV0q4F_UGYLouow",
        "ZIP_code": 22827,
        "restaurant_name": "Terri's Country Cafe",
        "address": "15552 Old Spotswood Trl ",
        "city": "Elkton"
    },
    {
        "restaurant_id": "O3exoP2L_O6KQRs9xAVeUQ",
        "ZIP_code": 22835,
        "restaurant_name": "Gathering Grounds Patisserie & Cafe",
        "address": "24 E Main St ",
        "city": "Luray"
    },
    {
        "restaurant_id": "WHR_SaBYMS2S08YM_9EOZg",
        "ZIP_code": 22842,
        "restaurant_name": "Curtain Call Coffeehouse Cafe",
        "address": "5966 Main St ",
        "city": "Mount Jackson"
    },
    {
        "restaurant_id": "f6VJ23jA86DWn-L_aB49ag",
        "ZIP_code": 22846,
        "restaurant_name": "Crossroads Cafe & Catering",
        "address": "4549 Spotswood Trail Ste 9",
        "city": "Penn Laird"
    },
    {
        "restaurant_id": "ggAvusvvaMz8ifJm5GRd-A",
        "ZIP_code": 22901,
        "restaurant_name": "Grit Coffee - Stonefield",
        "address": "2035 Bond St Ste 185",
        "city": "Charlottesville"
    },
    {
        "restaurant_id": "JR0d21UfEPnxM2pZu6kxrQ",
        "ZIP_code": 22902,
        "restaurant_name": "Pikasso Swig",
        "address": "315 Merchant Walk Sq ",
        "city": "Charlottesville"
    },
    {
        "restaurant_id": "IHrB1AgyRKKXOMdkDlTkEg",
        "ZIP_code": 22902,
        "restaurant_name": "Bang!",
        "address": "213 2nd St SW ",
        "city": "Charlottesville"
    },
    {
        "restaurant_id": "PfM5WP4ZS2zssvKVGnUh-A",
        "ZIP_code": 22902,
        "restaurant_name": "Revolutionary Soup",
        "address": "108 2nd St SW Ste 17",
        "city": "Charlottesville"
    },
    {
        "restaurant_id": "GJPf0iNWNMW_6pLPn2-UGQ",
        "ZIP_code": 22902,
        "restaurant_name": "Citizen Bowl Shop",
        "address": "223 W Main St",
        "city": "Charlottesville"
    },
    {
        "restaurant_id": "K55Djb9GrriofNvR4H_8kg",
        "ZIP_code": 22902,
        "restaurant_name": "Bridge Progressive Arts Initiative",
        "address": "205 Monticello Rd",
        "city": "Charlottesville"
    },
    {
        "restaurant_id": "Cwg1Li_xL6OqLQpBmpAtiA",
        "ZIP_code": 22902,
        "restaurant_name": "Twisted Branch Tea Bazaar",
        "address": "414 E Main St ",
        "city": "Charlottesville"
    },
    {
        "restaurant_id": "IjvCFBfaBIUmyxYyxixUUw",
        "ZIP_code": 22902,
        "restaurant_name": "Java Java Cafe",
        "address": "421 E Main St",
        "city": "Charlottesville"
    },
    {
        "restaurant_id": "nvBlvNMNT-TLoSw8Bolk3Q",
        "ZIP_code": 22903,
        "restaurant_name": "First Watch",
        "address": "1114B Emmet St N",
        "city": "Charlottesville"
    },
    {
        "restaurant_id": "T5KVosL_6_QZnyCY9D87WA",
        "ZIP_code": 22903,
        "restaurant_name": "Mahana Fresh",
        "address": "2142 Barracks Rd",
        "city": "Charlottesville"
    },
    {
        "restaurant_id": "o0sbbdaYxLV80rBzPkXumQ",
        "ZIP_code": 22903,
        "restaurant_name": "MarieBette Cafe and Bakery",
        "address": "700 Rose Hill Dr ",
        "city": "Charlottesville"
    },
    {
        "restaurant_id": "5PLdT7nktOpiBBNvQYiCfA",
        "ZIP_code": 22903,
        "restaurant_name": "Well House Cafe",
        "address": "118 10th 1/2 St NW ",
        "city": "Charlottesville"
    },
    {
        "restaurant_id": "As5eSf9x_dQaS-grQ6Qfsg",
        "ZIP_code": 22903,
        "restaurant_name": "Chopt Creative Salad Co.",
        "address": "1114 Emmet St ",
        "city": "Charlottesville"
    },
    {
        "restaurant_id": "xlJtxNCdOBHsl_a7wkiQAQ",
        "ZIP_code": 22903,
        "restaurant_name": "Ming Dynasty Restaurant & Lounge",
        "address": "1417 Emmet St N ",
        "city": "Charlottesville"
    },
    {
        "restaurant_id": "D-LxcE_t7Zt7izHMMbStlg",
        "ZIP_code": 22903,
        "restaurant_name": "HotCakes",
        "address": "1137-A Emmet St ",
        "city": "Charlottesville"
    },
    {
        "restaurant_id": "scjFFVuwXGukp9XGX1ZlKw",
        "ZIP_code": 22903,
        "restaurant_name": "The Juice Laundry",
        "address": "722 Preston Ave Ste 105",
        "city": "Charlottesville"
    },
    {
        "restaurant_id": "ar4g_RWDW-9-kaY8rNb34A",
        "ZIP_code": 22903,
        "restaurant_name": "The Juice Laundry",
        "address": "1411 University Ave",
        "city": "Charlottesville"
    },
    {
        "restaurant_id": "tCsLa84hBO5M0UIkDoA1tg",
        "ZIP_code": 22903,
        "restaurant_name": "Fine Arts Cafe",
        "address": "109 Culbreth Rd ",
        "city": "Charlottesville"
    },
    {
        "restaurant_id": "O2jyK2pGuDSGqzQ70ZOC8w",
        "ZIP_code": 22911,
        "restaurant_name": "Turbo Grill",
        "address": "100 Bowen Lp ",
        "city": "Charlottesville"
    },
    {
        "restaurant_id": "SmhxxNsZ1NT0PTZMvfVaLw",
        "ZIP_code": 22939,
        "restaurant_name": "Take Out 250",
        "address": "1548 Jefferson Hwy ",
        "city": "Fishersville"
    },
    {
        "restaurant_id": "H9a5vipVhg8DjJx-Wg46uw",
        "ZIP_code": 22958,
        "restaurant_name": "DeVine",
        "address": "121 Blue Ridge Dr",
        "city": "Wintergreen"
    },
    {
        "restaurant_id": "yep2BiP5w4P32WFw-UhhFQ",
        "ZIP_code": 22964,
        "restaurant_name": "Cristina's Cafe",
        "address": "2851 Patrick Henry Hwy",
        "city": "Piney River"
    },
    {
        "restaurant_id": "PxC2f1fn6122yi-a9Ftf_g",
        "ZIP_code": 22972,
        "restaurant_name": "The Market At Grelen",
        "address": "15091 Yager Rd ",
        "city": "Somerset"
    },
    {
        "restaurant_id": "n29FHF74M7-HMXzxawUG6g",
        "ZIP_code": 23005,
        "restaurant_name": "The Caboose Market & Cafe",
        "address": "108 S Railroad Ave ",
        "city": "Ashland"
    },
    {
        "restaurant_id": "0A3n8_uVseC6n3-IKX87BQ",
        "ZIP_code": 23005,
        "restaurant_name": "Canteen Ashland",
        "address": "100 N Railroad Ave",
        "city": "Ashland"
    },
    {
        "restaurant_id": "GQECR-357VCee3uqr6HQbQ",
        "ZIP_code": 23059,
        "restaurant_name": "Barnes and Noble",
        "address": "9850 Brook Rd ",
        "city": "Glen Allen"
    },
    {
        "restaurant_id": "-v5d3-UFk_96BSgX-mRNbg",
        "ZIP_code": 23060,
        "restaurant_name": "Silver Diner",
        "address": "10890 W Broad St ",
        "city": "Glen Allen"
    },
    {
        "restaurant_id": "hvxpvgUksbd00Fyct1Mbhg",
        "ZIP_code": 23060,
        "restaurant_name": "Pho Saigon",
        "address": "10190 W Broad St ",
        "city": "Glen Allen"
    },
    {
        "restaurant_id": "ZNtGHEDqqCmYQwxuzos_tg",
        "ZIP_code": 23060,
        "restaurant_name": "Market Cafe",
        "address": "10950 Nuckols Rd ",
        "city": "Glen Allen"
    },
    {
        "restaurant_id": "uOb25DjkmIn_zl3ShIvfUw",
        "ZIP_code": 23060,
        "restaurant_name": "Corner Bakery Cafe",
        "address": "11000 West Broad St",
        "city": "Glen Allen"
    },
    {
        "restaurant_id": "a1egHwbxtLn4UKsjH_Hz7A",
        "ZIP_code": 23061,
        "restaurant_name": "Sweet Tooth Cafe and Bakery",
        "address": "6655 Main St ",
        "city": "Gloucester Courthouse"
    },
    {
        "restaurant_id": "nnezw6Oj5O4Gw8Xjjie8Qw",
        "ZIP_code": 23072,
        "restaurant_name": "The Wild Horse Country Cafe and Malt Shoppe",
        "address": "4938 George Washington Memorial Hwy ",
        "city": "Hayes"
    },
    {
        "restaurant_id": "8GWDZOSRrTm-d8xHKBFIXQ",
        "ZIP_code": 23093,
        "restaurant_name": "Floozies Pie Shop",
        "address": "109B Main St ",
        "city": "Louisa"
    },
    {
        "restaurant_id": "bSu9Xbz7Hf3yF5pFlxT_Ww",
        "ZIP_code": 23093,
        "restaurant_name": "Court Cafe and Pub",
        "address": "209 W Main St",
        "city": "Louisa"
    },
    {
        "restaurant_id": "rc0QUa5m3itCv9l_Jhdrbw",
        "ZIP_code": 23109,
        "restaurant_name": "Richardson's Cafe",
        "address": "12 Church St",
        "city": "Mathews"
    },
    {
        "restaurant_id": "aK6WXIegCc4hAKOQKUleTw",
        "ZIP_code": 23111,
        "restaurant_name": "Lark Baking Company & Market",
        "address": "6102 Brashier Blvd Ste F",
        "city": "Mechanicsville"
    },
    {
        "restaurant_id": "CE6GudHOxQZFywFy17T1CA",
        "ZIP_code": 23111,
        "restaurant_name": "AnnaB's Gluten Free Bakery",
        "address": "7426 Brandy Creek Dr ",
        "city": "Mechanicsville"
    },
    {
        "restaurant_id": "CigmIHU-EjQXw9tJDf9Lew",
        "ZIP_code": 23112,
        "restaurant_name": "First Watch",
        "address": "6121 Harbourside Centre Lp",
        "city": "Midlothian"
    },
    {
        "restaurant_id": "HIuqlR2hqTXtZH2xMHji9w",
        "ZIP_code": 23113,
        "restaurant_name": "First Watch",
        "address": "1403 West Huguenot Rd Ste A",
        "city": "Midlothian"
    },
    {
        "restaurant_id": "jGpd1RpHd-aG3jgxS-ptKQ",
        "ZIP_code": 23116,
        "restaurant_name": "Bell Cafe",
        "address": "8319 Bell Creek Rd Ste B",
        "city": "Mechanicsville"
    },
    {
        "restaurant_id": "5U8TP-9qvOF-03RcC9zIoQ",
        "ZIP_code": 23139,
        "restaurant_name": "El Cerro Azul",
        "address": "2650 Anderson Hwy",
        "city": "Powhatan"
    },
    {
        "restaurant_id": "ZUOs4obEHOFdFlvChHEMNg",
        "ZIP_code": 23175,
        "restaurant_name": "Big Oak Cafe",
        "address": "2761 Old Virginia St ",
        "city": "Urbanna"
    },
    {
        "restaurant_id": "OGOEakHwrqIodydnSKNW1A",
        "ZIP_code": 23185,
        "restaurant_name": "Culture Cafe",
        "address": "747 Scotland St ",
        "city": "Williamsburg"
    },
    {
        "restaurant_id": "3X4e9c52p-mGAzmtMqjBGw",
        "ZIP_code": 23185,
        "restaurant_name": "Dale House Cafe",
        "address": "1365 Colonial Pkwy",
        "city": "Williamsburg"
    },
    {
        "restaurant_id": "3RHgLtRrFTFYTHHqjWVV0Q",
        "ZIP_code": 23185,
        "restaurant_name": "Aromas Coffeehouse & Cafe",
        "address": "431 Prince George St ",
        "city": "Williamsburg"
    },
    {
        "restaurant_id": "Xpd5qsaspLknoX0pfvEdaA",
        "ZIP_code": 23185,
        "restaurant_name": "Spoke + Art Provisions",
        "address": "3449 John Tyler Hwy",
        "city": "Williamsburg"
    },
    {
        "restaurant_id": "Vz_Nd248qKsIa6GBT71sEw",
        "ZIP_code": 23185,
        "restaurant_name": "Cafe Provencal",
        "address": "5810 Wessex Hundred ",
        "city": "Williamsburg"
    },
    {
        "restaurant_id": "IZbW1lZenH7hEvfdAMBLBA",
        "ZIP_code": 23185,
        "restaurant_name": "Jamestown Settlement Cafe",
        "address": "2110 Jamestown Rd ",
        "city": "Williamsburg"
    },
    {
        "restaurant_id": "q7GJ8Bwl1ziA0y7QLA938g",
        "ZIP_code": 23185,
        "restaurant_name": "Emily's Donuts & Cafe",
        "address": "7123 Merrimac Trl",
        "city": "Williamsburg"
    },
    {
        "restaurant_id": "T9d130hkIuDrCrepKgYjqw",
        "ZIP_code": 23185,
        "restaurant_name": "Lokal",
        "address": "445 Prince George St ",
        "city": "Williamsburg"
    },
    {
        "restaurant_id": "6_PvJZ5pMcIp6k1DiKz80g",
        "ZIP_code": 23185,
        "restaurant_name": "Colonial Pancake House",
        "address": "301 Page St ",
        "city": "Williamsburg"
    },
    {
        "restaurant_id": "7dUVs8qZlg1-cedWaoALNQ",
        "ZIP_code": 23185,
        "restaurant_name": "Illy Caffe - Williamsburg",
        "address": "435 W Duke Of Gloucester St ",
        "city": "Williamsburg"
    },
    {
        "restaurant_id": "kYK4Y1K0DUuN-0WhAqy-JQ",
        "ZIP_code": 23188,
        "restaurant_name": "First Watch",
        "address": "5212 Monticello Ave ",
        "city": "Williamsburg"
    },
    {
        "restaurant_id": "U55FKKUe1tDCGXPq_RF21g",
        "ZIP_code": 23188,
        "restaurant_name": "Virginia Gourmet",
        "address": "5699-24 Richmond Rd",
        "city": "Williamsburg"
    },
    {
        "restaurant_id": "7qexKlixaMRcdJWO1blDhA",
        "ZIP_code": 23219,
        "restaurant_name": "Cafe Rustika",
        "address": "414 E Main St ",
        "city": "Richmond"
    },
    {
        "restaurant_id": "Ze5xFiEBpnD_GS_f3uo73Q",
        "ZIP_code": 23219,
        "restaurant_name": "Bateau",
        "address": "301 Virginia St ",
        "city": "Richmond"
    },
    {
        "restaurant_id": "KJDYmQlBSUuWByQ440EwtA",
        "ZIP_code": 23219,
        "restaurant_name": "Chopt Creative Salad Co.",
        "address": "901 E Cary St",
        "city": "Richmond"
    },
    {
        "restaurant_id": "xZ7OqYVR6kbFurhFRq083g",
        "ZIP_code": 23219,
        "restaurant_name": "Sahara Cafe and Grill",
        "address": "319 East Broad St ",
        "city": "Richmond"
    },
    {
        "restaurant_id": "cko2oCb21WlgtMoV5kRsvw",
        "ZIP_code": 23219,
        "restaurant_name": "Meriwether's Capitol Caf\u00e9",
        "address": "1000 Bank St ",
        "city": "Richmond"
    },
    {
        "restaurant_id": "VtHPQdPjffaULroKm5WisA",
        "ZIP_code": 23219,
        "restaurant_name": "Saadia's Juicebox",
        "address": "402 1/2 N 2nd St",
        "city": "Richmond"
    },
    {
        "restaurant_id": "hENx7ivyb7VlysWAlaLX4A",
        "ZIP_code": 23219,
        "restaurant_name": "Meriwether's Market",
        "address": "919 E Main St ",
        "city": "Richmond"
    },
    {
        "restaurant_id": "qhxnieNhK8eRXGls6_6SwA",
        "ZIP_code": 23219,
        "restaurant_name": "Bear Creek Cafe",
        "address": "600 E Broad St Fl 1",
        "city": "Richmond"
    },
    {
        "restaurant_id": "1QpwczXrkBXYi-rWQKWdxA",
        "ZIP_code": 23219,
        "restaurant_name": "Carriage House Caf\u00e9",
        "address": "1015 E Clay St",
        "city": "Richmond"
    },
    {
        "restaurant_id": "Qja_WoCTZP9jvvAhRT7DaQ",
        "ZIP_code": 23220,
        "restaurant_name": "Ipanema Cafe",
        "address": "917 W Grace St ",
        "city": "Richmond"
    },
    {
        "restaurant_id": "9oSVUMyJSs6N3g6hgWI-lQ",
        "ZIP_code": 23220,
        "restaurant_name": "8 1/2",
        "address": "401 Strawberry St ",
        "city": "Richmond"
    },
    {
        "restaurant_id": "ChDbFyzKjZ88vMmSelv1KA",
        "ZIP_code": 23220,
        "restaurant_name": "&pizza - VCU",
        "address": "308 N Laurel St",
        "city": "Richmond"
    },
    {
        "restaurant_id": "c8Mk_ftfjV1aeMkJAeuciA",
        "ZIP_code": 23220,
        "restaurant_name": "Saison Market",
        "address": "323 N Adams St ",
        "city": "Richmond"
    },
    {
        "restaurant_id": "BlC7g_O77dVloQqIVFJxRQ",
        "ZIP_code": 23220,
        "restaurant_name": "Harrison Street Caf\u00e9",
        "address": "402 N Harrison St ",
        "city": "Richmond"
    },
    {
        "restaurant_id": "j_jKPPNkR94F2rEeYnsFuA",
        "ZIP_code": 23220,
        "restaurant_name": "Nutty Buttery",
        "address": "701 W Clay St ",
        "city": "Richmond"
    },
    {
        "restaurant_id": "vGSzhXN8MuFjn373SEtyJg",
        "ZIP_code": 23220,
        "restaurant_name": "Fresca On Addison",
        "address": "22 S Addison St ",
        "city": "Richmond"
    },
    {
        "restaurant_id": "3M-oXwpUGUuLy2XGvikLVQ",
        "ZIP_code": 23220,
        "restaurant_name": "The Cask Cafe",
        "address": "206 S Robinson St ",
        "city": "Richmond"
    },
    {
        "restaurant_id": "ohOMfslcTi92oW3hOEiaow",
        "ZIP_code": 23220,
        "restaurant_name": "Greenbriar Cafe & Coffeehouse",
        "address": "1211 W Main St ",
        "city": "Richmond"
    },
    {
        "restaurant_id": "DIOIVLH3LH8SjzkSB7qEIA",
        "ZIP_code": 23220,
        "restaurant_name": "NuVegan Cafe",
        "address": "417 W Grace St ",
        "city": "Richmond"
    },
    {
        "restaurant_id": "aHbfpZaCTdMqgjwqUCFdog",
        "ZIP_code": 23221,
        "restaurant_name": "Tulsi",
        "address": "3131 W Cary St",
        "city": "Richmond"
    },
    {
        "restaurant_id": "pF1IP4c39RCJzBXeyFqF2g",
        "ZIP_code": 23221,
        "restaurant_name": "The Pit and The Peel",
        "address": "3321 W Cary St",
        "city": "Richmond"
    },
    {
        "restaurant_id": "Zf3I9WF2TNJCWSd9kJ8HOA",
        "ZIP_code": 23223,
        "restaurant_name": "Sub Rosa Bakery",
        "address": "620 N 25th St ",
        "city": "Richmond"
    },
    {
        "restaurant_id": "HjzzGO7cFVn_GE-nROgDWw",
        "ZIP_code": 23223,
        "restaurant_name": "Favour Cookie",
        "address": "2600 Nine Mile Rd",
        "city": "Richmond"
    },
    {
        "restaurant_id": "2tMAmTWS4vqezfrE1XJ0BQ",
        "ZIP_code": 23224,
        "restaurant_name": "The Butterbean Market & Cafe",
        "address": "1204 Hull St",
        "city": "Richmond"
    },
    {
        "restaurant_id": "2vPqrYA3kA9S-0pntWdAkg",
        "ZIP_code": 23224,
        "restaurant_name": "Sister's Cafe",
        "address": "606 Commerce Rd ",
        "city": "Richmond"
    },
    {
        "restaurant_id": "-TKZCbIZB_VLnzxIMJMvuQ",
        "ZIP_code": 23224,
        "restaurant_name": "Cafe Zata",
        "address": "700 Bainbridge St ",
        "city": "Richmond"
    },
    {
        "restaurant_id": "I112euEXSwBHug1QKuif4g",
        "ZIP_code": 23226,
        "restaurant_name": "Palani Drive",
        "address": "401 Libbie Ave ",
        "city": "Richmond"
    },
    {
        "restaurant_id": "lanmw6MmRjHqiOGPpWroZw",
        "ZIP_code": 23226,
        "restaurant_name": "TASTE",
        "address": "5706 Grove Ave Ste 100",
        "city": "Richmond"
    },
    {
        "restaurant_id": "FdXz78V4x1Z0O7u5K0ORlA",
        "ZIP_code": 23226,
        "restaurant_name": "Barrel Thief Wine Shop",
        "address": "5805 Patterson Ave ",
        "city": "Richmond"
    },
    {
        "restaurant_id": "z-WDgfXfA9gDbhH_qL4KOA",
        "ZIP_code": 23227,
        "restaurant_name": "Phoenix Garden Vegetarian Restaurant",
        "address": "7103 Brook Rd ",
        "city": "Richmond"
    },
    {
        "restaurant_id": "Xg3KS7_EwXbogFYXxkimug",
        "ZIP_code": 23227,
        "restaurant_name": "Stir Crazy Cafe RVA",
        "address": "4015 MacArthur Ave ",
        "city": "Richmond"
    },
    {
        "restaurant_id": "1TIFGkyLzwZo8h4D-x2CSg",
        "ZIP_code": 23228,
        "restaurant_name": "J & D's Cafe",
        "address": "2416 Hungary Rd ",
        "city": "Richmond"
    },
    {
        "restaurant_id": "r_d7LkTR3DTIUJDUfJZMRg",
        "ZIP_code": 23228,
        "restaurant_name": "1115 Mobile Kitchen",
        "address": "6118 Lakeside Ave ",
        "city": "Richmond"
    },
    {
        "restaurant_id": "qoNpHSJr5gtUUskO9qi2jw",
        "ZIP_code": 23229,
        "restaurant_name": "Shoredog Cafe",
        "address": "435-B N Ridge Rd ",
        "city": "Richmond"
    },
    {
        "restaurant_id": "3B87WhO2tC_c1UpLuwoVAA",
        "ZIP_code": 23229,
        "restaurant_name": "First Watch",
        "address": "8621 Quioccasin Rd",
        "city": "Richmond"
    },
    {
        "restaurant_id": "IKkWMa53eB4gwywDCmPLSg",
        "ZIP_code": 23230,
        "restaurant_name": "First Watch",
        "address": "5310 W Broad St Ste 100",
        "city": "Richmond"
    },
    {
        "restaurant_id": "FENZdXNcTmlr2nPgQfORhA",
        "ZIP_code": 23230,
        "restaurant_name": "&pizza - Willow Lawn",
        "address": "1601 Willow Lawn Dr Ste 305",
        "city": "Richmond"
    },
    {
        "restaurant_id": "6TtFdaGH-m_7m7TB7YuzQA",
        "ZIP_code": 23230,
        "restaurant_name": "Chopt Creative Salad Co.",
        "address": "1601 Willow Lawn Dr ",
        "city": "Richmond"
    },
    {
        "restaurant_id": "JmyjXJ8dJ7Ga4cqWiE-mvg",
        "ZIP_code": 23230,
        "restaurant_name": "Moore Street Caf\u00e9",
        "address": "2904 W Moore St ",
        "city": "Richmond"
    },
    {
        "restaurant_id": "HORUmvgV-6rz9l17iPFqcA",
        "ZIP_code": 23230,
        "restaurant_name": "Lemon Cuisine of India",
        "address": "3215 W Broad St",
        "city": "Richmond"
    },
    {
        "restaurant_id": "H8kd36pYGjOCVvZzLopqrA",
        "ZIP_code": 23233,
        "restaurant_name": "First Watch",
        "address": "11721 West Broad St",
        "city": "Richmond"
    },
    {
        "restaurant_id": "7-c71OwJE4lpQLxoyrke1Q",
        "ZIP_code": 23233,
        "restaurant_name": "Pho 1 Grill",
        "address": "201 Town Center W Blvd Ste 701",
        "city": "Henrico"
    },
    {
        "restaurant_id": "T_lqwGV9kYw58roVXGbdng",
        "ZIP_code": 23233,
        "restaurant_name": "Chicago's Pizza With A Twist",
        "address": "3641 Cox Rd Unit F",
        "city": "Richmond"
    },
    {
        "restaurant_id": "9iPFXKkTKyjaYcbT-q3Bxg",
        "ZIP_code": 23235,
        "restaurant_name": "Perk!",
        "address": "2620 Buford Rd ",
        "city": "Bon Air"
    },
    {
        "restaurant_id": "YpunNGp6AHm06kcIYgXDRQ",
        "ZIP_code": 23235,
        "restaurant_name": "Front Porch Cakes & Eatery",
        "address": "11400 Belvedere Vista Ln",
        "city": "North Chesterfield"
    },
    {
        "restaurant_id": "SL0NT8tJfqGFahM2A6_8-w",
        "ZIP_code": 23235,
        "restaurant_name": "Nestle Toll House Cafe by Chip",
        "address": "11500 Midlothian Tpke ",
        "city": "Richmond"
    },
    {
        "restaurant_id": "MeZsZZ5PSohSkYH51NBZzA",
        "ZIP_code": 23236,
        "restaurant_name": "Le Box Lunch",
        "address": "300 Arboretum Pl Ste 150",
        "city": "Richmond"
    },
    {
        "restaurant_id": "9EO-fItTM9wzleki_DnUqA",
        "ZIP_code": 23310,
        "restaurant_name": "Coastal Baking",
        "address": "555 Mason Ave",
        "city": "Cape Charles"
    },
    {
        "restaurant_id": "shhAlAuziKn1sp91HpJlDg",
        "ZIP_code": 23320,
        "restaurant_name": "Warriors Grill",
        "address": "1437 Sams Dr ",
        "city": "Chesapeake"
    },
    {
        "restaurant_id": "I8NMrtP0zU0R7-yAFT163g",
        "ZIP_code": 23320,
        "restaurant_name": "The Island Cafe",
        "address": "501 Independence Pkwy Ste 104",
        "city": "Chesapeake"
    },
    {
        "restaurant_id": "GqKIvfieMeP_2tDVI8hT2Q",
        "ZIP_code": 23320,
        "restaurant_name": "Alkalicious Cold Pressed Juice Bar",
        "address": "733 Eden Way N Ste 402",
        "city": "Chesapeake"
    },
    {
        "restaurant_id": "q5lPpwJRD7XiqFj__WzY4A",
        "ZIP_code": 23322,
        "restaurant_name": "Battle Grounds Coffeehouse & Grill",
        "address": "388 Battlefield Blvd S ",
        "city": "Chesapeake"
    },
    {
        "restaurant_id": "fps8eCHOHHkcXgm_DU67mg",
        "ZIP_code": 23323,
        "restaurant_name": "Zino's",
        "address": "850 Old George Washington Hwy N ",
        "city": "Chesapeake"
    },
    {
        "restaurant_id": "w-eZUs0dWBzJGGtrZ0YToA",
        "ZIP_code": 23324,
        "restaurant_name": "Mp Island Cafe",
        "address": "2307 Border Rd ",
        "city": "Chesapeake"
    },
    {
        "restaurant_id": "YZ8IzTFy5KmBxNpgGRRwCQ",
        "ZIP_code": 23325,
        "restaurant_name": "Naomi Vegan Meets Inc. \"Corporate Offices\"",
        "address": "4310 Indian River Rd Ste 6B",
        "city": "Chesapeake"
    },
    {
        "restaurant_id": "5c9GQefeXtbH6yt5gmsKXA",
        "ZIP_code": 23336,
        "restaurant_name": "Lily's Little Mexico",
        "address": "6700 Maddox Blvd",
        "city": "Chincoteague"
    },
    {
        "restaurant_id": "pmUsjbFXbBEyfSeCZxu2Rg",
        "ZIP_code": 23417,
        "restaurant_name": "Janet's General Store Cafe",
        "address": "49 King St",
        "city": "Onancock"
    },
    {
        "restaurant_id": "FgGNN_jcftUHcCrVJuttOA",
        "ZIP_code": 23430,
        "restaurant_name": "Smithfield Gourmet Bakery And Cafe",
        "address": "218 Main St ",
        "city": "Smithfield"
    },
    {
        "restaurant_id": "royehZkHnbJIAeBjc-iTqA",
        "ZIP_code": 23434,
        "restaurant_name": "Brighter Day Cafe",
        "address": "118 N Main St ",
        "city": "Suffolk"
    },
    {
        "restaurant_id": "KDQ2r0jtC4a8wmevJh6GzQ",
        "ZIP_code": 23434,
        "restaurant_name": "WALL STREET CAFE",
        "address": "118 W Washington St",
        "city": "Suffolk"
    },
    {
        "restaurant_id": "r65-NW2W-QqRmpbmwUxbUg",
        "ZIP_code": 23435,
        "restaurant_name": "First Watch",
        "address": "5840 Harbour View Blvd Ste 450",
        "city": "Suffolk"
    },
    {
        "restaurant_id": "ZkJeqSXPpK471WUtnRArKQ",
        "ZIP_code": 23435,
        "restaurant_name": "Vegan More Life",
        "address": "None",
        "city": "Suffolk"
    },
    {
        "restaurant_id": "jL2-N8BI3fHDyTM_x9f71Q",
        "ZIP_code": 23451,
        "restaurant_name": "Commune",
        "address": "501 Virginia Beach Blvd Ste B",
        "city": "Virginia Beach"
    },
    {
        "restaurant_id": "o6-i0VV6p2LfPk65buBTJg",
        "ZIP_code": 23451,
        "restaurant_name": "The Stockpot",
        "address": "700 19th St Ste 106",
        "city": "Virginia Beach"
    },
    {
        "restaurant_id": "zMQxgWbKFJgaj4PyFvyOKA",
        "ZIP_code": 23451,
        "restaurant_name": "Graze Kitchen",
        "address": "215 67th St",
        "city": "Virginia Beach"
    },
    {
        "restaurant_id": "uqXTZBWaYHk5Njhx_0vH0Q",
        "ZIP_code": 23451,
        "restaurant_name": "Simple Eats",
        "address": "3152 Shore Dr ",
        "city": "Virginia Beach"
    },
    {
        "restaurant_id": "1Vtl2vxkvxQm6CqAZzVv8w",
        "ZIP_code": 23451,
        "restaurant_name": "Saladworks",
        "address": "638 Hilltop West Shopping Ctr ",
        "city": "Virginia Beach"
    },
    {
        "restaurant_id": "XvwDYLbgI-VxhIwFfgPSJQ",
        "ZIP_code": 23451,
        "restaurant_name": "Fruitive",
        "address": "1624 Laskin Rd Ste 740",
        "city": "Virginia Beach"
    },
    {
        "restaurant_id": "PpQ3i1-R_BYhdfqcH4W31A",
        "ZIP_code": 23451,
        "restaurant_name": "The Green Cat",
        "address": "3801 Pacific Ave",
        "city": "Virginia Beach"
    },
    {
        "restaurant_id": "UIm9J54E55GJ97RlszSabg",
        "ZIP_code": 23451,
        "restaurant_name": "Katie's 33rd Street Cafe",
        "address": "3301 Atlantic Ave",
        "city": "Virginia Beach"
    },
    {
        "restaurant_id": "npBCYKcOaZany4J5KLbagw",
        "ZIP_code": 23451,
        "restaurant_name": "Green Leaf and Pebble Tea Spa & Cafe",
        "address": "700 Norfolk Ave ",
        "city": "Virginia Beach"
    },
    {
        "restaurant_id": "SLGkqZ8Rv3uYWBoUjO0cVA",
        "ZIP_code": 23452,
        "restaurant_name": "First Watch",
        "address": "2850 Virginia Beach Blvd Ste 104",
        "city": "Virginia Beach"
    },
    {
        "restaurant_id": "I5ySXbYTp4kVvW7ThSf-0Q",
        "ZIP_code": 23452,
        "restaurant_name": "Kaboom",
        "address": "859 S Lynnhaven Rd",
        "city": "Virginia Beach"
    },
    {
        "restaurant_id": "zYF7nDdS8JJZsb7HyHHi_g",
        "ZIP_code": 23452,
        "restaurant_name": "Pieoneer Pizza Bar-Thalia",
        "address": "4224 Virginia Beach Blvd Ste 103",
        "city": "Virginia Beach"
    },
    {
        "restaurant_id": "XTdEZ2VIpvlgjEUfB4C7sg",
        "ZIP_code": 23452,
        "restaurant_name": "Kahiau Bakery & Cafe",
        "address": "3712 S Plaza Trl Ste 100",
        "city": "Virginia Beach"
    },
    {
        "restaurant_id": "2doi5EBmcE8twNGWY3aOrQ",
        "ZIP_code": 23454,
        "restaurant_name": "The Whiskey Kitchen",
        "address": "2149 General Booth Blvd ",
        "city": "Virginia Beach"
    },
    {
        "restaurant_id": "bKrFzwAITVT9tOcdN8TzBw",
        "ZIP_code": 23454,
        "restaurant_name": "First Watch",
        "address": "2168 General Booth Blvd Ste 500",
        "city": "Virginia Beach"
    },
    {
        "restaurant_id": "gerszR1kbLu6YeJvhfFFfQ",
        "ZIP_code": 23454,
        "restaurant_name": "Sunrise Cafe",
        "address": "1369 N Great Neck Rd ",
        "city": "Virginia Beach"
    },
    {
        "restaurant_id": "DXfmb70otdObaqRnPXk6eQ",
        "ZIP_code": 23455,
        "restaurant_name": "Leaping Lizard Cafe",
        "address": "4408 Shore Dr ",
        "city": "Virginia Beach"
    },
    {
        "restaurant_id": "7f4djuWg3T617a9Z82rzEA",
        "ZIP_code": 23455,
        "restaurant_name": "Happy Cafe",
        "address": "1270 Diamond Springs Rd Ste 102",
        "city": "Virginia Beach"
    },
    {
        "restaurant_id": "1uKFefg6LImoL8gs3IYaFg",
        "ZIP_code": 23455,
        "restaurant_name": "Empowered Plant Cakes",
        "address": "4408 Shore Dr",
        "city": "Virginia Beach"
    },
    {
        "restaurant_id": "hfEWl_D8Enpi--5xEI7Qow",
        "ZIP_code": 23455,
        "restaurant_name": "Gourmet Gang Kiosk",
        "address": "1089 Independence Blvd ",
        "city": "Virginia Beach"
    },
    {
        "restaurant_id": "GUPuNJjcBiHaOlO8RFX9nA",
        "ZIP_code": 23462,
        "restaurant_name": "Yard House",
        "address": "4549 Commerce St ",
        "city": "Virginia Beach"
    },
    {
        "restaurant_id": "RzB52j_RPC-QL-U7uwWn5Q",
        "ZIP_code": 23462,
        "restaurant_name": "Town Center Cold Pressed - Virginia Beach",
        "address": "168 Central Park Ave",
        "city": "Virginia Beach"
    },
    {
        "restaurant_id": "Z_rf6m-nWURKNMfQJ2p6YA",
        "ZIP_code": 23462,
        "restaurant_name": "Mesob Cafe",
        "address": "404 S Parliament Dr ",
        "city": "Virginia Beach"
    },
    {
        "restaurant_id": "Rdr1CsisSE5ZHgcKxgTNNA",
        "ZIP_code": 23462,
        "restaurant_name": "WeCare Salon Cafe",
        "address": "4676 Princess Anne Rd Ste 270",
        "city": "Virginia Beach"
    },
    {
        "restaurant_id": "Prztkh0WBSJdtKWuq2fgIA",
        "ZIP_code": 23462,
        "restaurant_name": "Refresh Cafe",
        "address": "5555 Greenwich Rd ",
        "city": "Virginia Beach"
    },
    {
        "restaurant_id": "gxsxPvoUpaCcqjuaNQDSFA",
        "ZIP_code": 23464,
        "restaurant_name": "CLTRE vgn jnt",
        "address": "1309 Fordham Dr Ste 106",
        "city": "Virginia Beach"
    },
    {
        "restaurant_id": "pXJkt5kSY_GZ3o6xMkN2og",
        "ZIP_code": 23464,
        "restaurant_name": "Cinema Cafe - Kemps River",
        "address": "1220 Fordham Dr ",
        "city": "Virginia Beach"
    },
    {
        "restaurant_id": "IQG5eaerVv-uVVdfLVzhEg",
        "ZIP_code": 23502,
        "restaurant_name": "Tamarind",
        "address": "415 N Military Hwy Ste 27",
        "city": "Norfolk"
    },
    {
        "restaurant_id": "nl_s11F1-JBBwDh3tvowgA",
        "ZIP_code": 23502,
        "restaurant_name": "Twin Oaks Cafe'",
        "address": "5800 Lake Wright Dr Ste 105",
        "city": "Norfolk"
    },
    {
        "restaurant_id": "u0wPUQF0pfhvc1VXLOCOwg",
        "ZIP_code": 23503,
        "restaurant_name": "Carmen's Cafe Restaurant",
        "address": "9610 1st View St",
        "city": "Norfolk"
    },
    {
        "restaurant_id": "owqRsQdHTUXq_8lOu16Tmg",
        "ZIP_code": 23505,
        "restaurant_name": "Clean Eatz",
        "address": "7628 Granby St",
        "city": "Norfolk"
    },
    {
        "restaurant_id": "Rc06FNMglBHGBXQTakeQsg",
        "ZIP_code": 23507,
        "restaurant_name": "Grandiflora Wine Garden",
        "address": "1231 Boissevain Ave",
        "city": "Norfolk"
    },
    {
        "restaurant_id": "CGKQaR6a8lrwo63azXxHjw",
        "ZIP_code": 23507,
        "restaurant_name": "Norfolk General Cafe",
        "address": "600 Gresham Dr ",
        "city": "Norfolk"
    },
    {
        "restaurant_id": "COZ_otT7LPRXq9gsyZXL4A",
        "ZIP_code": 23508,
        "restaurant_name": "Starving Artist Cafe",
        "address": "4408 Colley Ave",
        "city": "Norfolk"
    },
    {
        "restaurant_id": "ONqOyR9KhgwFhmVC9YzjZw",
        "ZIP_code": 23508,
        "restaurant_name": "Jikoni Cafe",
        "address": "633 W 35th St ",
        "city": "Norfolk"
    },
    {
        "restaurant_id": "hUpJMAlarlkwie7tSoZvAQ",
        "ZIP_code": 23508,
        "restaurant_name": "Handsome Biscuit",
        "address": "4200 Monarch Way ",
        "city": "Norfolk"
    },
    {
        "restaurant_id": "XshBKaq3QLdQln-wG80edQ",
        "ZIP_code": 23510,
        "restaurant_name": "Syd's FishPig Cafe",
        "address": "210 E Main St ",
        "city": "Norfolk"
    },
    {
        "restaurant_id": "ybz2He3ieEGjyEktRrD8jQ",
        "ZIP_code": 23510,
        "restaurant_name": "California Burrito",
        "address": "319 Granby St",
        "city": "Norfolk"
    },
    {
        "restaurant_id": "xmxnsT8YicUAfDlXpr0Ekg",
        "ZIP_code": 23510,
        "restaurant_name": "Cafe Milo",
        "address": "217 Grace St ",
        "city": "Norfolk"
    },
    {
        "restaurant_id": "lNb1-J_dvEBLRExSeAMEmQ",
        "ZIP_code": 23510,
        "restaurant_name": "Lizard Cafe",
        "address": "109 E Main St ",
        "city": "Norfolk"
    },
    {
        "restaurant_id": "7-ikSBXLD6392Oy2qHoc0w",
        "ZIP_code": 23510,
        "restaurant_name": "Town Center Cold Pressed - Norfolk Downtown",
        "address": "440 Monticello Ave Ste 110",
        "city": "Norfolk"
    },
    {
        "restaurant_id": "fQF59k0U0i3RckxBzkd-cw",
        "ZIP_code": 23510,
        "restaurant_name": "Naomi Vegan Meets",
        "address": "",
        "city": "Newport News"
    },
    {
        "restaurant_id": "bLntUsPoaAxUlxRueJ7W1A",
        "ZIP_code": 23510,
        "restaurant_name": "Fruitive",
        "address": "100 E Main St ",
        "city": "Norfolk"
    },
    {
        "restaurant_id": "xwKzuDM2Bx6KPJUZGvKBuQ",
        "ZIP_code": 23510,
        "restaurant_name": "Wisteria Cafe at The Chrysler",
        "address": "245 W Olney Rd ",
        "city": "Norfolk"
    },
    {
        "restaurant_id": "gGWWogUO0ayQDey5DDYRIQ",
        "ZIP_code": 23511,
        "restaurant_name": "Bellissimo Espresso Cafe",
        "address": "9475 Bacon Ave Bldg C-9",
        "city": "Norfolk"
    },
    {
        "restaurant_id": "MVsC02cdpbWjKQ76sIu1dg",
        "ZIP_code": 23513,
        "restaurant_name": "Blackdog Cafe & Catering Company",
        "address": "5360 Robin Hood Rd",
        "city": "Norfolk"
    },
    {
        "restaurant_id": "Itd76drBtQ5cuOY4TLxpjQ",
        "ZIP_code": 23517,
        "restaurant_name": "Mr. Shawarma",
        "address": "725 W 21st St",
        "city": "Norfolk"
    },
    {
        "restaurant_id": "D0VJJzrOBqroc6xUvwlwOQ",
        "ZIP_code": 23517,
        "restaurant_name": "Pelon's Baja Grill",
        "address": "738 W 22nd St Ste 15",
        "city": "Norfolk"
    },
    {
        "restaurant_id": "-ypAJ47ixylRjFlUFYJz6w",
        "ZIP_code": 23517,
        "restaurant_name": "Luna Maya",
        "address": "2010 Colley Ave ",
        "city": "Norfolk"
    },
    {
        "restaurant_id": "14ypZg-q0DiuWv9T6ofnzw",
        "ZIP_code": 23517,
        "restaurant_name": "Kotobuki",
        "address": "721 W 21st St ",
        "city": "Norfolk"
    },
    {
        "restaurant_id": "yUg4YwEjU_aTqGExU7Js3w",
        "ZIP_code": 23517,
        "restaurant_name": "Yorgo's Bageldashery",
        "address": "2123 Colonial Ave ",
        "city": "Norfolk"
    },
    {
        "restaurant_id": "k2tc3dCF7vfXFmYcKHTk3g",
        "ZIP_code": 23517,
        "restaurant_name": "Mea Culpa Cafe",
        "address": "2410 Colonial Ave ",
        "city": "Norfolk"
    },
    {
        "restaurant_id": "mW4SJgkt6msXDrpNCOrvEg",
        "ZIP_code": 23517,
        "restaurant_name": "Catnip Cat Cafe",
        "address": "2200 Colonial Ave Ste 19 & 20",
        "city": "Norfolk"
    },
    {
        "restaurant_id": "B3AwDRX5GahX539_FTfeWw",
        "ZIP_code": 23517,
        "restaurant_name": "Colley Cafe'",
        "address": "1318 Colley Ave",
        "city": "Norfolk"
    },
    {
        "restaurant_id": "6E50bLzUbHtyreTXQJGRYQ",
        "ZIP_code": 23517,
        "restaurant_name": "Naci's Corner Cafe",
        "address": "1900 Granby St",
        "city": "Norfolk"
    },
    {
        "restaurant_id": "GzQ1C0VFUOaWGl6B9GhV7g",
        "ZIP_code": 23517,
        "restaurant_name": "Tap House Grill At Ghent",
        "address": "931 W 21st St ",
        "city": "Norfolk"
    },
    {
        "restaurant_id": "anRBJvOeU-xRGNbdkh9G1A",
        "ZIP_code": 23517,
        "restaurant_name": "Town Center Cold Pressed - Norfolk Ghent",
        "address": "1902 Colley Ave ",
        "city": "Norfolk"
    },
    {
        "restaurant_id": "dGjQGnW5BB2UyH8siNq5RA",
        "ZIP_code": 23517,
        "restaurant_name": "Vegan Planet Cafe",
        "address": "2718 Granby St",
        "city": "Norfolk"
    },
    {
        "restaurant_id": "DgnUUQXwXt0kqc0uI-aDrA",
        "ZIP_code": 23601,
        "restaurant_name": "Indulge Bakery and Bistro",
        "address": "10359 Warwick Blvd ",
        "city": "Newport News"
    },
    {
        "restaurant_id": "for6p_spa8Ok__ER1ZLFbA",
        "ZIP_code": 23602,
        "restaurant_name": "Take PHFlight Cafe",
        "address": "900 Bland Blvd ",
        "city": "Newport News"
    },
    {
        "restaurant_id": "1XOZRijlIFPDhmqe4I-10g",
        "ZIP_code": 23602,
        "restaurant_name": "Blue Sky Cafe",
        "address": "900 Bland Ave ",
        "city": "Newport News"
    },
    {
        "restaurant_id": "j09qMy3SZ_kfOTITXHjPHw",
        "ZIP_code": 23606,
        "restaurant_name": "Byrd's Restaurant",
        "address": "12425 Warwick Blvd ",
        "city": "Newport News"
    },
    {
        "restaurant_id": "a_VhACkT0avjeMorl0A2Wg",
        "ZIP_code": 23606,
        "restaurant_name": "First Watch",
        "address": "12070 Jefferson Ave Ste 1810",
        "city": "Newport News"
    },
    {
        "restaurant_id": "URKgyf92zq_N9FeXRN-ipw",
        "ZIP_code": 23606,
        "restaurant_name": "Momo's Cafe",
        "address": "11801 Canon Blvd ",
        "city": "Newport News"
    },
    {
        "restaurant_id": "MInIKBQbcnV42K82d21AfQ",
        "ZIP_code": 23606,
        "restaurant_name": "Scratch Bakery",
        "address": "4181 William Styron Square ",
        "city": "Newport News"
    },
    {
        "restaurant_id": "m1H6Auw4L1B4U5dZuOg5Gw",
        "ZIP_code": 23606,
        "restaurant_name": "The Grey Goose Cafe",
        "address": "100 Museum Dr ",
        "city": "Newport News"
    },
    {
        "restaurant_id": "XPSvfqngLj2j6d0ErcTbNg",
        "ZIP_code": 23608,
        "restaurant_name": "Healthy Eatz Vegetarian Cafe & More",
        "address": "12838 Jefferson Ave",
        "city": "Newport News"
    },
    {
        "restaurant_id": "rWkZE6yK3w1NEy8AERM3hA",
        "ZIP_code": 23666,
        "restaurant_name": "First Watch",
        "address": "2011 Von Schilling Dr ",
        "city": "Hampton"
    },
    {
        "restaurant_id": "DGI_kcAdl1B9sQkHhCUj0g",
        "ZIP_code": 23666,
        "restaurant_name": "Cinema Cafe Hampton",
        "address": "1044 Von Schilling Dr ",
        "city": "Hampton"
    },
    {
        "restaurant_id": "iHaCtW-Jn7cOisrr7V4QwQ",
        "ZIP_code": 23669,
        "restaurant_name": "Kente's",
        "address": "301 N Back River Rd ",
        "city": "Hampton"
    },
    {
        "restaurant_id": "O_7ieiLP_WedqKvxUnXYDQ",
        "ZIP_code": 23669,
        "restaurant_name": "Langley AFB Marina",
        "address": "120-122 Horseshoe Lndg ",
        "city": "Hampton"
    },
    {
        "restaurant_id": "7FIzrTbhhWP-52vRpcymww",
        "ZIP_code": 23693,
        "restaurant_name": "Persnickety Crane Cafe",
        "address": "209 Village Ave Ste C",
        "city": "Yorktown"
    },
    {
        "restaurant_id": "hwNSRHwkH6fRdDjNdRYpRw",
        "ZIP_code": 23693,
        "restaurant_name": "Sweet Dreams French Bakery",
        "address": "1215 George Washington Memorial Hwy ",
        "city": "Yorktown"
    },
    {
        "restaurant_id": "DPkt0zlCIrttVBDePhLpTg",
        "ZIP_code": 23701,
        "restaurant_name": "Kilimanjaro Kafe",
        "address": "4006 Victory Blvd ",
        "city": "Portsmouth"
    },
    {
        "restaurant_id": "b5bXA2s-SdobJTZv5kP8tg",
        "ZIP_code": 23703,
        "restaurant_name": "JoJack's Espresso Bar & Cafe",
        "address": "5700 Churchland Blvd ",
        "city": "Portsmouth"
    },
    {
        "restaurant_id": "IJCrNtFwGjcyPuD1tAHJzA",
        "ZIP_code": 23703,
        "restaurant_name": "Bangkok Garden - Portsmouth",
        "address": "5774 Churchland Blvd ",
        "city": "Portsmouth"
    },
    {
        "restaurant_id": "STl_pcI8cOvHNXG8UnLF8g",
        "ZIP_code": 23704,
        "restaurant_name": "Beyond Vegan Cell Food",
        "address": "615 High St ",
        "city": "Portsmouth"
    },
    {
        "restaurant_id": "WaSM61bdhjFT5xRC2Efong",
        "ZIP_code": 23704,
        "restaurant_name": "The Coffee Shoppe",
        "address": "300 High St",
        "city": "Portsmouth"
    },
    {
        "restaurant_id": "Mt4gQ19cny0DYeDArsYn5Q",
        "ZIP_code": 23707,
        "restaurant_name": "Corner Cafe",
        "address": "3601 Western Branch Blvd ",
        "city": "Portsmouth"
    },
    {
        "restaurant_id": "p4YxQtZi6dYl6jyMLrGSnQ",
        "ZIP_code": 23708,
        "restaurant_name": "The Dancing Goat Cafe",
        "address": "620 John Paul Jones Cir Bldg 3 Fl 2",
        "city": "Portsmouth"
    },
    {
        "restaurant_id": "UDKhAGB6-LFv0ADLtL6QaA",
        "ZIP_code": 23803,
        "restaurant_name": "Local Vibe Cafe",
        "address": "414 N Market St",
        "city": "Petersburg"
    },
    {
        "restaurant_id": "gKhhMYGKHMpoW74XYVzHxQ",
        "ZIP_code": 23832,
        "restaurant_name": "First Watch",
        "address": "9949 Iron Bridge Rd",
        "city": "Chesterfield"
    },
    {
        "restaurant_id": "u1Q3zSftClhanXisgGyXRQ",
        "ZIP_code": 23834,
        "restaurant_name": "Puerto Rican Bakery & Caf\u00e9",
        "address": "1410 Blvd ",
        "city": "Colonial Heights"
    },
    {
        "restaurant_id": "wEyusyj96jcQurEGOWvFLg",
        "ZIP_code": 23836,
        "restaurant_name": "Tier 7 Eatery",
        "address": "13203 North Enon Church Rd ",
        "city": "Chester"
    },
    {
        "restaurant_id": "F4Rfxv6uSUtcCET2e-cPjA",
        "ZIP_code": 23847,
        "restaurant_name": "Cafe Cuisine",
        "address": "321 Halifax St",
        "city": "Emporia"
    },
    {
        "restaurant_id": "lKPs1frs7VSbHwBjZcY3IA",
        "ZIP_code": 23857,
        "restaurant_name": "The Kitchen Table",
        "address": "4111 Gasburg Rd ",
        "city": "Gasburg"
    },
    {
        "restaurant_id": "my4I3W9BwcPHbPbfZgBBrg",
        "ZIP_code": 23860,
        "restaurant_name": "Lisa's Cafe",
        "address": "236 E Broadway ",
        "city": "Hopewell"
    },
    {
        "restaurant_id": "NjEZPqMaD-wWCZL4AUwjJw",
        "ZIP_code": 23883,
        "restaurant_name": "Cre8tive Works Gallery & Cafe",
        "address": "79 Colonial Trl E ",
        "city": "Surry"
    },
    {
        "restaurant_id": "aLhhE41DVIFZujId2rdXFQ",
        "ZIP_code": 23890,
        "restaurant_name": "Memas",
        "address": "336 W Main St ",
        "city": "Waverly"
    },
    {
        "restaurant_id": "5Wglcm_MnUOlFgad5xZrHg",
        "ZIP_code": 23901,
        "restaurant_name": "Uptown Coffee Caf\u00e9",
        "address": "236 N Main St ",
        "city": "Farmville"
    },
    {
        "restaurant_id": "DG7Uqf6vlcJZeyPT4KQnPg",
        "ZIP_code": 23901,
        "restaurant_name": "Riverside Cafe",
        "address": "522 N Main St",
        "city": "Farmville"
    },
    {
        "restaurant_id": "GByGJ44tMaJIFqcW56dImA",
        "ZIP_code": 23901,
        "restaurant_name": "The Cafe",
        "address": "308 N Main St ",
        "city": "Farmville"
    },
    {
        "restaurant_id": "zdYB2KJthEaQW240eKr9Ig",
        "ZIP_code": 23952,
        "restaurant_name": "Rosewood Virginia",
        "address": "11426 Courthouse Rd",
        "city": "Lunenburg"
    },
    {
        "restaurant_id": "XiooyAxzhAmuUFD_aTaNsQ",
        "ZIP_code": 24012,
        "restaurant_name": "2nd Helpings",
        "address": "1502 Williamson Rd NE",
        "city": "Roanoke"
    },
    {
        "restaurant_id": "hZWlmBI11Ks8kIUbyf9g5g",
        "ZIP_code": 24014,
        "restaurant_name": "Hope's Cafe On The Blvd",
        "address": "3327 Garden City Blvd ",
        "city": "Roanoke"
    },
    {
        "restaurant_id": "Uwb3q-QZkiIsWNRs4GZrig",
        "ZIP_code": 24014,
        "restaurant_name": "First Watch",
        "address": "2243 Franklin Rd SW Ste B",
        "city": "Roanoke"
    },
    {
        "restaurant_id": "r2o6z5w9-_e4lHjb23XeMw",
        "ZIP_code": 24014,
        "restaurant_name": "McCafe",
        "address": "2801 Franklin Rd SW ",
        "city": "Roanoke"
    },
    {
        "restaurant_id": "Ziur0zgRhk8Y1l7AP0x2DQ",
        "ZIP_code": 24015,
        "restaurant_name": "Wasena City Tap Room and Grill",
        "address": "806 Wasena Ave Ste 2",
        "city": "Roanoke"
    },
    {
        "restaurant_id": "93wFdc7TEv8FaMQnBW7hWA",
        "ZIP_code": 24016,
        "restaurant_name": "Garden Song Eco Cafe",
        "address": "808 5th St SW",
        "city": "Roanoke"
    },
    {
        "restaurant_id": "dNaTg2BwaFOqbzrSIhPqxA",
        "ZIP_code": 24017,
        "restaurant_name": "Cup of Hope Cafe",
        "address": "829 Tazewell Ave Se",
        "city": "Roanoke"
    },
    {
        "restaurant_id": "pJp2srvxFa0F4PppgVXhaA",
        "ZIP_code": 24018,
        "restaurant_name": "Oliveto",
        "address": "3565-D Electric Rd ",
        "city": "Roanoke"
    },
    {
        "restaurant_id": "khjmP1Uerp-Fhh0lA3ogzw",
        "ZIP_code": 24018,
        "restaurant_name": "Mill Mountain\u200b Coffee & Tea",
        "address": "6303 Merriman Rd ",
        "city": "Roanoke"
    },
    {
        "restaurant_id": "WhgD4FRuErB9kutd7Y8DZw",
        "ZIP_code": 24019,
        "restaurant_name": "One Love Coffee House",
        "address": "40 Summers Way Ste 102",
        "city": "Roanoke"
    },
    {
        "restaurant_id": "Ir6IjhtWqHnMEBXUJ1yyYA",
        "ZIP_code": 24060,
        "restaurant_name": "Halwa Bakery & Cafe",
        "address": "700 N Main St Ste B",
        "city": "Blacksburg"
    },
    {
        "restaurant_id": "zbp2IqjATD6DyUw0FITlBg",
        "ZIP_code": 24060,
        "restaurant_name": "Tea & Jam",
        "address": "1520 North Main St",
        "city": "Blacksburg"
    },
    {
        "restaurant_id": "I5dFvzPt57bb9T7z0Mp-jw",
        "ZIP_code": 24060,
        "restaurant_name": "Our Daily Bread Bakery and Bistro",
        "address": "1329 S Main St ",
        "city": "Blacksburg"
    },
    {
        "restaurant_id": "bp5IOTeyeWOdt-y23TOE5g",
        "ZIP_code": 24060,
        "restaurant_name": "Wikiteria Cafe",
        "address": "1715 Pratt Dr",
        "city": "Blacksburg"
    },
    {
        "restaurant_id": "W8ahuCv_7e4kalmmALYPiQ",
        "ZIP_code": 24060,
        "restaurant_name": "The Cafe At Champs",
        "address": "111 N Main St ",
        "city": "Blacksburg"
    },
    {
        "restaurant_id": "lielURy6u1kdFJs_zGs34g",
        "ZIP_code": 24066,
        "restaurant_name": "Foot of the Mountain Cafe",
        "address": "126 Arcadia Rd",
        "city": "Buchanan"
    },
    {
        "restaurant_id": "UAFT0QFlnjSmd6hib0lmMQ",
        "ZIP_code": 24073,
        "restaurant_name": "Mockingbird Caf\u00e9 & Bakery",
        "address": "4 W Main St Ste 110",
        "city": "Christiansburg"
    },
    {
        "restaurant_id": "0VsgOOol1vMdT4RXLxuNng",
        "ZIP_code": 24076,
        "restaurant_name": "Crossroad Cafe",
        "address": "4507 Claudville Hwy",
        "city": "Claudville"
    },
    {
        "restaurant_id": "PR-r2YsuviQh_lpGvz3Tjg",
        "ZIP_code": 24084,
        "restaurant_name": "Circle K/Liberty Diesel",
        "address": "4625 Cleburne Blvd ",
        "city": "Dublin"
    },
    {
        "restaurant_id": "Jy_CZiRK1YouIvtfFy2zEQ",
        "ZIP_code": 24089,
        "restaurant_name": "Fieldale Cafe",
        "address": "63 Marshall Way ",
        "city": "Fieldale"
    },
    {
        "restaurant_id": "AThO7FWmBvl5cgLV_zRaZA",
        "ZIP_code": 24091,
        "restaurant_name": "Lucky8 Cosmic Cafe",
        "address": "361 S Locust St Ste 2321",
        "city": "Floyd"
    },
    {
        "restaurant_id": "xkMOssfzvfItf1nocWM-yg",
        "ZIP_code": 24091,
        "restaurant_name": "Floyd Country Store",
        "address": "206 South Locust St ",
        "city": "Floyd"
    },
    {
        "restaurant_id": "b5VvV2hcvRGrc_gSwZEKLg",
        "ZIP_code": 24112,
        "restaurant_name": "Third Bay Cafe",
        "address": "1163 Spruce St ",
        "city": "Martinsville"
    },
    {
        "restaurant_id": "5Vtlj3qbhZ9I1hLqRK-Xyg",
        "ZIP_code": 24112,
        "restaurant_name": "Simply Suzanne's Cafe",
        "address": "525 Airport Rd ",
        "city": "Martinsville"
    },
    {
        "restaurant_id": "0WMuSuB9GUayVKdnN96CCw",
        "ZIP_code": 24112,
        "restaurant_name": "Rising Sun Breads",
        "address": "1049 Brookdale St Ste D",
        "city": "Martinsville"
    },
    {
        "restaurant_id": "07zbD6_RjvHBB6NGn6Szhg",
        "ZIP_code": 24112,
        "restaurant_name": "Daily Grind",
        "address": "303 E Church St Ste A",
        "city": "Martinsville"
    },
    {
        "restaurant_id": "DnyujwTv6kY1qrbHEWqF_w",
        "ZIP_code": 24121,
        "restaurant_name": "Los Amigos Bar & Grill",
        "address": "404 Crazy Horse Dr ",
        "city": "Moneta"
    },
    {
        "restaurant_id": "DAX2oTm53jwKFGO_5PtMeQ",
        "ZIP_code": 24136,
        "restaurant_name": "Cascade Cafe",
        "address": "201 Cascade Dr ",
        "city": "Pembroke"
    },
    {
        "restaurant_id": "lek-5-PT_kfBmuEwXmx8FQ",
        "ZIP_code": 24202,
        "restaurant_name": "Ladybug Cafe & Cakery",
        "address": "15330 Lee Hwy Ste 101",
        "city": "Bristol"
    },
    {
        "restaurant_id": "FoM8gmIfxFUpwKMvQmd0CQ",
        "ZIP_code": 24210,
        "restaurant_name": "The Girl & The Raven",
        "address": "380 E Main St",
        "city": "Abingdon"
    },
    {
        "restaurant_id": "hNCYWDa0Dq0i6-VXsvgSBA",
        "ZIP_code": 24219,
        "restaurant_name": "The Big Stone Gap General Store & Cafe",
        "address": "215 Wood Ave E",
        "city": "Big Stone Gap"
    },
    {
        "restaurant_id": "g7KBFABMYvRztJ6qCNkFmw",
        "ZIP_code": 24236,
        "restaurant_name": "Mojo's Trailside Cafe & Coffee House",
        "address": "331 Douglas Dr ",
        "city": "Damascus"
    },
    {
        "restaurant_id": "x0MzS3cLxmQu1BtTUiVszA",
        "ZIP_code": 24333,
        "restaurant_name": "Creekside Cafe",
        "address": "1007 S Main St",
        "city": "Galax"
    },
    {
        "restaurant_id": "Y30UP5IlC7N4gF6B4HivEg",
        "ZIP_code": 24354,
        "restaurant_name": "Sisters Cafe & Gifts",
        "address": "212 E Main St ",
        "city": "Marion"
    },
    {
        "restaurant_id": "08C4S-VjGUcYJaVxmhrS5Q",
        "ZIP_code": 24368,
        "restaurant_name": "Java Blend Cafe",
        "address": "6778 W Lee Hwy ",
        "city": "Rural Retreat"
    },
    {
        "restaurant_id": "92VcU6iqFSiBkzGm2G10EQ",
        "ZIP_code": 24401,
        "restaurant_name": "The By & By Cafe and Beer Garden",
        "address": "140 E Beverley St",
        "city": "Staunton"
    },
    {
        "restaurant_id": "PZH23fiTEvJF4Keq3PS08w",
        "ZIP_code": 24401,
        "restaurant_name": "The Pampered Palate Cafe",
        "address": "26 E Beverley St ",
        "city": "Staunton"
    },
    {
        "restaurant_id": "xMpmqeuu1Vmg54AwhIgUWg",
        "ZIP_code": 24401,
        "restaurant_name": "The Frederick Street Cafe",
        "address": "11 E Frederick St ",
        "city": "Staunton"
    },
    {
        "restaurant_id": "bEVLox4o7JxBgeBZAjH-0g",
        "ZIP_code": 24416,
        "restaurant_name": "Mountain Music and Cafe",
        "address": "2403 Beech Ave ",
        "city": "Buena Vista"
    },
    {
        "restaurant_id": "6LcNh2lLOWX-WE6YwInL6Q",
        "ZIP_code": 24445,
        "restaurant_name": "Country Cafe",
        "address": "6156 Sam Snead Hwy ",
        "city": "Hot Springs"
    },
    {
        "restaurant_id": "sneBTtrDxUgvatPy00KLOg",
        "ZIP_code": 24445,
        "restaurant_name": "Martha's Market",
        "address": "7696 Sam Snead Hwy ",
        "city": "Hot Springs"
    },
    {
        "restaurant_id": "6OiQLPpE7eP-jKROMKMcwA",
        "ZIP_code": 24450,
        "restaurant_name": "Pronto Caffe & Gelateria",
        "address": "26 S Main St ",
        "city": "Lexington"
    },
    {
        "restaurant_id": "M12A71M8knK4u5FMVrGZLg",
        "ZIP_code": 24450,
        "restaurant_name": "Metta Meals",
        "address": "3 W Nelson St",
        "city": "Lexington"
    },
    {
        "restaurant_id": "IRwWWFMVvJzrW9p4_ZSRoQ",
        "ZIP_code": 24484,
        "restaurant_name": "Warm Springs Gallery",
        "address": "12 Katydid Trail",
        "city": "Warm Springs"
    },
    {
        "restaurant_id": "PmX9vTHCYsbRMtaxoU7ENQ",
        "ZIP_code": 24486,
        "restaurant_name": "The Rumor Mill Coffee",
        "address": "3494 Lee Hwy ",
        "city": "Weyers Cave"
    },
    {
        "restaurant_id": "DThMfevR7cPQdJz_VR41Rg",
        "ZIP_code": 24501,
        "restaurant_name": "Trade Winds Cafe",
        "address": "2201 Langhorne Rd Ste E",
        "city": "Lynchburg"
    },
    {
        "restaurant_id": "IPqmDxqKndzeOpMRw-rcQw",
        "ZIP_code": 24502,
        "restaurant_name": "Suzaku Cafe",
        "address": "120 Simons Run Ste G",
        "city": "Lynchburg"
    },
    {
        "restaurant_id": "uXWxveSwZPnZX-of6sYLzg",
        "ZIP_code": 24502,
        "restaurant_name": "Millie's Living Cafe",
        "address": "1701 Enterprise Dr ",
        "city": "Lynchburg"
    },
    {
        "restaurant_id": "1SKSMnMfBEgYvaQOn-Peew",
        "ZIP_code": 24502,
        "restaurant_name": "Blue Ridge Bagels",
        "address": "19327 Leesville Rd ",
        "city": "Lynchburg"
    },
    {
        "restaurant_id": "A95-4BjmubyBdID1EoPR0w",
        "ZIP_code": 24502,
        "restaurant_name": "The Muse Coffee",
        "address": "1509 Enterprise Dr ",
        "city": "Lynchburg"
    },
    {
        "restaurant_id": "HYghqXY1uZ5R34Nv11j0eA",
        "ZIP_code": 24502,
        "restaurant_name": "Bean Tree Cafe",
        "address": "105 Cornerstone Dr ",
        "city": "Lynchburg"
    },
    {
        "restaurant_id": "C8JzGhcO8AKF12nRpfElXw",
        "ZIP_code": 24502,
        "restaurant_name": "Joe Beans",
        "address": "14044 Wards Rd",
        "city": "Lynchburg"
    },
    {
        "restaurant_id": "t1fQBJuyjxS44pYtIpSqzA",
        "ZIP_code": 24502,
        "restaurant_name": "To Go Cafe",
        "address": "27716 Timberlake Rd ",
        "city": "Lynchburg"
    },
    {
        "restaurant_id": "fSsvQmAsP3CUeBjMeZP1pg",
        "ZIP_code": 24503,
        "restaurant_name": "Father's Cafe & Bakery",
        "address": "1219 Main St",
        "city": "Lynchburg"
    },
    {
        "restaurant_id": "zQF9va8SgJsPeO1N6zdttA",
        "ZIP_code": 24504,
        "restaurant_name": "Hot and Cold Cafe",
        "address": "1206 Main St ",
        "city": "Lynchburg"
    },
    {
        "restaurant_id": "LkwmMG9QCUN_0DQgyLqa3g",
        "ZIP_code": 24504,
        "restaurant_name": "Cinn City",
        "address": "1341 Main St Ste C",
        "city": "Lynchburg"
    },
    {
        "restaurant_id": "SQKOZfS01J3sCNmJwtFcTg",
        "ZIP_code": 24517,
        "restaurant_name": "Main Street Cafe & Coffee",
        "address": "600 Main St",
        "city": "Altavista"
    },
    {
        "restaurant_id": "CYrDm3AoXAC_ToRwuIVUlA",
        "ZIP_code": 24517,
        "restaurant_name": "Main Street Cafe",
        "address": "507 Main St ",
        "city": "Altavista"
    },
    {
        "restaurant_id": "75KDhFuDcreNOhNDddtW_w",
        "ZIP_code": 24521,
        "restaurant_name": "The Dogwood Cafe",
        "address": "200 Richmond Hwy Ste 100",
        "city": "Amherst"
    },
    {
        "restaurant_id": "_2UgQPtynPLW2YrBGuETQw",
        "ZIP_code": 24523,
        "restaurant_name": "Bridge Street Cafe",
        "address": "210 N Bridge St ",
        "city": "Bedford"
    },
    {
        "restaurant_id": "92MFILDAkGbjE2mmrL017g",
        "ZIP_code": 24531,
        "restaurant_name": "The Cafe at Reid Street",
        "address": "24 Reid St",
        "city": "Chatham"
    },
    {
        "restaurant_id": "qbncEbsTSNvYEBGpHbEmOw",
        "ZIP_code": 24540,
        "restaurant_name": "Megabytes",
        "address": "150 Slayton Ave ",
        "city": "Danville"
    },
    {
        "restaurant_id": "2G_Px7c_GasWZOu2SGMl4A",
        "ZIP_code": 24541,
        "restaurant_name": "Links Coffee House Cafe",
        "address": "319 Craghead St",
        "city": "Danville"
    },
    {
        "restaurant_id": "VBcQfCy_u38YAxXdiK8q7A",
        "ZIP_code": 24551,
        "restaurant_name": "County Line & Mini Mall & Cafe",
        "address": "20677 Lynchburg Hwy",
        "city": "Forest"
    },
    {
        "restaurant_id": "u18m8XiT8VCdAwHI-osuug",
        "ZIP_code": 24551,
        "restaurant_name": "V & T Cafe & Grill",
        "address": "18013 Forest Rd",
        "city": "Forest"
    },
    {
        "restaurant_id": "x2tYKQ0hsLg6BWkJxckFWg",
        "ZIP_code": 24574,
        "restaurant_name": "Woodruff Store Cafe & Pie Shop",
        "address": "3297 Elon Rd",
        "city": "Monroe"
    },
    {
        "restaurant_id": "we4hsWa3IHfPMMGONCYYIg",
        "ZIP_code": 24579,
        "restaurant_name": "Natural Bridge General Store and Natty B Cafe",
        "address": "593 Wert Faulkner Hwy ",
        "city": "Natural Bridge Station"
    },
    {
        "restaurant_id": "ffknRiDYQZeny2H-80wU0w",
        "ZIP_code": 24586,
        "restaurant_name": "Chasity's Cafe",
        "address": "6265 Kentuck Rd ",
        "city": "Ringgold"
    },
    {
        "restaurant_id": "n-BcNAafkFZZOP8Lm5T8lA",
        "ZIP_code": 24588,
        "restaurant_name": "Courthouse Cafe",
        "address": "880 Village Hwy ",
        "city": "Rustburg"
    },
    {
        "restaurant_id": "kv4E3XNJ6dgS0Gjr7ukPSg",
        "ZIP_code": 24592,
        "restaurant_name": "The Busy Bean",
        "address": "530 Wilborn Ave ",
        "city": "South Boston"
    },
    {
        "restaurant_id": "2olJR4Szney3xc8wAO5KSw",
        "ZIP_code": 20603,
        "restaurant_name": "Fruity Bubble Tea",
        "address": "11110 Mall Cir ",
        "city": "Waldorf"
    },
    {
        "restaurant_id": "UM1RAYogJh9Mlq2DlD9jcQ",
        "ZIP_code": 20619,
        "restaurant_name": "Thai Inter",
        "address": "22622 Macarthur Blvd ",
        "city": "California"
    },
    {
        "restaurant_id": "Voq7IwfOowpO_XNrqpx1XA",
        "ZIP_code": 20619,
        "restaurant_name": "The Beanery Cafe & Bakery",
        "address": "22741 Three Notch Rd ",
        "city": "California"
    },
    {
        "restaurant_id": "kw3Pu9XuET4uzCQh8PHkIA",
        "ZIP_code": 20619,
        "restaurant_name": "Kilimanjaro Cafe",
        "address": "22576 MacAurthur Blvd Ste 314",
        "city": "California"
    },
    {
        "restaurant_id": "QQNp0GPt3d1re3tbXrpeJg",
        "ZIP_code": 20636,
        "restaurant_name": "McKay's Market & Cafe",
        "address": "23860 Hollywood Rd ",
        "city": "Hollywood"
    },
    {
        "restaurant_id": "rsxI3RBsXdYM5A5joKh9vw",
        "ZIP_code": 20639,
        "restaurant_name": "The Lobby Coffee Bar & Cafe",
        "address": "6201 Solomons Island Rd ",
        "city": "Huntingtown"
    },
    {
        "restaurant_id": "4GmOgS5IMNsqGtb_ZpSz3A",
        "ZIP_code": 20640,
        "restaurant_name": "Clarity Coffee House",
        "address": "4175 Indian Head Hwy ",
        "city": "Indian Head"
    },
    {
        "restaurant_id": "KjHo-TV8l4u9VImBLw2OQw",
        "ZIP_code": 20678,
        "restaurant_name": "Bulrushes",
        "address": "135 Central Sq Dr ",
        "city": "Prince Frederick"
    },
    {
        "restaurant_id": "nZzxtkKCHhxbi_BxW5eleQ",
        "ZIP_code": 20678,
        "restaurant_name": "Dream Weaver Events & Catering",
        "address": "114 Solomons Island Rd S",
        "city": "Prince Frederick"
    },
    {
        "restaurant_id": "PFJCkRcIIN91wEQFvM4bEg",
        "ZIP_code": 20688,
        "restaurant_name": "Kim's Key Lime Pies and Lotus Kitchen",
        "address": "14618 Solomons Island Rd S ",
        "city": "Solomons"
    },
    {
        "restaurant_id": "0ZhzX-WIMIidXncw3FuH9A",
        "ZIP_code": 20688,
        "restaurant_name": "Next Door Cafe",
        "address": "Woodburn Ln ",
        "city": "Solomons"
    },
    {
        "restaurant_id": "fR-4lEtRWGDZHOXU_pFYZw",
        "ZIP_code": 20701,
        "restaurant_name": "Cafe Joe",
        "address": "114 National Business Pkwy Ste 300",
        "city": "Annapolis Junction"
    },
    {
        "restaurant_id": "3bJYX6KvaIQbfstrynY_oA",
        "ZIP_code": 20705,
        "restaurant_name": "Sunrise Cafe",
        "address": "11720 Beltsville Dr Ste 150",
        "city": "Beltsville"
    },
    {
        "restaurant_id": "WPXTVH81S9G3MykA6Wjpbw",
        "ZIP_code": 20705,
        "restaurant_name": "Milk and Honey Cafe College Park",
        "address": "10280 Baltimore Ave Unit B",
        "city": "Calverton"
    },
    {
        "restaurant_id": "gqRYXejHXiz1kBPeeElzwQ",
        "ZIP_code": 20706,
        "restaurant_name": "Simple Vegan",
        "address": "None",
        "city": "Lanham"
    },
    {
        "restaurant_id": "tIvfIY5iG0W_XaoBiD6QJw",
        "ZIP_code": 20707,
        "restaurant_name": "First Watch",
        "address": "14700 Baltimore Ave Ste 102",
        "city": "Laurel"
    },
    {
        "restaurant_id": "z6ErfQ9VlI9ghzMYvGsKNg",
        "ZIP_code": 20707,
        "restaurant_name": "Sip at C Street Flats",
        "address": "24 C St Ste 100",
        "city": "Laurel"
    },
    {
        "restaurant_id": "mwyMV6LSNImJhGJmgLyqDg",
        "ZIP_code": 20707,
        "restaurant_name": "Starbucks",
        "address": "14060 Baltimore Ave ",
        "city": "Laurel"
    },
    {
        "restaurant_id": "uM4AOIcotKcPxcLxRjVJlg",
        "ZIP_code": 20707,
        "restaurant_name": "Kings Way",
        "address": "13919-8 Baltimore Ave ",
        "city": "Laurel"
    },
    {
        "restaurant_id": "TMhekMvtwdarMK0xOMt4uA",
        "ZIP_code": 20708,
        "restaurant_name": "Bliss Nutrition",
        "address": "12749 Laurel Bowie Rd",
        "city": "Laurel"
    },
    {
        "restaurant_id": "g4JKXqRJhupkCZFB7WGbmg",
        "ZIP_code": 20710,
        "restaurant_name": "Mango Caffe",
        "address": "4719 Annapolis Rd",
        "city": "Bladensburg"
    },
    {
        "restaurant_id": "1wJGwfEnfu8tSnCCzR1QFA",
        "ZIP_code": 20712,
        "restaurant_name": "Sweet & Natural",
        "address": "4009 34th St ",
        "city": "Mount Rainier"
    },
    {
        "restaurant_id": "yxgLflKwFnszePE_BSPwMQ",
        "ZIP_code": 20712,
        "restaurant_name": "Dodah\u2019s Kitchen",
        "address": "3801 34th St ",
        "city": "Mount Rainier"
    },
    {
        "restaurant_id": "SOhL289qmi6qWqiH4TiHww",
        "ZIP_code": 20712,
        "restaurant_name": "The Waterhole",
        "address": "4004 34th St ",
        "city": "Mount Rainier"
    },
    {
        "restaurant_id": "ohQLFXSKDGG_6eLXX0oMpw",
        "ZIP_code": 20715,
        "restaurant_name": "Island Fin Pok\u00e9",
        "address": "15485 Annapolis Rd Ste 205",
        "city": "Bowie"
    },
    {
        "restaurant_id": "AgD7VnMHaH2BTbYYAPgdLQ",
        "ZIP_code": 20715,
        "restaurant_name": "Uptown Cafe",
        "address": "16701 Melford Blvd Ste 121",
        "city": "Bowie"
    },
    {
        "restaurant_id": "Z8-bNfHDIPuHSVdA51PsUA",
        "ZIP_code": 20716,
        "restaurant_name": "First Watch",
        "address": "15471 Excelsior Dr",
        "city": "Bowie"
    },
    {
        "restaurant_id": "dWqDJlItYpFNoPohzI16Kg",
        "ZIP_code": 20720,
        "restaurant_name": "Milk & Honey Bowie",
        "address": "12500 Fairwood Pkwy Bowie, 20720",
        "city": "Bowie"
    },
    {
        "restaurant_id": "OVAEzOGuCCFoD39M2TzgEQ",
        "ZIP_code": 20720,
        "restaurant_name": "Samosa Supreme",
        "address": "14207 Old Annapolis Rd Unit C",
        "city": "Bowie"
    },
    {
        "restaurant_id": "ZXS2PHACn9WVe7bbf97w2g",
        "ZIP_code": 20732,
        "restaurant_name": "Boardwalk Cafe",
        "address": "4165 Mears Ave ",
        "city": "Chesapeake Beach"
    },
    {
        "restaurant_id": "TV70DA8ZjgJJ6agXHSIb4g",
        "ZIP_code": 20735,
        "restaurant_name": "Naija Cafe & Restaurant",
        "address": "8319 Old Branch Ave ",
        "city": "Clinton"
    },
    {
        "restaurant_id": "b3poubn96XT0rsoQeZFGLA",
        "ZIP_code": 20735,
        "restaurant_name": "Triple A Chinese Restaurant",
        "address": "9002 Old Branch Ave ",
        "city": "Clinton"
    },
    {
        "restaurant_id": "NqGUlOpxfV0VLC0K2Yo4qA",
        "ZIP_code": 20737,
        "restaurant_name": "Gangster Vegan Organics",
        "address": "6202 Rhode Island Ave Ste 105",
        "city": "Riverdale Park"
    },
    {
        "restaurant_id": "hklh8GvAM4535WMueEdXSw",
        "ZIP_code": 20737,
        "restaurant_name": "Cafe Atrio",
        "address": "5801 University Research Ct Ste 110",
        "city": "Riverdale"
    },
    {
        "restaurant_id": "vDHEfvbVUe-SJDo9J2cVng",
        "ZIP_code": 20740,
        "restaurant_name": "Milk & Honey Cafe",
        "address": "10280 Baltimore Ave Ste B",
        "city": "College Park"
    },
    {
        "restaurant_id": "8EC62cW5_kfdsO8ERssUMQ",
        "ZIP_code": 20740,
        "restaurant_name": "sweetgreen",
        "address": "8300 Baltimore Ave ",
        "city": "College Park"
    },
    {
        "restaurant_id": "wZlxI1Psmg31JlPRVEmXiQ",
        "ZIP_code": 20740,
        "restaurant_name": "NuVegan Cafe - College Park",
        "address": "8150 Baltimore Ave ",
        "city": "College Park"
    },
    {
        "restaurant_id": "-yifWT6zAlrSBh_qDCwQiQ",
        "ZIP_code": 20740,
        "restaurant_name": "Eddie's Cafe",
        "address": "9823 Rhode Island Ave ",
        "city": "College Park"
    },
    {
        "restaurant_id": "HEyFaTFc0IHCdP7e1BwTQw",
        "ZIP_code": 20745,
        "restaurant_name": "Bellagio Patisserie",
        "address": " 101 MGM National Ave",
        "city": "National Harbor"
    },
    {
        "restaurant_id": "vQB_Ezfb_3xD3IRne7_vGQ",
        "ZIP_code": 20748,
        "restaurant_name": "Spizzy",
        "address": "5830 Allentown Way",
        "city": "Camp Springs"
    },
    {
        "restaurant_id": "-O5PDp81M9-i5gGXql0Jjw",
        "ZIP_code": 20748,
        "restaurant_name": "Soul-Tarian Cafe",
        "address": " ",
        "city": "Temple Hills"
    },
    {
        "restaurant_id": "Edtj26-cRy9A9kFGMIYhRg",
        "ZIP_code": 20751,
        "restaurant_name": "South County Cafe",
        "address": "5960 Deale Churchton Rd",
        "city": "Deale"
    },
    {
        "restaurant_id": "a2VQa2ofPD0gOlUkO58njw",
        "ZIP_code": 20755,
        "restaurant_name": "The Lanes at Fort Meade",
        "address": "2788 MacArthur Rd ",
        "city": "Fort Meade"
    },
    {
        "restaurant_id": "m3SxWMt3CGRnPqeGOk_-rw",
        "ZIP_code": 20763,
        "restaurant_name": "Rustiq Bakery & Cafe",
        "address": "8600 Foundry St Ste 2091",
        "city": "Savage"
    },
    {
        "restaurant_id": "IAKGLitDfpNPulnWlCKpgQ",
        "ZIP_code": 20770,
        "restaurant_name": "Bun Cafe",
        "address": "6150 Greenbelt Rd ",
        "city": "Greenbelt"
    },
    {
        "restaurant_id": "R7DBLu6dUrdhAUNb1oSDJw",
        "ZIP_code": 20770,
        "restaurant_name": "New Deal Cafe",
        "address": "113 Centerway ",
        "city": "Greenbelt"
    },
    {
        "restaurant_id": "xEI8Pe_LvwxwKlJp5w4boQ",
        "ZIP_code": 20770,
        "restaurant_name": "Beijing of Greenbelt",
        "address": "131 Centerway ",
        "city": "Greenbelt"
    },
    {
        "restaurant_id": "AUiB-OBBSMrkbgWKHtVBDg",
        "ZIP_code": 20770,
        "restaurant_name": "Colette's Cafe",
        "address": "6411 Ivy Ln ",
        "city": "Greenbelt"
    },
    {
        "restaurant_id": "Y_F6XDKxZ48sIM_oC7e6-g",
        "ZIP_code": 20770,
        "restaurant_name": "Cafe Continental",
        "address": "6404 Ivy Ln Ste 116",
        "city": "Greenbelt"
    },
    {
        "restaurant_id": "wzrJWwXxkGNa_zfHonkP1g",
        "ZIP_code": 20770,
        "restaurant_name": "Silver Moon Cafe",
        "address": "6400 Ivy Ln ",
        "city": "Greenbelt"
    },
    {
        "restaurant_id": "y5PxM3wlNeldvC4lng6o8g",
        "ZIP_code": 20772,
        "restaurant_name": "Asian Cafe",
        "address": "5080 Brown Station Rd Ste 220",
        "city": "Upper Marlboro"
    },
    {
        "restaurant_id": "z8CIZy2-u1_BfQrb4QZaNg",
        "ZIP_code": 20782,
        "restaurant_name": "&pizza - Mall at Prince George's",
        "address": "3500 E West Hwy Unit 1250",
        "city": "Hyattsville"
    },
    {
        "restaurant_id": "isIrfpsvRdqyVlHmCSY2NQ",
        "ZIP_code": 20783,
        "restaurant_name": "Flowers Bakery and Cafe",
        "address": "1401 University Blvd E ",
        "city": "Hyattsville"
    },
    {
        "restaurant_id": "fAcizPK3JDFi7Qzsy5wA6Q",
        "ZIP_code": 20785,
        "restaurant_name": "BK Bakehouse",
        "address": "None",
        "city": "Cheverly"
    },
    {
        "restaurant_id": "3K-Dl6ejy7OBE-C7Yxz43w",
        "ZIP_code": 20812,
        "restaurant_name": "Glen Echo Cafe",
        "address": "7300 Macarthur Blvd ",
        "city": "Glen Echo"
    },
    {
        "restaurant_id": "xxprFfNfPBRNv48XbJMNcg",
        "ZIP_code": 20814,
        "restaurant_name": "Lilit Cafe",
        "address": "7921 Old Georgetown Rd ",
        "city": "Bethesda"
    },
    {
        "restaurant_id": "5VAQn_dEUWdgK-zduVyl1Q",
        "ZIP_code": 20814,
        "restaurant_name": "True Food Kitchen",
        "address": "7100 Wisconsin Ave",
        "city": "Bethesda"
    },
    {
        "restaurant_id": "NWvyExav5wZptc9NP0EnVQ",
        "ZIP_code": 20814,
        "restaurant_name": "Flower Child",
        "address": "10205 Old Georgetown Rd ",
        "city": "Bethesda"
    },
    {
        "restaurant_id": "jV5DcmdvbVSjlFpAbWxi-Q",
        "ZIP_code": 20814,
        "restaurant_name": "Tatte Bakery & Cafe",
        "address": "7276 Wisconsin Ave ",
        "city": "Bethesda"
    },
    {
        "restaurant_id": "J9u2CcIyjWN8nhWiZfb2Zw",
        "ZIP_code": 20814,
        "restaurant_name": "Vegan Bowl Factory",
        "address": "7345 Wisconsin Ave Ste A",
        "city": "Bethesda"
    },
    {
        "restaurant_id": "s7TTmTNbnTQz9PSFktELUw",
        "ZIP_code": 20814,
        "restaurant_name": "Avenue Cafe",
        "address": "4924 Del Ray Ave ",
        "city": "Bethesda"
    },
    {
        "restaurant_id": "iyEHXqJtk0UYGBKJ7x-0Xw",
        "ZIP_code": 20814,
        "restaurant_name": "&pizza - Bethesda",
        "address": "7614 Old Georgetown Rd ",
        "city": "Bethesda"
    },
    {
        "restaurant_id": "pNhSqN-QpNksbBZh6DQtUA",
        "ZIP_code": 20814,
        "restaurant_name": "Ceremony Coffee Roasters - Bethesda Crescent",
        "address": "7475 Wisconsin Ave",
        "city": "Bethesda"
    },
    {
        "restaurant_id": "rEYkQsqjmWiKbf9Rg0znmw",
        "ZIP_code": 20814,
        "restaurant_name": "The Red Bandana Bakery",
        "address": "8218 Wisconsin Ave Ste 101",
        "city": "Bethesda"
    },
    {
        "restaurant_id": "a0v99FhJCFsLUm4SR5dVMg",
        "ZIP_code": 20814,
        "restaurant_name": "Chopt Creative Salad Co.",
        "address": "10307 Old Georgetown Rd Suite 3",
        "city": "Bethesda"
    },
    {
        "restaurant_id": "TbMpccZH33xOipgzJy4Cyw",
        "ZIP_code": 20815,
        "restaurant_name": "Olympia Cafe",
        "address": "7021 Brookville Rd ",
        "city": "Chevy Chase"
    },
    {
        "restaurant_id": "4lLhqg0h51Kp_fekG7ar8A",
        "ZIP_code": 20817,
        "restaurant_name": "Uptown Cafe",
        "address": "6720 Rockledge Dr ",
        "city": "Bethesda"
    },
    {
        "restaurant_id": "W93EGo49mQj39ZInDECIKQ",
        "ZIP_code": 20850,
        "restaurant_name": "One Tea House",
        "address": "605 Hungerford Dr",
        "city": "Rockville"
    },
    {
        "restaurant_id": "Tb_bs2TfKfyEhrgtaAeoxA",
        "ZIP_code": 20850,
        "restaurant_name": "St. Veg",
        "address": "14929 Shady Grove Rd Unit M",
        "city": "Rockville"
    },
    {
        "restaurant_id": "EiAhn_lxfdmmLkft2Q-wNw",
        "ZIP_code": 20850,
        "restaurant_name": "Tasty Nook Cafe",
        "address": "1405 Research Blvd ",
        "city": "Rockville"
    },
    {
        "restaurant_id": "qdnexxQkyCNSLFFKUESCPA",
        "ZIP_code": 20850,
        "restaurant_name": "Amai Cr\u00eape",
        "address": "199 E Montgomery Ave Ste J",
        "city": "Rockville"
    },
    {
        "restaurant_id": "Yd5eo10R5Jp9mYO-2x6Q6Q",
        "ZIP_code": 20850,
        "restaurant_name": "First Watch",
        "address": "100 Gibbs St Unit D",
        "city": "Rockville"
    },
    {
        "restaurant_id": "ncKJnevIZpQDxuU7GwPEuA",
        "ZIP_code": 20850,
        "restaurant_name": "Carmen's Italian Ice & Cafe",
        "address": "1115 Nelson St ",
        "city": "Rockville"
    },
    {
        "restaurant_id": "D89DFEDfyVYY4UJYEXQ0Ew",
        "ZIP_code": 20852,
        "restaurant_name": "honeygrow",
        "address": "12035 Rockville Pike ",
        "city": "Rockville"
    },
    {
        "restaurant_id": "WdYoty5l_CgnGO_D4nI6RA",
        "ZIP_code": 20852,
        "restaurant_name": "&pizza - Pike + Rose",
        "address": "11626 Old Georgetown Rd ",
        "city": "North Bethesda"
    },
    {
        "restaurant_id": "x3UAfY9MwP1CAgGHFQ_SCA",
        "ZIP_code": 20852,
        "restaurant_name": "Little Vibe Cafe",
        "address": "967 Rose Ave ",
        "city": "North Bethesda"
    },
    {
        "restaurant_id": "2adR6b2k-Po50R2CiDn0vg",
        "ZIP_code": 20852,
        "restaurant_name": "Teamania",
        "address": "130 Rollins Ave Ste B",
        "city": "Rockville"
    },
    {
        "restaurant_id": "xJsOr3h9k4wYd0Sgfp3nbQ",
        "ZIP_code": 20852,
        "restaurant_name": "Naked Lunch",
        "address": "5566 Randolph Rd ",
        "city": "Rockville"
    },
    {
        "restaurant_id": "EQH1_JgWJMXH-rTeWOxsdg",
        "ZIP_code": 20852,
        "restaurant_name": "Emily's Kitchen",
        "address": "11200 Rockville Pike Ste 100",
        "city": "Rockville"
    },
    {
        "restaurant_id": "wm1IKS2S7GJTgSItv7c9Hg",
        "ZIP_code": 20852,
        "restaurant_name": "Cafe 5601",
        "address": "5601 Fishers Ln ",
        "city": "Rockville"
    },
    {
        "restaurant_id": "3FtiEY9GuDd_JPOWmEZCKw",
        "ZIP_code": 20852,
        "restaurant_name": "sweetgreen",
        "address": "11875 Grand Park Ave ",
        "city": "North Bethesda"
    },
    {
        "restaurant_id": "yLi2l3UIdToTdGciLxdxAA",
        "ZIP_code": 20855,
        "restaurant_name": "Outta The Way Cafe",
        "address": "17503 Redland Rd ",
        "city": "Derwood"
    },
    {
        "restaurant_id": "cc-oL_3-tfRXKU72oXgmkA",
        "ZIP_code": 20871,
        "restaurant_name": "The Gateway Cafe",
        "address": "22610 Gateway Ctr Dr Ste 500",
        "city": "Clarksburg"
    },
    {
        "restaurant_id": "Y7VuHeM9hN57S4_MrNVhtA",
        "ZIP_code": 20874,
        "restaurant_name": "&pizza - Germantown",
        "address": "19823 Century Blvd",
        "city": "Germantown"
    },
    {
        "restaurant_id": "Vp1c0UxCzrlv4KSGLUnmzg",
        "ZIP_code": 20874,
        "restaurant_name": "Mr K's Chinese Cafe",
        "address": "12611 Wisteria Dr Ste I",
        "city": "Germantown"
    },
    {
        "restaurant_id": "oXBHH0Ha-FnNN3sXwVx1WA",
        "ZIP_code": 20877,
        "restaurant_name": "Pieology Pizzeria",
        "address": "15780 Shady Grove Rd",
        "city": "Gaithersburg"
    },
    {
        "restaurant_id": "Cq8_l17cKfCjbmr2ndYY_g",
        "ZIP_code": 20877,
        "restaurant_name": "Jiawei cafe",
        "address": "110 Odendhal Ave",
        "city": "Gaithersburg"
    },
    {
        "restaurant_id": "TSFxM4J6jCSdoLdOptFAuQ",
        "ZIP_code": 20877,
        "restaurant_name": "Olde Town Cafe",
        "address": "226 E Diamond Ave ",
        "city": "Gaithersburg"
    },
    {
        "restaurant_id": "gPHH0V8MzinckhCJtBvVvQ",
        "ZIP_code": 20878,
        "restaurant_name": "FD Book Cafe",
        "address": "422 Main St",
        "city": "Gaithersburg"
    },
    {
        "restaurant_id": "ULeX_UFCPjVU3IB9bchBbQ",
        "ZIP_code": 20878,
        "restaurant_name": "Dosa & Chaat Indian Cafe",
        "address": "68 Market St",
        "city": "Gaithersburg"
    },
    {
        "restaurant_id": "iIGiMbS8fih25nxPf1gf1w",
        "ZIP_code": 20878,
        "restaurant_name": "Yard House",
        "address": "211 Rio Blvd ",
        "city": "Gaithersburg"
    },
    {
        "restaurant_id": "apczpMf-dXgpPCGOJLG_iw",
        "ZIP_code": 20878,
        "restaurant_name": "Cinnaholic",
        "address": "230 Crown Park Ave",
        "city": "Gaithersburg"
    },
    {
        "restaurant_id": "22sd4AFXxar4RtyOi1vpqw",
        "ZIP_code": 20878,
        "restaurant_name": "&pizza - Gaithersburg",
        "address": "258 Crown Park Ave",
        "city": "Gaithersburg"
    },
    {
        "restaurant_id": "FNqg_OKv63_NRzKoNCq3Eg",
        "ZIP_code": 20878,
        "restaurant_name": "First Watch",
        "address": "802 Muddy Branch Rd ",
        "city": "Gaithersburg"
    },
    {
        "restaurant_id": "qpLUkLN00SH3rD5UbCePIQ",
        "ZIP_code": 20878,
        "restaurant_name": "la Madeleine French Bakery & Cafe",
        "address": "242 Crown Park Ave ",
        "city": "Gaithersburg"
    },
    {
        "restaurant_id": "cLT7wv_SM7wGjVz340pXMw",
        "ZIP_code": 20878,
        "restaurant_name": "Cafe Crossroads Rio",
        "address": "9801 Washingtonian Blvd ",
        "city": "Gaithersburg"
    },
    {
        "restaurant_id": "87cv9kBDscHIgx8wRo3O8g",
        "ZIP_code": 20879,
        "restaurant_name": "Gardenia's Cafe",
        "address": "8377 Snouffer School Rd",
        "city": "Gaithersburg"
    },
    {
        "restaurant_id": "1OF2kC0uu2h5RZiqZfDfGA",
        "ZIP_code": 20879,
        "restaurant_name": "Silver Spoon Kabobs",
        "address": "18530 Woodfield Rd",
        "city": "Gaithersburg"
    },
    {
        "restaurant_id": "PmWrX6V8moyWOkoxPcaaDg",
        "ZIP_code": 20879,
        "restaurant_name": "Ann's Cafe",
        "address": "7616 Airpark Rd ",
        "city": "Gaithersburg"
    },
    {
        "restaurant_id": "ftlNkRNzWX900Amd31K9Lg",
        "ZIP_code": 20882,
        "restaurant_name": "The Office Cafe & Lounge",
        "address": "6860 Olney-Laytonsville Rd ",
        "city": "Laytonsville"
    },
    {
        "restaurant_id": "4hHacGCEpI16dKxxpejuuw",
        "ZIP_code": 20895,
        "restaurant_name": "Dalia\u2019s falafel",
        "address": "4128B Howard Ave ",
        "city": "Kensington"
    },
    {
        "restaurant_id": "exgJoGFDS1KUYEKOn8nlDQ",
        "ZIP_code": 20895,
        "restaurant_name": "Bamboo Caf\u00e9",
        "address": "4222 Howard Ave ",
        "city": "Kensington"
    },
    {
        "restaurant_id": "kRanxsA6PVE0L6iLPqP3iA",
        "ZIP_code": 20895,
        "restaurant_name": "Java Nation - Kensington",
        "address": "10516 Connecticut Ave ",
        "city": "Kensington"
    },
    {
        "restaurant_id": "juySVBJqwTtufc1n_rW6Lw",
        "ZIP_code": 20895,
        "restaurant_name": "Donut King",
        "address": "3727 University Blvd W ",
        "city": "Kensington"
    },
    {
        "restaurant_id": "K1Z-E8_1E_u7tFVGMTnP-g",
        "ZIP_code": 20901,
        "restaurant_name": "Rox Cafe",
        "address": "10770 Columbia Pike Ste 102",
        "city": "Silver Spring"
    },
    {
        "restaurant_id": "El4tJ6z2j63GnvEUUMqonw",
        "ZIP_code": 20902,
        "restaurant_name": "Bubble Tea Bar Cafe",
        "address": "2301 University Blvd W",
        "city": "Wheaton"
    },
    {
        "restaurant_id": "6VU9D1XJ_GYfW-2UEyzinQ",
        "ZIP_code": 20902,
        "restaurant_name": "Erta Ale Ethiopian Restaurant And Cafe",
        "address": "2310 Price Ave Wheaton Md Ste 20902",
        "city": "Silver Spring"
    },
    {
        "restaurant_id": "sdyarfSkRbn1ETHJaXcMtg",
        "ZIP_code": 20902,
        "restaurant_name": "Nestle Toll House Cafe by Chip",
        "address": "11160 Viers Mill Rd ",
        "city": "Silver Spring"
    },
    {
        "restaurant_id": "YYjwM3lQ2Yh6VScgIOZtKQ",
        "ZIP_code": 20904,
        "restaurant_name": "Fruit of the Spirit",
        "address": "12012 Cherry Hill Rd ",
        "city": "Silver Spring"
    },
    {
        "restaurant_id": "-9uJyS9cSn2Chfy6uB0ijg",
        "ZIP_code": 20904,
        "restaurant_name": "GC Cafeteria",
        "address": "12501 Old Columbia Pike ",
        "city": "Silver Spring"
    },
    {
        "restaurant_id": "9_QiMVzWR4915kroJTNynw",
        "ZIP_code": 20906,
        "restaurant_name": "Vegetable Garden",
        "address": "3830 International Dr ",
        "city": "Silver Spring"
    },
    {
        "restaurant_id": "Ya09dqjb9jqv9L6t5Kv-ig",
        "ZIP_code": 20910,
        "restaurant_name": "&pizza - Silver Spring",
        "address": "8455 Fenton St",
        "city": "Silver Spring"
    },
    {
        "restaurant_id": "YzdDK9BCtMS_MX6s0cKT9A",
        "ZIP_code": 20910,
        "restaurant_name": "Mandalay Restaurant & Cafe",
        "address": "930 Bonifant St ",
        "city": "Silver Spring"
    },
    {
        "restaurant_id": "osCPvCZ4-m_OXpH5yqzzBg",
        "ZIP_code": 20910,
        "restaurant_name": "LOCAVINO",
        "address": "8519 Fenton St",
        "city": "Silver Spring"
    },
    {
        "restaurant_id": "Oo5Q90v1XRYSzejDg85lQA",
        "ZIP_code": 20910,
        "restaurant_name": "Lotus Cafe",
        "address": "8077 Georgia Ave ",
        "city": "Silver Spring"
    },
    {
        "restaurant_id": "5YopCkXsjko6KnXzJUUojw",
        "ZIP_code": 20910,
        "restaurant_name": "sweetgreen",
        "address": "8517 Georgia Ave ",
        "city": "Silver Spring"
    },
    {
        "restaurant_id": "YsZX7vP4b2NdeYe4ABCJgQ",
        "ZIP_code": 20910,
        "restaurant_name": "Tiramisu Bakery Cafe",
        "address": "7847 Eastern Ave ",
        "city": "Silver Spring"
    },
    {
        "restaurant_id": "IODBdzVg_mrll8np6gAtIw",
        "ZIP_code": 20910,
        "restaurant_name": "Ghar- E- Kabab",
        "address": "944 Wayne Ave ",
        "city": "Silver Spring"
    },
    {
        "restaurant_id": "4hvrOFNggwwqx5DzpA1-Sw",
        "ZIP_code": 20910,
        "restaurant_name": "Rohobot Ethiopian Restaurant",
        "address": "7833 Eastern Ave ",
        "city": "silver spring"
    },
    {
        "restaurant_id": "W-v1uWTbTUEKGARRYl9NUQ",
        "ZIP_code": 20912,
        "restaurant_name": "Mark's Kitchen",
        "address": "7006 Carroll Ave ",
        "city": "Takoma Park"
    },
    {
        "restaurant_id": "1uJPLfwNRG-NmuI5Z4oVvg",
        "ZIP_code": 21014,
        "restaurant_name": "Sunny Day Cafe",
        "address": "101 S Main St ",
        "city": "Bel Air"
    },
    {
        "restaurant_id": "lT3CrtR46CC9eWSfNuQnEA",
        "ZIP_code": 21014,
        "restaurant_name": "Saladworks Bel Air",
        "address": "615 Bel Air Rd",
        "city": "Bel Air"
    },
    {
        "restaurant_id": "m19Vs29CPZRSBmXvit9F5g",
        "ZIP_code": 21014,
        "restaurant_name": "Pure Raw Juice - Harford Mall",
        "address": "696 Belair Rd Ste J10",
        "city": "Bel Air"
    },
    {
        "restaurant_id": "IvXT9CcGRRzFTeeRrn50PQ",
        "ZIP_code": 21015,
        "restaurant_name": "India Garden",
        "address": "5 Bel Air S Pkwy Ste 1615",
        "city": "Bel Air"
    },
    {
        "restaurant_id": "MQnlYrIwQGqbLsnsf2oiMA",
        "ZIP_code": 21015,
        "restaurant_name": "Coffee Coffee",
        "address": "5 Bel Air S Pkwy Ste 117",
        "city": "Bel Air"
    },
    {
        "restaurant_id": "Yj1jDQX3GbO8ncLj58SG_w",
        "ZIP_code": 21029,
        "restaurant_name": "Ruthie's Deli & Cafe",
        "address": "6355 Ten Oaks Rd ",
        "city": "Clarksville"
    },
    {
        "restaurant_id": "sCFzfLomC4v9OxkASqAODw",
        "ZIP_code": 21029,
        "restaurant_name": "Koshary By Misteka",
        "address": "12250 Clarksville Pike Ste C",
        "city": "Clarksville"
    },
    {
        "restaurant_id": "jZF8D7JL1mMjVXWN1GZRSg",
        "ZIP_code": 21030,
        "restaurant_name": "Crawford's Cafe",
        "address": "303 International Cir ",
        "city": "Cockeysville"
    },
    {
        "restaurant_id": "ye148uVN7rmFrL666PKfXA",
        "ZIP_code": 21030,
        "restaurant_name": "Fat Boys Cafe",
        "address": "101 Schilling Rd ",
        "city": "Cockeysville"
    },
    {
        "restaurant_id": "XVVRYFRRBbvw-qYFenCZKQ",
        "ZIP_code": 21032,
        "restaurant_name": "Bean Rush Cafe",
        "address": "1015 Generals Hwy",
        "city": "Crownsville"
    },
    {
        "restaurant_id": "aMCBS3NnErnSymsZsY_gMw",
        "ZIP_code": 21042,
        "restaurant_name": "Ernesto's Fine Mexican Food",
        "address": "10040 Baltimore National Pike ",
        "city": "Ellicott City"
    },
    {
        "restaurant_id": "FAWOzcGjLh6ml36zyQyP9g",
        "ZIP_code": 21042,
        "restaurant_name": "Tea-Do Ellicott City",
        "address": "3355 St Johns Ln Ste C",
        "city": "Ellicott City"
    },
    {
        "restaurant_id": "2sAoaJyXFpGsSPLoPwJtyg",
        "ZIP_code": 21043,
        "restaurant_name": "Syriana Cafe & Gallery",
        "address": "8180 Main St ",
        "city": "Ellicott City"
    },
    {
        "restaurant_id": "Udbu-yG3TCJudvbCakN-vg",
        "ZIP_code": 21043,
        "restaurant_name": "Georgia Grace Cafe",
        "address": "8006 Main St ",
        "city": "Ellicott City"
    },
    {
        "restaurant_id": "3mcP9dqzaslsjO3S572Ivg",
        "ZIP_code": 21043,
        "restaurant_name": "Matcha Time Cafe",
        "address": "3785 Hamilton St ",
        "city": "Ellicott City"
    },
    {
        "restaurant_id": "-eiOQJRSXi1m6AX2R4Ygpw",
        "ZIP_code": 21043,
        "restaurant_name": "Pure Wine Cafe",
        "address": "8210 Main St ",
        "city": "Ellicott City"
    },
    {
        "restaurant_id": "u55Q5vNz2WC3FwRLpbvnwg",
        "ZIP_code": 21044,
        "restaurant_name": "Mad City Coffee",
        "address": "10801 Hickory Ridge Rd ",
        "city": "Columbia"
    },
    {
        "restaurant_id": "KC5SgOUirzAeSwyjcPyljA",
        "ZIP_code": 21044,
        "restaurant_name": "Corner Bakery Cafe",
        "address": "10000 Town Center Ave ",
        "city": "Columbia"
    },
    {
        "restaurant_id": "2UTZDRY2lXUDKggs21zUgg",
        "ZIP_code": 21044,
        "restaurant_name": "Bourbon Street Cajun Cafe & Grill",
        "address": "10300 Little Patuxent Pkwy ",
        "city": "Columbia"
    },
    {
        "restaurant_id": "b8jZe6ydZWQ7pdpa5R2mQQ",
        "ZIP_code": 21044,
        "restaurant_name": "Lakeside Cafe & Deli",
        "address": "11000 Brokenland Pkwy ",
        "city": "Columbia"
    },
    {
        "restaurant_id": "f2WVDklYkUDxEMt1griN5w",
        "ZIP_code": 21044,
        "restaurant_name": "David's Natural Market",
        "address": "5410 Lynx Ln ",
        "city": "Columbia"
    },
    {
        "restaurant_id": "hiO5BciWQSjgAg60eY5thA",
        "ZIP_code": 21044,
        "restaurant_name": "Caf\u00e9 Nordstrom",
        "address": "10300 Little Patuxent Pkwy ",
        "city": "Columbia"
    },
    {
        "restaurant_id": "j2t9ccdtp8oxuX139W8xNw",
        "ZIP_code": 21044,
        "restaurant_name": "Mad City Coffee",
        "address": "5550 Sterrett Pl ",
        "city": "Columbia"
    },
    {
        "restaurant_id": "LHgn_JLw95jMGIs1D0EkJA",
        "ZIP_code": 21046,
        "restaurant_name": "Bi Bi Cafeteria",
        "address": "7221 Lee Deforest Dr",
        "city": "Columbia"
    },
    {
        "restaurant_id": "Rsqe0tGoOzuyzJHR6Pc8OA",
        "ZIP_code": 21046,
        "restaurant_name": "Cafe Gateway",
        "address": "6841 Benjamin Franklin Dr ",
        "city": "Columbia"
    },
    {
        "restaurant_id": "jGKmrpL6_Oh2CU39CfUzDw",
        "ZIP_code": 21046,
        "restaurant_name": "Java City",
        "address": "7031 Columbia Gateway Dr ",
        "city": "Columbia"
    },
    {
        "restaurant_id": "01afeUc9R25Y2_wNC0WPKA",
        "ZIP_code": 21054,
        "restaurant_name": "Rutabaga Juicery & Eats",
        "address": "1131A Md Rt 3 N",
        "city": "Gambrills"
    },
    {
        "restaurant_id": "7rwxGpNQOMjM2nl_zQciHw",
        "ZIP_code": 21054,
        "restaurant_name": "Elevation Burger",
        "address": "1403 S Main Chapel Way Ste 103",
        "city": "Gambrills"
    },
    {
        "restaurant_id": "UA1TsGrEKuy4oIRR_GJgfA",
        "ZIP_code": 21061,
        "restaurant_name": "First Watch",
        "address": "6620 Governor Ritchie Hwy",
        "city": "Glen Burnie"
    },
    {
        "restaurant_id": "_8wPWD7vTGyCKlriKyNZhA",
        "ZIP_code": 21074,
        "restaurant_name": "Daughters Cafe of Hampstead",
        "address": "1005 S Main St Ste 200",
        "city": "Hampstead"
    },
    {
        "restaurant_id": "_Y8ib12hr55ajM-BrFnkIg",
        "ZIP_code": 21075,
        "restaurant_name": "Great Wall Chinese Restaurant",
        "address": "6325 Washington Blvd",
        "city": "Elkridge"
    },
    {
        "restaurant_id": "0AmvCQXi-qGJ4y3rtN_ObQ",
        "ZIP_code": 21075,
        "restaurant_name": "Touch\u00e9 Touchet Bakery & Cafe",
        "address": "6501 Huntshire Dr ",
        "city": "Elkridge"
    },
    {
        "restaurant_id": "gNdY0KFro70DgJ4CkDPIoQ",
        "ZIP_code": 21076,
        "restaurant_name": "Yard House",
        "address": "7000 Arundel Mills Cir",
        "city": "Hanover"
    },
    {
        "restaurant_id": "8pHpCu5H80XqEMKS9gUmDg",
        "ZIP_code": 21078,
        "restaurant_name": "Concord Point Coffee",
        "address": "217 N Washington St ",
        "city": "Havre de Grace"
    },
    {
        "restaurant_id": "rompGU-VM6NQRlk3Di18dw",
        "ZIP_code": 21090,
        "restaurant_name": "700 South Gourmet Deli and Cafe",
        "address": "1190 Winterson Rd ",
        "city": "Linthicum Heights"
    },
    {
        "restaurant_id": "ibGf67FgHSbayzudNOk1aA",
        "ZIP_code": 21093,
        "restaurant_name": "Fuentes Cafe",
        "address": "30 E Padonia Rd",
        "city": "Lutherville-Timonium"
    },
    {
        "restaurant_id": "O9cG8QDVtYr0DggB8bzYng",
        "ZIP_code": 21093,
        "restaurant_name": "First Watch",
        "address": "2159-D York Rd ",
        "city": "Timonium"
    },
    {
        "restaurant_id": "aKFTI2mTGHVcvSfbkllFdQ",
        "ZIP_code": 21093,
        "restaurant_name": "Stone Mill Bakery",
        "address": "10751 Falls Rd Ste 123",
        "city": "Lutherville Timonium"
    },
    {
        "restaurant_id": "Hxuh1boedwvcvAJfW2_cuQ",
        "ZIP_code": 21093,
        "restaurant_name": "Graul's Cafe",
        "address": "12218 Tullamore Rd ",
        "city": "Lutherville-Timonium"
    },
    {
        "restaurant_id": "ZQEFybcZVe19bAQ9n6BO_A",
        "ZIP_code": 21102,
        "restaurant_name": "MJ's Cafe and Baking Company",
        "address": "2965 Manchester Rd ",
        "city": "Manchester"
    },
    {
        "restaurant_id": "FuLBVIeMn9VqoK8ix7lm_g",
        "ZIP_code": 21117,
        "restaurant_name": "Taj Palace Owings Mills",
        "address": "9419 Common Brook Dr Ste 105",
        "city": "Owings Mills"
    },
    {
        "restaurant_id": "mEdP3-_vjvwYS7vLRMJZ7g",
        "ZIP_code": 21117,
        "restaurant_name": "Hunan House",
        "address": "10720 Reisterstown Rd Ste 1",
        "city": "Owing mills"
    },
    {
        "restaurant_id": "-qWzw8i0ZI3ei6g7qe7x7Q",
        "ZIP_code": 21136,
        "restaurant_name": "Cruisin' Cafe",
        "address": "2998 Lynde Brooke Ct ",
        "city": "Fallston"
    },
    {
        "restaurant_id": "U3e-E7i85un-OlCFNE9BtQ",
        "ZIP_code": 21146,
        "restaurant_name": "Cakes and Confections Gourmet Bakery",
        "address": "342 Ritchie Hwy Ste B",
        "city": "Severna Park"
    },
    {
        "restaurant_id": "SgEjCNe2Y_Oc91phd266xA",
        "ZIP_code": 21157,
        "restaurant_name": "Molli's Cafe",
        "address": "199 E Main St",
        "city": "Westminster"
    },
    {
        "restaurant_id": "dHPjQ4IiA_7_OSvGBPoYnw",
        "ZIP_code": 21157,
        "restaurant_name": "American Ice Co Cafe",
        "address": "62 W Main St",
        "city": "Westminster"
    },
    {
        "restaurant_id": "vpAAxKdryVuUzNkabvTqKg",
        "ZIP_code": 21157,
        "restaurant_name": "tCUP cafe",
        "address": "1 E Main St Fl 1",
        "city": "Westminster"
    },
    {
        "restaurant_id": "c02M5d89KnuxGUSgcze3Ng",
        "ZIP_code": 21157,
        "restaurant_name": "Starry Night Bakery",
        "address": "330 One Forty Village Rd ",
        "city": "Westminster"
    },
    {
        "restaurant_id": "OuZQWTf_7ju-jscYUpjAPQ",
        "ZIP_code": 21201,
        "restaurant_name": "Refocused Vegan",
        "address": "429 N Eutaw St Ste 1N",
        "city": "Baltimore"
    },
    {
        "restaurant_id": "3Wn7PMcrglCL4Adxjl80mg",
        "ZIP_code": 21201,
        "restaurant_name": "The Helmand",
        "address": "806 N Charles St ",
        "city": "Baltimore"
    },
    {
        "restaurant_id": "Xayjp8lOBLcnOKk6AUZrxA",
        "ZIP_code": 21201,
        "restaurant_name": "Dooby's",
        "address": "802 N Charles St",
        "city": "Baltimore"
    },
    {
        "restaurant_id": "kTOlqpQmnA-8nWxE0lbFEA",
        "ZIP_code": 21201,
        "restaurant_name": "The Land of Kush",
        "address": "840 N Eutaw St ",
        "city": "Baltimore"
    },
    {
        "restaurant_id": "NKTh3O4TuW5AwBQs2buLMw",
        "ZIP_code": 21201,
        "restaurant_name": "Cafe Fili",
        "address": "816 Cathedral St ",
        "city": "Baltimore"
    },
    {
        "restaurant_id": "8Mjdcm7G4-crGtZdKphs8A",
        "ZIP_code": 21201,
        "restaurant_name": "Brown Rice",
        "address": "520 Park Ave ",
        "city": "Baltimore"
    },
    {
        "restaurant_id": "AIw8bNbiWHXs7RGPsatzpw",
        "ZIP_code": 21201,
        "restaurant_name": "Caf\u00e9 Poupon",
        "address": "225 N Charles St ",
        "city": "Baltimore"
    },
    {
        "restaurant_id": "Zxj4PhLtrWUTaNsyN0bkWA",
        "ZIP_code": 21201,
        "restaurant_name": "Dodah's Kitchen",
        "address": "1210 N Charles St ",
        "city": "Baltimore"
    },
    {
        "restaurant_id": "6i0YJ-c8RX25NUIelG9OiQ",
        "ZIP_code": 21201,
        "restaurant_name": "Pinch Dumplings",
        "address": "520 Park Ave ",
        "city": "Baltimore"
    },
    {
        "restaurant_id": "lx6ZQjgZDvL0Rz9LmXtTKg",
        "ZIP_code": 21202,
        "restaurant_name": "Charmed.",
        "address": "824 N Calvert St",
        "city": "Baltimore"
    },
    {
        "restaurant_id": "u65W69AhbjUlvJJBkEhGNQ",
        "ZIP_code": 21202,
        "restaurant_name": "Miss Shirley's Cafe",
        "address": "750 E Pratt St ",
        "city": "Baltimore"
    },
    {
        "restaurant_id": "6ulR8s_SK3X0wYVQNZ0DSQ",
        "ZIP_code": 21202,
        "restaurant_name": "Next Phaze Cafe",
        "address": "112 E Lexington St ",
        "city": "Baltimore"
    },
    {
        "restaurant_id": "gfRaw_AHgcXQxTJXRBAVyw",
        "ZIP_code": 21202,
        "restaurant_name": "Cafe Gia Ristorante",
        "address": "410 S High St ",
        "city": "Baltimore"
    },
    {
        "restaurant_id": "4oT5e76cGrSUizxgTTxgvg",
        "ZIP_code": 21202,
        "restaurant_name": "Lebanese Taverna",
        "address": "719 S President St ",
        "city": "Baltimore"
    },
    {
        "restaurant_id": "rd8UgPzRx9Xf8q9oAyqbRQ",
        "ZIP_code": 21204,
        "restaurant_name": "The Bun Shop",
        "address": "40 W Chesapeake Ave",
        "city": "Towson"
    },
    {
        "restaurant_id": "MoXOoTdGqOx33c5E1yxwDA",
        "ZIP_code": 21204,
        "restaurant_name": "Atwater's - Kenilworth",
        "address": "798 Kenilworth Dr ",
        "city": "Towson"
    },
    {
        "restaurant_id": "Q7j2Cb33ZO9jgCy_JNCCXg",
        "ZIP_code": 21204,
        "restaurant_name": "Cunningham's Cafe & Bakery",
        "address": "1 Olympic Pl ",
        "city": "Towson"
    },
    {
        "restaurant_id": "3VeRXz7LPMyi896zlUoVug",
        "ZIP_code": 21204,
        "restaurant_name": "PLANTBAR",
        "address": "13 Allegheny Ave ",
        "city": "Towson"
    },
    {
        "restaurant_id": "xm0mSh5N9WcjoGYSICcn5g",
        "ZIP_code": 21204,
        "restaurant_name": "Cafe Troia",
        "address": "31 Allegheny Ave ",
        "city": "Towson"
    },
    {
        "restaurant_id": "CSe76-_qD3EFlgkocKRStw",
        "ZIP_code": 21204,
        "restaurant_name": "Coffee Talk Cafe",
        "address": "22 W Pennsylvania Ave Ste 101",
        "city": "Towson"
    },
    {
        "restaurant_id": "B0aXkwBhy2Nt_64DafeY1g",
        "ZIP_code": 21205,
        "restaurant_name": "Atwater's Caf\u00e9",
        "address": "855 N Wolfe St Ste A",
        "city": "Baltimore"
    },
    {
        "restaurant_id": "UrX5AmgfFKr48aseZjhqcA",
        "ZIP_code": 21205,
        "restaurant_name": "The Nook Cafe",
        "address": "801 N Broadway ",
        "city": "Baltimore"
    },
    {
        "restaurant_id": "_WvH6D3hy57m-kvBOpZEJA",
        "ZIP_code": 21208,
        "restaurant_name": "First Watch",
        "address": "1431 Reisterstown Rd ",
        "city": "Pikesville"
    },
    {
        "restaurant_id": "vf_Ynqi17AIwJmYqfpkRhw",
        "ZIP_code": 21208,
        "restaurant_name": "Mimi's Cafe",
        "address": "400 Reisterstown Rd ",
        "city": "Pikesville"
    },
    {
        "restaurant_id": "of3bv9EPzTno4UsvJuYZpA",
        "ZIP_code": 21209,
        "restaurant_name": "The Corner Pantry",
        "address": "6080 Falls Rd ",
        "city": "Baltimore"
    },
    {
        "restaurant_id": "1rlhBNbvQqRRxJizzgT3gg",
        "ZIP_code": 21210,
        "restaurant_name": "Miss Shirley's Cafe",
        "address": "513 W Cold Spring Ln",
        "city": "Baltimore"
    },
    {
        "restaurant_id": "gYcI_NStZMarqMwAZcsxWQ",
        "ZIP_code": 21210,
        "restaurant_name": "Pekara Bakery",
        "address": "506 W Cold Spring Ln",
        "city": "Baltimore"
    },
    {
        "restaurant_id": "BRJ1HbKcfDg7axFWWhUNzA",
        "ZIP_code": 21211,
        "restaurant_name": "Golden West Cafe",
        "address": "1105 W 36th St ",
        "city": "Baltimore"
    },
    {
        "restaurant_id": "eW40llUTvlGGcLqb28sSmA",
        "ZIP_code": 21211,
        "restaurant_name": "Artifact Coffee",
        "address": "1500 Union Ave Ste 114",
        "city": "Baltimore"
    },
    {
        "restaurant_id": "g6ayxkD3bl8cCZeTqoM22Q",
        "ZIP_code": 21211,
        "restaurant_name": "Yama Sushi Bar",
        "address": "1030 W 41st St Ste F1",
        "city": "Baltimore"
    },
    {
        "restaurant_id": "OtUYSoPnqSEhjBK9ZCBlPg",
        "ZIP_code": 21211,
        "restaurant_name": "Spring Cafe",
        "address": "900 W 36th St",
        "city": "Baltimore"
    },
    {
        "restaurant_id": "Qu6mxlp4kN2446FS2MnaDQ",
        "ZIP_code": 21211,
        "restaurant_name": "Harmony Bakery",
        "address": "3446 Chestnut Ave ",
        "city": "Baltimore"
    },
    {
        "restaurant_id": "-4FwdXgrgsxt28nqKGC55g",
        "ZIP_code": 21211,
        "restaurant_name": "Naked Lunch",
        "address": "711 W 40th St Ste 163",
        "city": "Baltimore"
    },
    {
        "restaurant_id": "_pFfw7dwxeGSrEAas_WF2g",
        "ZIP_code": 21211,
        "restaurant_name": "Cinnaholic",
        "address": "727 W 40th St Ste 137",
        "city": "Baltimore"
    },
    {
        "restaurant_id": "AXYXA6V2NLiFsXJILgS7AQ",
        "ZIP_code": 21212,
        "restaurant_name": "World Peace Cafe Baltimore",
        "address": "900 E Northern Pkwy",
        "city": "Baltimore"
    },
    {
        "restaurant_id": "eJx6U22aOYqjsvzLeqcY_Q",
        "ZIP_code": 21214,
        "restaurant_name": "Cloudy Donut ",
        "address": "4311 Harford Rd ",
        "city": "Baltimore"
    },
    {
        "restaurant_id": "apvz2_wXBSw5sHKU5jJ6mA",
        "ZIP_code": 21214,
        "restaurant_name": "Emma's Tea Spot",
        "address": "5500 Harford Rd ",
        "city": "Baltimore"
    },
    {
        "restaurant_id": "pFkJnSIOoUR08S7K349WsQ",
        "ZIP_code": 21214,
        "restaurant_name": "Zeke's Roastery",
        "address": "3003 Montebello Ter",
        "city": "Baltimore"
    },
    {
        "restaurant_id": "OxTkvlrT_nyUQMn2sxtjIw",
        "ZIP_code": 21215,
        "restaurant_name": "Chimes Cafe",
        "address": "4814 Seton Dr",
        "city": "Baltimore"
    },
    {
        "restaurant_id": "zLhUB7r7nVN4yaN9DQ91pg",
        "ZIP_code": 21217,
        "restaurant_name": "Park Cafe & Coffee Bar",
        "address": "132 McMechen St ",
        "city": "Baltimore"
    },
    {
        "restaurant_id": "3DZbjCHxAqAxoSB8Eqhxlw",
        "ZIP_code": 21218,
        "restaurant_name": "Larder",
        "address": "3 W 23rd St ",
        "city": "Baltimore"
    },
    {
        "restaurant_id": "TiYLEkxhhNHVtM-xDPcm8A",
        "ZIP_code": 21218,
        "restaurant_name": "honeygrow",
        "address": "3212 St Paul St",
        "city": "Baltimore"
    },
    {
        "restaurant_id": "xNQH7SRFc98fJHHT3oAL1A",
        "ZIP_code": 21218,
        "restaurant_name": "&pizza - Charles Village",
        "address": "3201 Saint Paul St",
        "city": "Baltimore"
    },
    {
        "restaurant_id": "HJLhagxTe9AXa0ryLqizwQ",
        "ZIP_code": 21218,
        "restaurant_name": "Sweet 27 Bar and Restaurant",
        "address": "123 W 27th St ",
        "city": "Baltimore"
    },
    {
        "restaurant_id": "oa0ZA3jmmHQ32WdiTkmCFw",
        "ZIP_code": 21218,
        "restaurant_name": "Terra Cafe",
        "address": "101 E 25th St ",
        "city": "Baltimore"
    },
    {
        "restaurant_id": "IyS9EzonGaBJ3wsHis8DoQ",
        "ZIP_code": 21218,
        "restaurant_name": "Sweet 27 Cafe and Bakery",
        "address": "123 W 27th St ",
        "city": "Baltimore"
    },
    {
        "restaurant_id": "a5c8AmmG9y8kehmk92NP3w",
        "ZIP_code": 21222,
        "restaurant_name": "Scoops Cafe",
        "address": "63 Shipping Pl ",
        "city": "Dundalk"
    },
    {
        "restaurant_id": "wbBo52hxtEJiAjE03XnqrQ",
        "ZIP_code": 21224,
        "restaurant_name": "Vinny's Cafe",
        "address": "6212 Holabird Ave ",
        "city": "Baltimore"
    },
    {
        "restaurant_id": "9G6mA6CRrsyFul74ObDcrA",
        "ZIP_code": 21224,
        "restaurant_name": "Franchesca\u2019s Empanadas Cafe",
        "address": "428 S Highland Ave",
        "city": "Baltimore"
    },
    {
        "restaurant_id": "tf6-VbiMWfnujYL3l5gAwQ",
        "ZIP_code": 21224,
        "restaurant_name": "Caf\u00e9 Dear Leon",
        "address": "2929 O'Donnell St ",
        "city": "Baltimore"
    },
    {
        "restaurant_id": "ol3olnRgSqefs8SvuVjcxQ",
        "ZIP_code": 21224,
        "restaurant_name": "Mayuree Thai Tavern",
        "address": "2318 Fleet St ",
        "city": "Baltimore"
    },
    {
        "restaurant_id": "Ho38BfP0gjQU8YuM2LDqYw",
        "ZIP_code": 21224,
        "restaurant_name": "J C Romero's Neighborhood Cafe",
        "address": "365 Cornwall St",
        "city": "Baltimore"
    },
    {
        "restaurant_id": "_lS172HbbC1iu0iGcQXM4g",
        "ZIP_code": 21225,
        "restaurant_name": "VegBox",
        "address": "311 Frankle St",
        "city": "Brooklyn Park"
    },
    {
        "restaurant_id": "ayL2kJsWbpRN_IfCVMTjbA",
        "ZIP_code": 21227,
        "restaurant_name": "Punjab Kabab & Sweets",
        "address": "5313 E Dr ",
        "city": "Halethorpe"
    },
    {
        "restaurant_id": "4H6By9R-yU00wf-QMxSh4Q",
        "ZIP_code": 21227,
        "restaurant_name": "Park Avenue Cafe II",
        "address": "3700 Koppers St",
        "city": "Baltimore"
    },
    {
        "restaurant_id": "X_6wpfM8nI3ncb15U7mtMQ",
        "ZIP_code": 21227,
        "restaurant_name": "Our Recipes Cafe & Catering",
        "address": "1332 Sulphur Spring Rd",
        "city": "Halethorpe"
    },
    {
        "restaurant_id": "SfefSmOpN4E-iF5cpgtsbA",
        "ZIP_code": 21227,
        "restaurant_name": "Three Bears Carry Out",
        "address": "4503 Annapolis Rd ",
        "city": "Halethorpe"
    },
    {
        "restaurant_id": "PUx_AioplmCH_JADf1lntw",
        "ZIP_code": 21228,
        "restaurant_name": "Umami Mediterranean Kitchen",
        "address": "712 Frederick Rd ",
        "city": "Catonsville"
    },
    {
        "restaurant_id": "Puu6ZK3CVImi12h8_xwJag",
        "ZIP_code": 21228,
        "restaurant_name": "Atwater's - Catonsville",
        "address": "815 Frederick Rd ",
        "city": "Catonsville"
    },
    {
        "restaurant_id": "ZS_Z9UVoxPXUBPk5dr8nZg",
        "ZIP_code": 21228,
        "restaurant_name": "Sprout Natural Choice",
        "address": "706 Frederick Rd ",
        "city": "Catonsville"
    },
    {
        "restaurant_id": "47Q2Xv30J9lu16UHnRmYvA",
        "ZIP_code": 21230,
        "restaurant_name": "SoBo Cafe",
        "address": "6 W Cross St",
        "city": "Baltimore"
    },
    {
        "restaurant_id": "yrR62xhuT8Z8g-t8doe4cw",
        "ZIP_code": 21230,
        "restaurant_name": "TinyBrickOven",
        "address": "1036 Light St ",
        "city": "Baltimore"
    },
    {
        "restaurant_id": "_9XDeyRO8Zp-jN9-q31VEA",
        "ZIP_code": 21230,
        "restaurant_name": "Blue Moon Too",
        "address": "1024 Light St ",
        "city": "Baltimore"
    },
    {
        "restaurant_id": "RULwpaT4vy-APUGnMvfXEg",
        "ZIP_code": 21230,
        "restaurant_name": "Spoons Cafe",
        "address": "24 E Cross St ",
        "city": "Baltimore"
    },
    {
        "restaurant_id": "nbei0fc3iK_T7ezt-JSaEA",
        "ZIP_code": 21230,
        "restaurant_name": "Honey's Cafe",
        "address": "784 Washington Blvd ",
        "city": "Baltimore"
    },
    {
        "restaurant_id": "lDD2K4Wn0Ozr01PhSy3Xsg",
        "ZIP_code": 21230,
        "restaurant_name": "Hull Street Blues Cafe",
        "address": "1222 Hull St ",
        "city": "Baltimore"
    },
    {
        "restaurant_id": "clffX19ao_ff1TVRm4BDcA",
        "ZIP_code": 21230,
        "restaurant_name": "Morning Mugs Coffee",
        "address": "15 W Hughes St",
        "city": "Baltimore"
    },
    {
        "restaurant_id": "5cKZascpPJemTk5gFVUBVw",
        "ZIP_code": 21230,
        "restaurant_name": "&pizza - Fed Hill",
        "address": "1201 S Charles St ",
        "city": "Baltimore"
    },
    {
        "restaurant_id": "ul6e62vyWlAUKhYkgrr9-Q",
        "ZIP_code": 21230,
        "restaurant_name": "Pure Raw Juice - Locust Point",
        "address": "1430 Lawrence St Ste 101",
        "city": "Baltimore"
    },
    {
        "restaurant_id": "aWIq7utmpjj1ys1mjjkRvA",
        "ZIP_code": 21230,
        "restaurant_name": "Gangster Vegan Organics",
        "address": "1065 South Charles St",
        "city": "Baltimore"
    },
    {
        "restaurant_id": "PCU5mBJn44Nfj571TgkhmA",
        "ZIP_code": 21231,
        "restaurant_name": "Water for Chocolate",
        "address": "1841 E Lombard St",
        "city": "Baltimore"
    },
    {
        "restaurant_id": "U710cMuvQMZD9rt-Xbf6Hw",
        "ZIP_code": 21231,
        "restaurant_name": "honeygrow",
        "address": "1309 Dock St",
        "city": "Baltimore"
    },
    {
        "restaurant_id": "_dQ8nhmeilvSTzvW_qLVow",
        "ZIP_code": 21231,
        "restaurant_name": "Pie In The Sky",
        "address": "716 S Broadway",
        "city": "Baltimore"
    },
    {
        "restaurant_id": "6fHmThcEKd4pmzdgS58zGw",
        "ZIP_code": 21231,
        "restaurant_name": "The Handlebar Cafe",
        "address": "511 S Caroline St ",
        "city": "Baltimore"
    },
    {
        "restaurant_id": "DgO2KpJFjj9L6FTUYD2bxA",
        "ZIP_code": 21231,
        "restaurant_name": "Pitango",
        "address": "903 S Ann St ",
        "city": "Baltimore"
    },
    {
        "restaurant_id": "Kl2WdPKwU7WXtFY8FP0sKA",
        "ZIP_code": 21231,
        "restaurant_name": "Liquid Earth",
        "address": "1626 Aliceanna St ",
        "city": "Baltimore"
    },
    {
        "restaurant_id": "Ae6djgVVpDpVS2Juwu-ziQ",
        "ZIP_code": 21231,
        "restaurant_name": "Van Gough Cafe",
        "address": "300 S Ann St ",
        "city": "Baltimore"
    },
    {
        "restaurant_id": "3PMI6BBfAJzVkEAZJMHE6Q",
        "ZIP_code": 21234,
        "restaurant_name": "Pavan Foods",
        "address": "8904 Harford Rd ",
        "city": "Parkville"
    },
    {
        "restaurant_id": "LxtOHeRhbSS1rfKeJyxDHw",
        "ZIP_code": 21236,
        "restaurant_name": "Ando's Market",
        "address": "8149 Honeygo Blvd",
        "city": "White Marsh"
    },
    {
        "restaurant_id": "YoE3qq1tEJgQHDZa-yWmXg",
        "ZIP_code": 21236,
        "restaurant_name": "The Cheesecake Cafe",
        "address": "8200 Perry Hall Blvd ",
        "city": "Baltimore"
    },
    {
        "restaurant_id": "mleDjpNFq7wGLjx1kkaWlg",
        "ZIP_code": 21244,
        "restaurant_name": "Sawmill Cafe",
        "address": "9700 Old Court Rd ",
        "city": "Baltimore"
    },
    {
        "restaurant_id": "eu8pK_RnIIwcWgVOIDuCcQ",
        "ZIP_code": 21244,
        "restaurant_name": "The Vegan's Choice",
        "address": "6901 Security Blvd",
        "city": "Windsor Mill"
    },
    {
        "restaurant_id": "GrY_7WvQT6iwDghmJLCW8w",
        "ZIP_code": 21286,
        "restaurant_name": "Spice & Dice",
        "address": "1220A E Joppa Rd Ste 106",
        "city": "Towson"
    },
    {
        "restaurant_id": "sUvHO_yxR8DECIIB2WBrrg",
        "ZIP_code": 21286,
        "restaurant_name": "Marketplace Cafe",
        "address": "700 Fairmount Ave ",
        "city": "Towson"
    },
    {
        "restaurant_id": "BoLBA58R-RWlZF063O5pUg",
        "ZIP_code": 21286,
        "restaurant_name": "Corner Bakery Cafe",
        "address": "823 Goucher Blvd ",
        "city": "Towson"
    },
    {
        "restaurant_id": "u9vGmoIBRidBCEUWkIlSzg",
        "ZIP_code": 21401,
        "restaurant_name": "Miss Shirley's Cafe Annapolis",
        "address": "1 Park Pl ",
        "city": "Annapolis"
    },
    {
        "restaurant_id": "ABjdL6qUse151_MF7aFBIA",
        "ZIP_code": 21401,
        "restaurant_name": "Basmati Indian Cuisine",
        "address": "2444 Solomans Island Rd ",
        "city": "Annapolis"
    },
    {
        "restaurant_id": "MrYu97dOP7PbNDLMnO0Hxg",
        "ZIP_code": 21401,
        "restaurant_name": "Chopt Creative Salad Co.",
        "address": "2331 Forest Dr Ste A B",
        "city": "Annapolis"
    },
    {
        "restaurant_id": "ogjimHZNyEV0yT5aJR1vjg",
        "ZIP_code": 21401,
        "restaurant_name": "Evelyn's",
        "address": "26 Annapolis St",
        "city": "Annapolis"
    },
    {
        "restaurant_id": "ET6s5GtUxbh0v6cQznyD9A",
        "ZIP_code": 21401,
        "restaurant_name": "Kittens in Cups",
        "address": "177 Defense Hwy ",
        "city": "Annapolis"
    },
    {
        "restaurant_id": "uy7Ii5dr4VKy3YCWeCwYkg",
        "ZIP_code": 21401,
        "restaurant_name": "Corner Cafe",
        "address": "2641 Riva Rd A",
        "city": "Annapolis"
    },
    {
        "restaurant_id": "Z57pP15SFM6N0q1Fe5DU3w",
        "ZIP_code": 21401,
        "restaurant_name": "Rise Up Coffee",
        "address": "2042 Somerville Rd",
        "city": "Annapolis"
    },
    {
        "restaurant_id": "dUWgdgSC2G8PB19MDrP2ig",
        "ZIP_code": 21401,
        "restaurant_name": "Potato Valley Cafe",
        "address": "47 State Cir Ste 100",
        "city": "Annapolis"
    },
    {
        "restaurant_id": "zH9kHkvkKRh9QL_vC50A1Q",
        "ZIP_code": 21401,
        "restaurant_name": "Golden Dragon",
        "address": "1900 Forest Dr Ste 7",
        "city": "Annapolis"
    },
    {
        "restaurant_id": "XhbUKmDifDKjHFbCgNqoWQ",
        "ZIP_code": 21403,
        "restaurant_name": "Bread and Butter Kitchen",
        "address": "303 Second St Ste A",
        "city": "Annapolis"
    },
    {
        "restaurant_id": "J1MF79xF3VefRbNmy9_Ixg",
        "ZIP_code": 21403,
        "restaurant_name": "Main & Market",
        "address": "914 Bay Ridge Rd ",
        "city": "Annapolis"
    },
    {
        "restaurant_id": "Mhmz4uLsZR1G4tIG_4rpqw",
        "ZIP_code": 21403,
        "restaurant_name": "Forward Brewing",
        "address": "418 Fourth St ",
        "city": "Annapolis"
    },
    {
        "restaurant_id": "lKeW6Q9dXhTwk5oVe1YKFQ",
        "ZIP_code": 21403,
        "restaurant_name": "The Wet Dog Caf\u00e9",
        "address": "7082 Bembe Beach Rd ",
        "city": "Annapolis"
    },
    {
        "restaurant_id": "x21O5zbeJKpLR6mIGVVqFQ",
        "ZIP_code": 21403,
        "restaurant_name": "Back Creek Cafe",
        "address": "7310 Edgewood Rd ",
        "city": "Annapolis"
    },
    {
        "restaurant_id": "ryever3Cqdw_aq1BbLvHJA",
        "ZIP_code": 21409,
        "restaurant_name": "Blue Rooster Cafe",
        "address": "1372 Cape Saint Claire Rd ",
        "city": "Annapolis"
    },
    {
        "restaurant_id": "Gc62HIphVHHs_mUc4fYvbQ",
        "ZIP_code": 21502,
        "restaurant_name": "Cafe Mark",
        "address": "37 Baltimore St ",
        "city": "Cumberland"
    },
    {
        "restaurant_id": "1kB3GGzk1VMXrAGw7axA6w",
        "ZIP_code": 21531,
        "restaurant_name": "Water Street Cafe",
        "address": "641 Water St ",
        "city": "Friendsville"
    },
    {
        "restaurant_id": "u2uBtfClSP6q_hqDZV9N1Q",
        "ZIP_code": 21532,
        "restaurant_name": "Savage River Lodge",
        "address": "1600 Mount Aetna Rd ",
        "city": "Frostburg"
    },
    {
        "restaurant_id": "F6tiv6scAh4Srr0OmFgDJg",
        "ZIP_code": 21532,
        "restaurant_name": "Giuseppe's Italian Restaurant",
        "address": "11 Bowery St ",
        "city": "Frostburg"
    },
    {
        "restaurant_id": "wRKEN_Ric8doUHBTq04A6Q",
        "ZIP_code": 21550,
        "restaurant_name": "Heidi's Bakery & Cafe",
        "address": "2249 Blue Ribbon Rd ",
        "city": "Oakland"
    },
    {
        "restaurant_id": "ZrkJp5s6vdk_kOABeoprmA",
        "ZIP_code": 21601,
        "restaurant_name": "Eat Sprout",
        "address": "335 N Aurora St",
        "city": "Easton"
    },
    {
        "restaurant_id": "iJ3shuy_OdLuhDaGpqeMpw",
        "ZIP_code": 21601,
        "restaurant_name": "Rise Up Coffee Roasters",
        "address": "618 Dover Rd ",
        "city": "Easton"
    },
    {
        "restaurant_id": "YkkaTgfFHVjKdLZhHxJiPA",
        "ZIP_code": 21601,
        "restaurant_name": "Hill's Cafe & Juice Bar",
        "address": "30 E Dover St ",
        "city": "Easton"
    },
    {
        "restaurant_id": "mHDBfgJPYSKMBg6lM22HvA",
        "ZIP_code": 21601,
        "restaurant_name": "Sugar Buns Airport Cafe",
        "address": "29137 Newnam Rd",
        "city": "Easton"
    },
    {
        "restaurant_id": "zw3mmUys17OePY0tK_Z7qQ",
        "ZIP_code": 21613,
        "restaurant_name": "Overflow Cafe",
        "address": "400 Muir St ",
        "city": "Cambridge"
    },
    {
        "restaurant_id": "AuM2snSXbOcorLHsiZg6bw",
        "ZIP_code": 21613,
        "restaurant_name": "The Bay Country Bakery & Cafe",
        "address": "2951 Ocean Gtwy ",
        "city": "Cambridge"
    },
    {
        "restaurant_id": "SFxR-rrdi5J7-yq9G4tnRg",
        "ZIP_code": 21617,
        "restaurant_name": "Commerce Street Creamery Cafe Bistro",
        "address": "110 N Commerce St ",
        "city": "Centreville"
    },
    {
        "restaurant_id": "oplO0sHrhWvP1dSGWTFa9g",
        "ZIP_code": 21654,
        "restaurant_name": "Oxford Social",
        "address": "102 S Morris St ",
        "city": "Oxford"
    },
    {
        "restaurant_id": "GLQeC-gFGYBlq6xjphzLTQ",
        "ZIP_code": 21661,
        "restaurant_name": "Muskrat Alley Cafe",
        "address": "5877 Coleman Rd ",
        "city": "Rock Hall"
    },
    {
        "restaurant_id": "qhD5OxJF6QWvHfodRIeB3A",
        "ZIP_code": 21663,
        "restaurant_name": "Gina's Cafe",
        "address": " ",
        "city": "Saint Michaels"
    },
    {
        "restaurant_id": "65f1is6ynlV1eggxvJrchA",
        "ZIP_code": 21663,
        "restaurant_name": "Eat Sprout",
        "address": "114 S Talbot St",
        "city": "Saint Michaels"
    },
    {
        "restaurant_id": "wzb55POY27sVbgKa-o_McA",
        "ZIP_code": 21666,
        "restaurant_name": "The Market",
        "address": "180 Pier One Rd",
        "city": "Stevensville"
    },
    {
        "restaurant_id": "agC5zdNXue7mE54ZuUsibQ",
        "ZIP_code": 21701,
        "restaurant_name": "Cafe Bueno",
        "address": "255 E 4th St",
        "city": "Frederick"
    },
    {
        "restaurant_id": "VnUuijCUp2dV_9iQ7eLHAA",
        "ZIP_code": 21701,
        "restaurant_name": "Glory Doughnuts",
        "address": "244 E Church St ",
        "city": "Frederick"
    },
    {
        "restaurant_id": "uzU8PCFVAAwcfeM9bpwcBA",
        "ZIP_code": 21701,
        "restaurant_name": "Ibiza Cafe",
        "address": "8 West 4th St ",
        "city": "Frederick"
    },
    {
        "restaurant_id": "4MAXtPEB5sBGo0GACvvS6g",
        "ZIP_code": 21701,
        "restaurant_name": "11:11 Cafe",
        "address": "124 S Carroll St ",
        "city": "Frederick"
    },
    {
        "restaurant_id": "x_yt76L-ZcsQh7ANBW-LUQ",
        "ZIP_code": 21701,
        "restaurant_name": "Cafe 611 Restaurant",
        "address": "611 N Market St",
        "city": "Frederick"
    },
    {
        "restaurant_id": "EnnIAyyCuHcFbnGMRxMWRQ",
        "ZIP_code": 21702,
        "restaurant_name": "Cafe L'ami",
        "address": "1063 W Patrick St ",
        "city": "Frederick"
    },
    {
        "restaurant_id": "rTpQMVoJf52a5hlPbz_xpg",
        "ZIP_code": 21703,
        "restaurant_name": "a.k.a. Friscos",
        "address": "4632 Wedgewood Blvd ",
        "city": "Frederick"
    },
    {
        "restaurant_id": "W-C4bcTegCe1mFTvqUpW-w",
        "ZIP_code": 21740,
        "restaurant_name": "Rik's Cafe",
        "address": "1065 Maryland Ave ",
        "city": "Hagerstown"
    },
    {
        "restaurant_id": "hTwb9wphujwmxVN2dixY6Q",
        "ZIP_code": 21740,
        "restaurant_name": "Silt Coffee",
        "address": "322 E Antietam St Ste 100",
        "city": "Hagerstown"
    },
    {
        "restaurant_id": "kUdNXCELitkQEnE9KwBbiw",
        "ZIP_code": 21740,
        "restaurant_name": "Charlie and Sam's Bakeshop and Cafe",
        "address": "22 N Mulberry St Ste 101",
        "city": "Hagerstown"
    },
    {
        "restaurant_id": "rbr-mOuIMxl7eDgkwFitJQ",
        "ZIP_code": 21740,
        "restaurant_name": "Sibara Catering & Global Cafe",
        "address": "204 E Franklin St",
        "city": "Hagerstown"
    },
    {
        "restaurant_id": "3KHnaMLPdijZFh7WeSxugg",
        "ZIP_code": 21740,
        "restaurant_name": "Public Square Cafe",
        "address": "2 West Washington St ",
        "city": "Hagerstown"
    },
    {
        "restaurant_id": "VTToXXkB8EZcv9-HBySyTQ",
        "ZIP_code": 21742,
        "restaurant_name": "Rooster Moon Coffeehouse",
        "address": "1551 Potomac Ave ",
        "city": "Hagerstown"
    },
    {
        "restaurant_id": "PJpJ-1FpKrV_U5fj54hDtQ",
        "ZIP_code": 21766,
        "restaurant_name": "OAK Barrel",
        "address": "35206 National Pike NE ",
        "city": "Little Orleans"
    },
    {
        "restaurant_id": "enkB6_AlQDY8qppmliOxHQ",
        "ZIP_code": 21770,
        "restaurant_name": "The Buzz",
        "address": "11801 Fingerboard Rd Ste 3",
        "city": "Monrovia"
    },
    {
        "restaurant_id": "lkB9m8M6zdmNPT_QUhkmxA",
        "ZIP_code": 21771,
        "restaurant_name": "Superfoods Cafe & Market",
        "address": "106 S Main St ",
        "city": "Mount Airy"
    },
    {
        "restaurant_id": "ZxcpuXp2tv-R8MaS3ZCDMQ",
        "ZIP_code": 21784,
        "restaurant_name": "French Twist Cafe",
        "address": "732 Oklahoma Ave ",
        "city": "Sykesville"
    },
    {
        "restaurant_id": "Rn2SXYwoYMR3tkqgqZPPyg",
        "ZIP_code": 21784,
        "restaurant_name": "Krystal's cafe",
        "address": "Londontown Blvd ",
        "city": "Eldersburg"
    },
    {
        "restaurant_id": "n60ek6fumYX54jo5cs_ZOw",
        "ZIP_code": 21787,
        "restaurant_name": "Stone House Cakery and Cafe",
        "address": "12 E Baltimore St ",
        "city": "Taneytown"
    },
    {
        "restaurant_id": "CBwsankRMqyaFKgtC-NGJg",
        "ZIP_code": 21801,
        "restaurant_name": "Mad Hatter Cafe",
        "address": "501 W Main St Unit A and B",
        "city": "Salisbury"
    },
    {
        "restaurant_id": "ZRGeU5L6eYSZp1Jo6SWEDA",
        "ZIP_code": 21801,
        "restaurant_name": "Viet Taste",
        "address": "215 North Blvd ",
        "city": "Salisbury"
    },
    {
        "restaurant_id": "0oGz6kMJyNJ5W2fV9XhcRw",
        "ZIP_code": 21801,
        "restaurant_name": "Saladworks",
        "address": "1405 S Salisbury Blvd ",
        "city": "Salisbury"
    },
    {
        "restaurant_id": "9adr0nqzOggflus8K3GRAw",
        "ZIP_code": 21801,
        "restaurant_name": "Saladworks",
        "address": "2737 N Salisbury Blvd Ste B",
        "city": "Salisbury"
    },
    {
        "restaurant_id": "erEm_2Mo_NZhDppC77dCNw",
        "ZIP_code": 21801,
        "restaurant_name": "Pablo's Bowls",
        "address": "1306 S Salisbury Blvd",
        "city": "Salisbury"
    },
    {
        "restaurant_id": "ivaYLNwxKpM0MElDZmrSNw",
        "ZIP_code": 21801,
        "restaurant_name": "Nestle Toll House Cafe by Chip",
        "address": "2800 N Salisbury Blvd ",
        "city": "Salisbury"
    },
    {
        "restaurant_id": "1J9OJwNMsPD8fy2m7hMLkg",
        "ZIP_code": 21804,
        "restaurant_name": "Kellyn's Kafe",
        "address": "748 E Main St",
        "city": "Salisbury"
    },
    {
        "restaurant_id": "5hcIanMOGrrc5zjGjAm4zA",
        "ZIP_code": 21804,
        "restaurant_name": "Barnes and Nobel Cafe",
        "address": "2618 N Salisbury Blvd Ste 200",
        "city": "Salisbury"
    },
    {
        "restaurant_id": "HJDkVXaZcqNaoef3I2V2gQ",
        "ZIP_code": 21811,
        "restaurant_name": "Burley Cafe",
        "address": "17 Jefferson St ",
        "city": "Berlin"
    },
    {
        "restaurant_id": "p4e5pCNFV6BlRLPJuU7dsw",
        "ZIP_code": 21811,
        "restaurant_name": "On What Grounds?",
        "address": "103 N Main St",
        "city": "Berlin"
    },
    {
        "restaurant_id": "_0WdYOugjyT5cZNz5kqFbg",
        "ZIP_code": 21842,
        "restaurant_name": "Longboard Caf\u00e9",
        "address": "6701 Coastal Hwy ",
        "city": "Ocean City"
    },
    {
        "restaurant_id": "iWCwPDYKB2J3-UHEpnkV5g",
        "ZIP_code": 21842,
        "restaurant_name": "Shotti\u2019s Point Cafe",
        "address": "607 N Atlantic Ave Ste 106",
        "city": "Ocean City"
    },
    {
        "restaurant_id": "scdVoM8YBER63eq2j6lMAg",
        "ZIP_code": 21842,
        "restaurant_name": "Coral Reef Cafe & Bar",
        "address": "1701 Atlantic Ave",
        "city": "Ocean City"
    },
    {
        "restaurant_id": "ES2K-8NUsBeF3x5TOGUt1w",
        "ZIP_code": 21842,
        "restaurant_name": "Malia's Cafe",
        "address": "1800 Baltimore Ave ",
        "city": "Ocean City"
    },
    {
        "restaurant_id": "b5638KmAPt1Dqd1JKYLGrQ",
        "ZIP_code": 21842,
        "restaurant_name": "Sea Bay Cafe",
        "address": "6007 Coastal Hwy",
        "city": "Ocean City"
    },
    {
        "restaurant_id": "ugSmyAtkyAfXtjObazOobQ",
        "ZIP_code": 21842,
        "restaurant_name": "My Thai OC",
        "address": "13727 Coastal Hwy ",
        "city": "Ocean City"
    },
    {
        "restaurant_id": "QIqSM-KGNXNg3xppLH7j_w",
        "ZIP_code": 21842,
        "restaurant_name": "Rise Up Coffee",
        "address": "12611 Ocean Gateway Unit 2",
        "city": "West Ocean City"
    },
    {
        "restaurant_id": "zzJD0xEAIVB2DgHlnEvZUw",
        "ZIP_code": 21842,
        "restaurant_name": "Pablos Bowls",
        "address": "1607 Philadelphia Ave ",
        "city": "Ocean City"
    },
    {
        "restaurant_id": "fPKbKq1l7FZtyRIHYZsHcw",
        "ZIP_code": 21842,
        "restaurant_name": "The Muze Cafe",
        "address": "4 Somerset St",
        "city": "Ocean City"
    },
    {
        "restaurant_id": "GEu-O6oUdy9ae5OkxFE5hA",
        "ZIP_code": 21842,
        "restaurant_name": "Breakfast Cafe",
        "address": "12736 Ocean Gateway ",
        "city": "Ocean City"
    },
    {
        "restaurant_id": "N5IEiICIEo-C_P2Kj2Jdgg",
        "ZIP_code": 21921,
        "restaurant_name": "Spork Cafe",
        "address": "102 W Main St ",
        "city": "Elkton"
    },
    {
        "restaurant_id": "f3D5mNedRRRLrDVY51KDfg",
        "ZIP_code": 21921,
        "restaurant_name": "Simply Savory Cafe & Catering",
        "address": "5 Commercial Plz ",
        "city": "Elkton"
    }
]